cds_code,status,charter,ed_type,level,pb_prv_bie,school,district,county,street,city,state,stacked,stack_cnt,grades_offered,grades_served,pounds_chloropicrin_intersection
56725465634761,Active,No,Traditional,High School,Public,Rio Mesa High,Oxnard Union High,Ventura,545 Central Avenue,Oxnard,CA,No,1,9-12,9-12,177620.9848315237
56725616055495,Active,No,Traditional,Intermediate/Middle/Junior High,Public,Rio del Valle Middle,Rio Elementary,Ventura,3100 Rose Avenue,Oxnard,CA,No,1,6-8,6-8,65747.9072509014
27661916102925,Active,No,Traditional,Intermediate/Middle/Junior High,Public,Gavilan View Middle,Santa Rita Union Elementary,Monterey,18250 Vab Buren Avenue,Salinas,CA,No,1,6-8,6-8,64701.35727107616
56105615630223,Active,No,Juvenile Court School,High School,Public,Providence,Ventura County Office of Education,Ventura,4333 Vineyard Avenue,Oxnard,CA,No,1,K-12,9-12,63696.86369098156
56725120118265,Active,No,Traditional,Elementary,Public,Ocean View Early Education,Ocean View,Ventura,4600 Olds Road,Oxnard,CA,Yes,3,P,K,54437.11735465111
56725126055172,Active,No,Traditional,Elementary,Public,Mar Vista Elementary,Ocean View,Ventura,2382 Etting Road,Oxnard,CA,Yes,3,K-5,K-5,54437.11735465111
56725126084891,Active,No,Traditional,Intermediate/Middle/Junior High,Public,Ocean View Junior High,Ocean View,Ventura,4300 Olds Road,Oxnard,CA,Yes,3,6-8,6-8,54437.11735465111
27660766026140,Active,No,Traditional,Elementary - Intermediate/Middle/Junior High Combination,Public,Lagunita Elementary,Lagunita Elementary,Monterey,975 San Juan Grade Road,Salinas,CA,No,1,K-8,K-8,39595.454181218556
27659616025985,Active,No,Traditional,Elementary,Public,Bardin Elementary,Alisal Union,Monterey,425 Bardin Road,Salinas,CA,No,1,K-6,K-6,37986.66054925201
56725465634548,Active,No,Traditional,High School,Public,Oxnard High,Oxnard Union High,Ventura,3400 West Gonzales Road,Oxnard,CA,No,1,9-12,9-12,36754.551658139455
42691206045272,Active,No,Traditional,Elementary,Public,Bonita Elementary,Santa Maria-Bonita,Santa Barbara,2715 West Main Street,Santa Maria,CA,No,1,K-6,K-6,35468.66107445025
44697996108138,Active,No,Traditional,Elementary,Public,Ohlone Elementary,Pajaro Valley Unified,Monterey,21 Bay Farms Road,Watsonville,CA,No,1,K-5,K-5,35293.55906187628
56725126055180,Active,No,Traditional,Elementary,Public,Tierra Vista Elementary,Ocean View,Ventura,2001 Sanford Street,Oxnard,CA,No,1,K-5,K-5,34399.9722936385
42691200102848,Active,No,Traditional,Elementary,Public,Sanchez (David J.) Elementary,Santa Maria-Bonita,Santa Barbara,804 West Liberty Street,Santa Maria,CA,No,1,K-6,K-6,30302.964407328724
42691206045959,Active,No,Traditional,Elementary,Public,Adam (William Laird) Elementary,Santa Maria-Bonita,Santa Barbara,500 West Windsor,Santa Maria,CA,No,1,K-6,K-6,27573.172434536762
44697996049753,Active,No,Traditional,Intermediate/Middle/Junior High,Public,Pajaro Middle,Pajaro Valley Unified,Monterey,250 Salinas Road,Watsonville,CA,No,1,6-8,6-8,26921.30682257491
42693100102285,Active,No,Traditional,High School,Public,Pioneer Valley High,Santa Maria Joint Union High,Santa Barbara,675 Panther Drive,Santa Maria,CA,No,1,9-12,9-12,26234.42320418993
44697994437794,Active,No,Continuation School,High School,Public,Renaissance High Continuation,Pajaro Valley Unified,Santa Cruz,11 Spring Valley Road,La Selva Beach,CA,No,1,9-12,10-12,23151.92360395756
56724705630363,Active,Yes,Traditional,Elementary - High Combination,Public,Golden Valley Charter,Mesa Union Elementary,Ventura,"3585 Maple Street, Suite 101",Ventura,CA,No,1,K-12,K-12,22371.905788891374
44697996049803,Active,No,Traditional,Elementary,Public,T. S. MacQuiddy Elementary,Pajaro Valley Unified,Santa Cruz,330 Martinelli Street,Watsonville,CA,No,1,K-5,K-5,20951.851711890118
27659610127456,Active,No,Traditional,Elementary,Public,Monte Bella Elementary,Alisal Union,Monterey,1300 Tuscany Boulevard,Salinas,CA,No,1,K-6,K-6,20809.434298613967
56725126055164,Active,No,Traditional,Elementary,Public,Laguna Vista Elementary,Ocean View,Ventura,5084 Etting Road,Oxnard,CA,No,1,K-5,K-5,19262.981415439157
27738256026413,Active,No,Traditional,Elementary,Public,Elkhorn Elementary,North Monterey County Unified,Monterey,2235 Elkhorn Road,Castroville,CA,No,1,K-6,K-6,17309.824409267683
27661592730166,Active,No,Traditional,High School,Public,Everett Alvarez High,Salinas Union High,Monterey,1900 Independence Boulevard,Salinas,CA,No,1,9-12,9-12,15401.825678864461
40687594030557,Active,No,Traditional,High School,Public,Arroyo Grande High,Lucia Mar Unified,San Luis Obispo,495 Valley Road,Arroyo Grande,CA,No,1,8-12,9-12,15007.128588396703
42691206046049,Active,No,Traditional,Elementary,Public,Oakley (Calvin C.) Elementary,Santa Maria-Bonita,Santa Barbara,1120 West Harding Street,Santa Maria,CA,No,1,K-6,K-6,14412.291895055396
27661910122911,Active,No,Traditional,Intermediate/Middle/Junior High,Public,Bolsa Knolls Middle,Santa Rita Union Elementary,Monterey,1031 Rogge Road,Salinas,CA,No,1,6-8,6-8,13938.011343881979
44697996049712,Active,No,Traditional,Elementary,Public,Hall District Elementary,Pajaro Valley Unified,Monterey,300 Sill Road,Watsonville,CA,No,1,K-5,K-5,13908.534492876051
34322765637780,Active,No,Youth Authority School,High School,Public,Mary B. Perry High,California Education Authority (CEA) Headquarters,Ventura,3100 Wright Road,Camarillo,CA,No,1,9-12,9-12,13756.74230642598
27659616117691,Active,No,Traditional,Elementary,Public,Oscar F. Loya Elementary,Alisal Union,Monterey,1505 Cougar Drive,Salinas,CA,No,1,K-6,K-6,13260.523733150623
56725616118061,Active,No,Traditional,Elementary,Public,Rio Rosales,Rio Elementary,Ventura,1001 Kohala Street,Oxnard,CA,No,1,K-5,K-5,12948.248870895719
27661426066963,Active,No,Traditional,Elementary,Public,University Park Elementary,Salinas City Elementary,Monterey,833 West Acacia Street,Salinas,CA,No,1,K-6,K-6,12286.056659718244
44697996112841,Active,No,Traditional,Intermediate/Middle/Junior High,Public,Lakeview Middle,Pajaro Valley Unified,Santa Cruz,2350 East Lake Avenue,Watsonville,CA,No,1,6-8,6-8,10910.944559318856
42691206045975,Active,No,Traditional,Elementary,Public,Arellanes (Don Juan Bautista) Elementary,Santa Maria-Bonita,Santa Barbara,1890 Sandalwood Drive,Santa Maria,CA,Yes,2,K-6,K-6,10630.050024487018
42691206119820,Active,No,Traditional,Intermediate/Middle/Junior High,Public,Arellanes Junior High,Santa Maria-Bonita,Santa Barbara,1890 Sandalwood Drive,Santa Maria,CA,Yes,2,7-8,7-8,10630.050024487018
44697996049829,Active,Yes,Traditional,Elementary - Intermediate/Middle/Junior High Combination,Public,Alianza Charter,Pajaro Valley Unified,Santa Cruz,115 Casserly Road,Watsonville,CA,Yes,2,K-8,K-8,10276.195727862476
44697996119077,Active,Yes,Traditional,Elementary - Intermediate/Middle/Junior High Combination,Public,Watsonville Charter School of the Arts,Pajaro Valley Unified,Santa Cruz,"115 Casserly Road, West Campus",Watsonville,CA,Yes,2,K-8,K-8,10276.195727862476
47736846050843,Active,No,Traditional,Elementary - Intermediate/Middle/Junior High Combination,Public,Butte Valley Elementary,Butte Valley Unified,Siskiyou,615 West Third Street,Dorris,CA,No,1,K-8,K-8,10219.760288199435
56726525637814,Active,No,Traditional,High School,Public,Ventura Adult and Continuing Education,Ventura Unified,Ventura,5200 Valentine Road,Ventura,CA,No,1,Adult,12,8912.109355113005
56725386055370,Active,No,Traditional,Elementary,Public,Rose Avenue Elementary,Oxnard,Ventura,220 South Driskill Street,Oxnard,CA,No,1,K-5,K-5,8887.07036681344
56725386100333,Active,No,Traditional,Elementary - Intermediate/Middle/Junior High Combination,Public,Lemonwood Elementary,Oxnard,Ventura,2001 San Mateo Place,Oxnard,CA,No,1,K-8,K-8,7853.105901457966
44697996117253,Active,No,Traditional,Elementary,Public,Ann Soldo Elementary,Pajaro Valley Unified,Santa Cruz,1140 Menasco Drive,Watsonville,CA,No,1,K-5,K-5,7214.583876854147
37684520118430,Active,No,Alternative School of Choice,High School,Public,Mission Vista High,Vista Unified,San Diego,1306 Melrose Drive,Oceanside,CA,No,1,9-12,9-12,6741.304168284095
30736500116053,Active,No,Special Education School,Elementary,Public,Early Childhood Learning Center,Irvine Unified,Orange,1 Smoketree,Irvine,CA,No,1,P,K,6679.55324706919
15735446010011,Active,No,Traditional,Intermediate/Middle/Junior High,Public,Rio Bravo-Greeley Elementary,Rio Bravo-Greeley Union Elementary,Kern,6601 Enos Lane,Bakersfield,CA,Yes,2,5-8,5-8,6474.95319953739
15735446117816,Active,No,Traditional,Elementary,Public,Rio Bravo Elementary,Rio Bravo-Greeley Union Elementary,Kern,22725 Elementary Lane,Bakersfield,CA,Yes,2,K-4,K-4,6474.95319953739
43695836118541,Active,Yes,Traditional,Elementary - Intermediate/Middle/Junior High Combination,Public,Charter School of Morgan Hill,Morgan Hill Unified,Santa Clara,9530 Monterey Road,Morgan Hill,CA,No,1,K-8,K-8,5421.66087628041
56726526056212,Active,No,Traditional,Elementary,Public,Sheridan Way Elementary,Ventura Unified,Ventura,573 Sheridan Way,Ventura,CA,No,1,K-5,K-5,5320.138808148937
35752596049654,Active,No,Traditional,Elementary - Intermediate/Middle/Junior High Combination,Public,Aromas,Aromas - San Juan Unified,Monterey,365 Vega Street,Aromas,CA,No,1,K-8,K-8,5075.088269308325
52715226053474,Active,No,Traditional,Elementary - Intermediate/Middle/Junior High Combination,Public,Bend Elementary,Evergreen Union,Tehama,22270 Bend Ferry Road,Red Bluff,CA,No,1,K-8,K-8,4893.37151582743
40687590110486,Active,No,Traditional,Elementary,Public,Lange (Dorothea) Elementary,Lucia Mar Unified,San Luis Obispo,1661 Via Alta Mesa,Nipomo,CA,No,1,K-6,K-6,4714.035425318636
56725616055511,Active,No,Traditional,Elementary,Public,Rio Plaza Elementary,Rio Elementary,Ventura,600 Simon Way,Oxnard,CA,No,1,K-5,K-5,4712.078881429396
44697990105858,Active,No,Traditional,High School,Public,Pajaro Valley High,Pajaro Valley Unified,Santa Cruz,500 Harkins Slough Road,Watsonville,CA,No,1,9-12,9-12,4688.504191654407
33736766032254,Active,No,Traditional,Elementary,Public,Mecca Elementary,Coachella Valley Unified,Riverside,65250 Coahuilla Street,Mecca,CA,No,1,K-6,K-6,4126.8472378029055
39685936112197,Active,No,Traditional,Elementary - Intermediate/Middle/Junior High Combination,Public,Joshua Cowell Elementary,Manteca Unified,San Joaquin,740 Pestana Avenue,Manteca,CA,No,1,K-8,K-8,3589.4505153176497
15637686010037,Active,No,Traditional,Elementary - Intermediate/Middle/Junior High Combination,Public,Semitropic Elementary,Semitropic Elementary,Kern,25300 Highway 46,Wasco,CA,No,1,K-8,K-8,3218.837312108841
56725460131698,Active,No,Traditional,High School,Public,Rancho Campana High,Oxnard Union High,Ventura,4235 Mar Vista Drive,Camarillo,CA,No,1,9-12,9-12,3129.2478037761716
27738252730034,Active,No,Traditional,High School,Public,North Monterey County High,North Monterey County Unified,Monterey,13990 Castroville Boulevard,Castroville,CA,No,1,9-12,9-12,3121.1651303136496
56726526056055,Active,No,Traditional,Elementary,Public,Blanche Reynolds Elementary,Ventura Unified,Ventura,450 Valmore Avenue,Ventura,CA,Yes,2,K-5,K-5,3078.4896342577963
56726526115687,Active,No,Alternative School of Choice,Elementary - Intermediate/Middle/Junior High Combination,Public,Homestead (Alternative),Ventura Unified,Ventura,450 Valmore Avenue,Ventura,CA,Yes,2,K-8,1-8,3078.4896342577963
56726116055834,Active,No,Traditional,Elementary - Intermediate/Middle/Junior High Combination,Public,Somis Elementary,Somis Union,Ventura,5268 North Street,Somis,CA,No,1,K-8,K-8,2956.178776459923
44697996049662,Active,No,Traditional,Elementary,Public,Bradley Elementary,Pajaro Valley Unified,Santa Cruz,321 Corralitos Road,Watsonville,CA,No,1,K-6,K-6,2928.182786749863
27661590136697,Active,No,Traditional,High School,Public,Rancho San Juan High,Salinas Union High,Monterey,1100 Rogge Road,Salinas,CA,No,1,9-12,9-12,2885.043174006299
56724706055123,Active,No,Traditional,Elementary - Intermediate/Middle/Junior High Combination,Public,Mesa Elementary,Mesa Union Elementary,Ventura,3901 North Mesa School Road,Somis,CA,No,1,K-8,K-8,2846.51148483074
42691126045264,Active,No,Traditional,Elementary - Intermediate/Middle/Junior High Combination,Public,Benjamin Foxen Elementary,Blochman Union Elementary,Santa Barbara,4949 Foxen Canyon Road,Santa Maria,CA,No,1,K-8,K-8,2838.5400683587236
56725465631619,Active,No,Traditional,High School,Public,Adolfo Camarillo High,Oxnard Union High,Ventura,4660 Mission Oaks Boulevard,Camarillo,CA,No,1,9-12,9-12,2698.644156521562
27661916026652,Active,No,Traditional,Elementary,Public,La Joya Elementary,Santa Rita Union Elementary,Monterey,55 Rogge Road,Salinas,CA,No,1,K-5,K-5,2565.1701804915497
27661592730109,Active,No,Traditional,High School,Public,Alisal High,Salinas Union High,Monterey,777 Williams Road,Salinas,CA,No,1,9-12,9-12,2447.9486456476097
27661916120224,Active,No,Traditional,Elementary,Public,McKinnon,Santa Rita Union Elementary,Monterey,2100 McKinnon,Salinas,CA,No,1,K-5,K-5,2431.038786054857
44697996049639,Active,No,Traditional,Elementary,Public,Amesti Elementary,Pajaro Valley Unified,Santa Cruz,25 Amesti Road,Watsonville,CA,No,1,K-5,K-5,2358.217340525044
56725610112631,Active,No,Traditional,Elementary,Public,Rio Del Mar,Rio Elementary,Ventura,3150 Thames River,Oxnard,CA,No,1,K-5,K-5,2273.444654683251
39686506109284,Active,No,Traditional,Elementary - Intermediate/Middle/Junior High Combination,Public,Colony Oak Elementary,Ripon Unified,San Joaquin,22241 South Murphy Road,Ripon,CA,No,1,K-8,K-8,2158.9414146778495
27661426026587,Active,No,Traditional,Elementary,Public,Monterey Park Elementary,Salinas City Elementary,Monterey,410 San Miguel Avenue,Salinas,CA,No,1,K-6,K-6,2032.7042987225002
39685933935111,Active,No,Continuation School,High School,Public,Calla High,Manteca Unified,San Joaquin,130 South Austin Road,Manteca,CA,No,1,9-12,11-12,1910.3679483874473
27738256026397,Active,No,Traditional,Elementary,Public,Castroville Elementary,North Monterey County Unified,Monterey,11161 Merritt Street,Castroville,CA,No,1,K-6,K-6,1880.5337898702262
56724476054969,Active,No,Traditional,Intermediate/Middle/Junior High,Public,Briggs Elementary,Briggs Elementary,Ventura,14438 West Telegraph Road,Santa Paula,CA,No,1,5-8,5-8,1747.5135990989086
27661910107391,Active,No,Traditional,Elementary,Public,New Republic Elementary,Santa Rita Union Elementary,Monterey,636 Arcadia Way,Salinas,CA,No,1,K-5,K-5,1739.694305032599
27661420108068,Active,No,Traditional,Elementary,Public,Boronda Meadows,Salinas City Elementary,Monterey,915 Larkin Street,Salinas,CA,No,1,K-6,K-6,1669.3343800343287
39103973930468,Active,No,County Community School,Elementary - High Combination,Public,San Joaquin County Community,San Joaquin County Office of Education,San Joaquin,2707 Transworld Drive,Stockton,CA,Yes,4,K-12,3-12,1614.2868000773194
39103973930195,Active,No,Juvenile Court School,Intermediate/Middle/Junior High - High Combination,Public,"John F. Cruikshank, Jr.",San Joaquin County Office of Education,San Joaquin,2707 Transworld Drive,Stockton,CA,Yes,4,K-12,7-12,1580.403726581932
39103976069215,Active,No,Special Education School,Elementary - High Combination,Public,San Joaquin County Special Education,San Joaquin County Office of Education,San Joaquin,2707 Transworld Drive,Stockton,CA,Yes,4,P-12,K-12,1580.403726581932
39745423990033,Active,No,Regional Occupational Center/Program,High School,Public,San Joaquin County ROCP,San Joaquin County ROP,San Joaquin,2707 Transworld Drive,Stockton,CA,Yes,4,10-12,No Data,1580.403726581932
39685770118307,Active,No,Continuation School,High School,Public,Pride Continuation,Linden Unified,San Joaquin,100 North Jack Tone Road,Stockton,CA,No,1,9-12,10-12,1575.5676901869076
50711750121129,Active,No,Traditional,High School,Public,Joseph A. Gregori High,Modesto City High,Stanislaus,3701 Pirrone Road,Modesto,CA,No,1,9-12,9-12,1562.144621553255
56725386114029,Active,No,Traditional,Elementary,Public,Norman R. Brekke Elementary,Oxnard,Ventura,"1400 Martin Luther King, Junior Drive",Oxnard,CA,No,1,K-5,K-5,1534.2377206850938
24737266025803,Active,No,Traditional,Elementary - Intermediate/Middle/Junior High Combination,Public,Washington Elementary,Merced River Union Elementary,Merced,4402 West Oakdale Road,Winton,CA,No,1,P-8,K-8,1417.6013735407678
39685936042360,Active,No,Traditional,Elementary - Intermediate/Middle/Junior High Combination,Public,New Haven Elementary,Manteca Unified,San Joaquin,14600 South Austin Road,Manteca,CA,No,1,K-8,K-8,1323.9759380525356
39103973930476,Active,Yes,County Community School,Elementary - High Combination,Public,Venture Academy,San Joaquin County Office of Education,San Joaquin,2829 Transworld Drive,Stockton,CA,No,1,K-12,K-12,1293.17118003555
40687596043012,Active,No,Traditional,Elementary,Public,Branch Elementary,Lucia Mar Unified,San Luis Obispo,970 School Road,Arroyo Grande,CA,No,1,K-6,K-6,1254.8572261063314
40687596043053,Active,No,Traditional,Elementary,Public,Harloe Elementary,Lucia Mar Unified,San Luis Obispo,901 Fair Oaks Avenue,Arroyo Grande,CA,No,1,K-6,K-6,1203.6471209449708
24753666025407,Active,No,Traditional,Elementary,Public,El Capitan Elementary,Delhi Unified,Merced,10115 Fifth Street,Delhi,CA,No,1,K-6,K-6,1177.0660908400346
27738256026421,Active,No,Traditional,Intermediate/Middle/Junior High,Public,North Monterey County Middle,North Monterey County Unified,Monterey,10301 Seymour Street,Castroville,CA,No,1,7-8,7-8,1174.0220285501962
42692036045520,Active,No,Traditional,Intermediate/Middle/Junior High,Public,Kermit McKenzie Intermediate,Guadalupe Union Elementary,Santa Barbara,4710 West Main Street,Guadalupe,CA,No,1,4-8,5-8,1056.9177457739195
39685930108613,Active,No,Traditional,Elementary - Intermediate/Middle/Junior High Combination,Public,Veritas Elementary,Manteca Unified,San Joaquin,1600 Pagola Street,Manteca,CA,No,1,K-8,K-8,1013.3185400147157
44697996049670,Active,No,Traditional,Elementary,Public,Calabasas Elementary,Pajaro Valley Unified,Santa Cruz,202 Calabasas Road,Watsonville,CA,No,1,K-6,K-6,1007.6177731587379
10625396007413,Active,No,Traditional,Elementary - Intermediate/Middle/Junior High Combination,Public,West Park Elementary,West Park Elementary,Fresno,2695 South Valentine Avenue,Fresno,CA,Yes,2,P-8,K-8,911.1558617566857
10625396112387,Active,Yes,Traditional,Elementary - High Combination,Public,West Park Charter Academy,West Park Elementary,Fresno,2695 South Valentine Avenue,Fresno,CA,Yes,2,K-12,K-12,911.1558617566857
42692296045587,Active,No,Traditional,Elementary,Public,Clarence Ruth Elementary,Lompoc Unified,Santa Barbara,501 North W Street,Lompoc,CA,No,1,K-6,K-6,910.5367479948593
10621096005839,Active,No,Traditional,Elementary - Intermediate/Middle/Junior High Combination,Public,Clay Elementary,Clay Joint Elementary,Fresno,12449 South Smith Avenue,Kingsburg,CA,No,1,K-8,K-8,780.1241142534202
15636106009732,Active,No,Traditional,Elementary - Intermediate/Middle/Junior High Combination,Public,Maple Elementary,Maple Elementary,Kern,29161 Fresno Avenue,Shafter,CA,No,1,K-8,K-8,753.3061076634926
44697994430229,Active,Yes,Traditional,Elementary - High Combination,Public,Pacific Coast Charter,Pajaro Valley Unified,Santa Cruz,294 Green Valley Road,Watsonville,CA,No,1,K-12,1-12,710.6602694888521
54719696054126,Active,No,Traditional,Elementary - Intermediate/Middle/Junior High Combination,Public,Kings River Elementary,Kings River Union Elementary,Tulare,3961 Avenue 400,Kingsburg,CA,No,1,K-8,K-8,648.0008124949851
27660276026108,Active,No,Traditional,Elementary - Intermediate/Middle/Junior High Combination,Public,Graves Elementary,Graves Elementary,Monterey,15 McFadden Road,Salinas,CA,No,1,K-8,K-8,646.6049973693895
15634206009419,Active,No,Traditional,Elementary - Intermediate/Middle/Junior High Combination,Public,Di Giorgio Elementary,Di Giorgio Elementary,Kern,19405 Buena Vista Boulevard,Arvin,CA,No,1,K-8,K-8,641.3199322668586
50712826053078,Active,No,Traditional,Elementary,Public,Stanislaus Elementary,Stanislaus Union Elementary,Stanislaus,1931 Kiernan Avenue,Modesto,CA,No,1,K-6,K-6,630.6072900125862
56724476054977,Active,No,Traditional,Elementary,Public,Olivelands Elementary,Briggs Elementary,Ventura,12465 Foothill Road,Santa Paula,CA,No,1,K-4,K-4,613.9091435053892
54722236054449,Active,No,Traditional,Elementary - Intermediate/Middle/Junior High Combination,Public,Traver Elementary,Traver Joint Elementary,Tulare,36736 Canal Drive,Traver,CA,No,1,K-8,K-8,609.0457872542413
10624146007173,Active,No,Traditional,Elementary,Public,Lone Star Elementary,Sanger Unified,Fresno,2617 South Fowler Avenue,Fresno,CA,No,1,P-6,K-6,605.2204087403261
10624140123463,Active,No,Traditional,Elementary,Public,Sequoia Elementary,Sanger Unified,Fresno,1820 South Armstrong Avenue,Fresno,CA,No,1,P-6,K-6,517.572127913948
27738252730125,Active,No,Alternative School of Choice,Elementary - High Combination,Public,North Monterey County Center for Independent Study,North Monterey County Unified,Monterey,17500 Pesante Road,Salinas,CA,Yes,2,K-12,K-12,517.088415431396
27738252730141,Active,No,Continuation School,High School,Public,Central Bay High (Continuation),North Monterey County Unified,Monterey,17500 Pesante Road,Salinas,CA,Yes,2,9-12,10-12,517.088415431396
44697994437901,Active,No,Traditional,High School,Public,Watsonville High,Pajaro Valley Unified,Santa Cruz,250 East Beach Street,Watsonville,CA,No,1,9-12,9-12,500.62417133931547
50710685030267,Active,Yes,Traditional,Elementary - High Combination,Public,Denair Charter Academy,Denair Unified,Stanislaus,3460 Lester Road,Denair,CA,Yes,3,K-12,K-12,485.33372894658265
50710685031521,Active,No,Traditional,High School,Public,Denair High,Denair Unified,Stanislaus,3431 Lester Road,Denair,CA,Yes,3,9-12,9-12,485.33372894658265
50710686071575,Active,No,Traditional,Intermediate/Middle/Junior High,Public,Denair Middle,Denair Unified,Stanislaus,3701 Lester Road,Denair,CA,Yes,3,6-8,6-8,485.33372894658265
42691200131623,Active,No,Traditional,Elementary,Public,Jim√©nez Roberto and Dr. Francisco Elementary,Santa Maria-Bonita,Santa Barbara,1970 South Biscayne Street,Santa Maria,CA,No,1,K-7,K-6,485.1193435787974
50755490116848,Active,No,Community Day School,Intermediate/Middle/Junior High,Public,Valley Community Day,Hughson Unified,Stanislaus,7419 East Whitmore,Hughson,CA,Yes,2,8-12,9-10,469.1813508412786
50755495032651,Active,No,Traditional,High School,Public,Hughson High,Hughson Unified,Stanislaus,7419 East Whitmore Avenue,Hughson,CA,Yes,2,9-12,9-12,469.1813508412786
39685026041834,Active,No,Traditional,Elementary,Public,Van Allen Elementary,Escalon Unified,San Joaquin,21051 East Highway 120,Escalon,CA,No,1,K-5,K-5,462.6279767990625
15634120100529,Active,No,Traditional,High School,Public,Cesar E. Chavez High,Delano Joint Union High,Kern,800 Browning Road,Delano,CA,No,1,9-12,9-12,445.64812551111345
10624306007280,Active,No,Traditional,Elementary,Public,Indianola Elementary,Selma Unified,Fresno,11524 East Dinuba Avenue,Selma,CA,No,1,K-6,K-6,415.40485642891974
10623316007009,Active,No,Traditional,Elementary - Intermediate/Middle/Junior High Combination,Public,Orange Center Elementary,Orange Center,Fresno,3530 South Cherry Avenue,Fresno,CA,No,1,K-8,K-8,409.78202611679615
50755640107979,Active,No,Traditional,Elementary,Public,Sierra View Elementary,Oakdale Joint Unified,Stanislaus,1323 East J Street,Oakdale,CA,No,1,K-6,K-6,401.41737209277807
04614320433201,Active,No,Traditional,High School,Public,Durham High,Durham Unified,Butte,9455 Putney Drive,Durham,CA,Yes,3,9-12,9-12,378.53827569803855
04614326003115,Active,No,Traditional,Elementary,Public,Durham Elementary,Durham Unified,Butte,9421 Putney Drive,Durham,CA,Yes,3,K-5,K-5,378.53827569803855
04614326105761,Active,No,Traditional,Intermediate/Middle/Junior High,Public,Durham Intermediate,Durham Unified,Butte,9416 Putney Drive,Durham,CA,Yes,3,6-8,6-8,378.53827569803855
56725465630066,Active,No,Continuation School,High School,Public,Frontier High,Oxnard Union High,Ventura,545 Airport Way,Camarillo,CA,No,1,9-12,10-12,372.4325956047643
56105616069231,Active,No,Special Education School,Elementary - High Combination,Public,Ventura County Special Education,Ventura County Office of Education,Ventura,5250 Adolfo Road,Camarillo,CA,No,1,P-12,K-12,366.79043966544646
54722560101857,Active,No,Traditional,Elementary - Intermediate/Middle/Junior High Combination,Public,Oak Grove Elementary,Visalia Unified,Tulare,4445 West Ferguson Avenue,Visalia,CA,No,1,K-8,K-8,366.0538932764821
39685776042006,Active,No,Traditional,Elementary - Intermediate/Middle/Junior High Combination,Public,Waverly Elementary,Linden Unified,San Joaquin,3507 Wilmarth Road,Stockton,CA,No,1,K-8,K-8,359.21749043385654
39685026070957,Active,No,Traditional,Intermediate/Middle/Junior High,Public,El Portal Middle,Escalon Unified,San Joaquin,805 First Street,Escalon,CA,No,1,6-8,6-8,352.59789709064074
56105610135780,Active,No,Special Education School,Elementary - High Combination,Public,Phoenix,Ventura County Office of Education,Ventura,500 Airport Way,Camarillo,CA,Yes,4,K-12,1-12,316.4814439099738
56105615630397,Active,No,County Community School,Intermediate/Middle/Junior High - High Combination,Public,Gateway Community,Ventura County Office of Education,Ventura,200 Horizon Circle,Camarillo,CA,Yes,4,6-12,7-12,316.4814439099738
56725460120634,Active,Yes,Traditional,High School,Public,"Architecture, Construction & Engineering Charter High (ACE)",Oxnard Union High,Ventura,570 Airport Way,Camarillo,CA,Yes,4,9-12,9-12,316.4814439099738
56746175690011,Active,No,Regional Occupational Center/Program,High School,Public,Career Education Center,Ventura County ROP,Ventura,465 Horizon Circle,Camarillo,CA,Yes,4,6-12,No Data,316.4814439099738
54722560116517,Active,No,Traditional,Elementary,Public,Manuel F. Hernandez,Visalia Unified,Tulare,2133 North Leila Street,Visalia,CA,No,1,P-6,K-6,302.0365458587202
15739080133504,Active,No,Traditional,Elementary,Public,Horizon Elementary,McFarland Unified,Kern,800 South Garzoli Avenue,McFarland,CA,No,1,K-6,K-6,285.97467104755276
50757395036884,Active,No,Continuation School,High School,Public,Roselawn High,Turlock Unified,Stanislaus,312 South Roselawn,Turlock,CA,No,1,9-12,11-12,280.2489621561938
39685776041966,Active,No,Traditional,Elementary - Intermediate/Middle/Junior High Combination,Public,Glenwood Elementary,Linden Unified,San Joaquin,2005 North Alpine Road,Stockton,CA,No,1,K-8,K-8,273.1158408680602
39685850125369,Active,No,Special Education School,Elementary - Intermediate/Middle/Junior High Combination,Public,Turner Academy at Tokay Colony,Lodi Unified,San Joaquin,13520 East Live Oak Road,Lodi,CA,No,1,K-8,K-8,273.0968842258994
24656496025381,Active,Yes,Traditional,Elementary - Intermediate/Middle/Junior High Combination,Public,Ballico-Cressey Community Charter,Ballico-Cressey Elementary,Merced,11818 Gregg Street,Ballico,CA,No,1,1-8,1-8,261.6578000667495
54718526053896,Active,No,Traditional,Elementary - Intermediate/Middle/Junior High Combination,Public,Columbine Elementary,Columbine Elementary,Tulare,2240 Road 160,Delano,CA,No,1,K-8,K-8,260.3088667974033
56725616055529,Active,No,Traditional,Elementary - Intermediate/Middle/Junior High Combination,Public,Rio Real Elementary,Rio Elementary,Ventura,1140 Kenney Street,Oxnard,CA,No,1,K-8,K-8,255.24651578091385
42692296068902,Active,No,Traditional,Elementary,Public,Miguelito Elementary,Lompoc Unified,Santa Barbara,1600 West Olive Avenue,Lompoc,CA,No,1,K-6,K-6,252.98299579670447
10621176120091,Active,No,Traditional,Elementary,Public,Freedom Elementary,Clovis Unified,Fresno,2955 Gettysburg Avenue,Clovis,CA,No,1,K-6,K-6,252.51825088475238
50710926052542,Active,No,Traditional,Elementary - Intermediate/Middle/Junior High Combination,Public,Hart-Ransom Elementary,Hart-Ransom Union Elementary,Stanislaus,3930 Shoemake Avenue,Modesto,CA,No,1,K-8,K-8,241.1130080491936
50712090112383,Active,Yes,Traditional,Elementary - Intermediate/Middle/Junior High Combination,Public,Paradise Charter,Paradise Elementary,Stanislaus,3361 California Avenue,Modesto,CA,Yes,2,K-8,K-8,238.84320934316236
50712096052914,Active,No,Traditional,Elementary - Intermediate/Middle/Junior High Combination,Public,Paradise Elementary,Paradise Elementary,Stanislaus,3361 California Avenue,Modesto,CA,Yes,2,K-8,K-8,238.84320934316236
39685936042378,Active,No,Traditional,Elementary - Intermediate/Middle/Junior High Combination,Public,Nile Garden Elementary,Manteca Unified,San Joaquin,5700 East Nile Road,Manteca,CA,No,1,K-8,K-8,233.99356590729556
24656496025399,Active,No,Traditional,Elementary,Public,Cressey Elementary,Ballico-Cressey Elementary,Merced,9921 Crocker Street,Cressey,CA,No,1,K,K,214.37797316226366
42692290100651,Active,No,Alternative School of Choice,Elementary - Intermediate/Middle/Junior High Combination,Public,Mission Valley,Lompoc Unified,Santa Barbara,1301 North A Street,Lompoc,CA,Yes,2,K-8,K-8,195.5691987523129
42692296045629,Active,No,Traditional,Elementary,Public,La Honda STEAM Academy,Lompoc Unified,Santa Barbara,1213 North A Street,Lompoc,CA,Yes,2,K-6,K-6,195.5691987523129
50755726053219,Active,No,Traditional,Intermediate/Middle/Junior High,Public,Waterford Junior,Waterford Unified,Stanislaus,12916 Bentley Street,Waterford,CA,No,1,7-8,7-8,187.5884673200801
15635526009666,Active,No,Traditional,Elementary - Intermediate/Middle/Junior High Combination,Public,Lakeside,Lakeside Union,Kern,14535 Old River Road,Bakersfield,CA,No,1,K-8,K-8,182.97821720384167
10101081030337,Active,No,Juvenile Court School,Intermediate/Middle/Junior High - High Combination,Public,Alice M. Worsley,Fresno County Office of Education,Fresno,3333 American Avenue,Fresno,CA,No,1,K-12,7-12,181.840128037703
44104470136572,Active,Yes,Traditional,High School,Public,Santa Cruz County Career Advancement Charter,Santa Cruz County Office of Education,Santa Cruz,229 Green Valley Road,Freedom,CA,No,1,12,12,166.7368345238449
43695834333951,Active,No,Traditional,High School,Public,Live Oak High,Morgan Hill Unified,Santa Clara,1505 East Main Avenue,Morgan Hill,CA,No,1,9-12,9-12,163.0999062752401
15634040106575,Active,No,Traditional,Elementary,Public,Harvest Elementary,Delano Union Elementary,Kern,1320 Vassar Avenue,Delano,CA,Yes,2,K-5,K-5,151.55629171503335
15634040112185,Active,No,Traditional,Intermediate/Middle/Junior High,Public,La Vina Middle,Delano Union Elementary,Kern,1331 Browning Road,Delano,CA,Yes,2,6-8,5-8,151.55629171503335
16639416010474,Active,Yes,Traditional,Elementary - Intermediate/Middle/Junior High Combination,Public,Kings River-Hardwick Elementary,Kings River-Hardwick Union Elementary,Kings,10300 Excelsior Avenue,Hanford,CA,No,1,K-8,K-8,146.52712751602465
10623646007041,Active,No,Traditional,Elementary,Public,John C Martinez Elementary,Parlier Unified,Fresno,13174 East Parlier Avenue,Parlier,CA,No,1,K-6,K-6,142.8065848973805
50755496052575,Active,No,Traditional,Elementary,Public,Hughson Elementary,Hughson Unified,Stanislaus,7201 East Whitmore Avenue,Hughson,CA,No,1,K-3,K-3,140.513104442966
39685856042121,Active,No,Traditional,Elementary - Intermediate/Middle/Junior High Combination,Public,Houston,Lodi Unified,San Joaquin,4600 East Acampo Road,Acampo,CA,No,1,K-8,K-8,139.1318503695309
50710680132662,Active,Yes,Traditional,Elementary,Public,Denair Elementary Charter Academy,Denair Unified,Stanislaus,3773 Madera Avenue,Denair,CA,Yes,2,K-5,K-5,138.72208410782176
50710686052500,Active,No,Traditional,Elementary,Public,Denair Elementary,Denair Unified,Stanislaus,3773 Madera Avenue,Denair,CA,Yes,2,K-5,K-5,138.72208410782176
24657486025514,Active,No,Traditional,Intermediate/Middle/Junior High,Public,Livingston Middle,Livingston Union,Merced,101 F Street,Livingston,CA,No,1,6-8,6-8,137.97901743601838
56726526056105,Active,No,Traditional,Elementary,Public,Junipero Serra Elementary,Ventura Unified,Ventura,8880 Halifax Street,Ventura,CA,No,1,K-5,K-5,136.8063134655485
50712666120844,Active,No,Traditional,Intermediate/Middle/Junior High,Public,Salida Middle School - Vella Campus,Salida Union Elementary,Stanislaus,5041 Toomes Road,Salida,CA,No,1,6-8,6-8,135.6227191450359
50712660124768,Active,Yes,Traditional,Elementary - Intermediate/Middle/Junior High Combination,Public,Great Valley Academy - Salida,Salida Union Elementary,Stanislaus,5901 Sisk Road,Modesto,CA,No,1,K-8,K-8,134.59280143665495
10623646007058,Active,No,Traditional,Elementary,Public,Cesar E Chavez Elementary,Parlier Unified,Fresno,500 Tuolumne Street,Parlier,CA,No,1,K-6,K-6,133.97177311968645
54105460135459,Active,Yes,Traditional,Elementary,Public,Blue Oak Academy,Tulare County Office of Education,Tulare,28050 Road 148,Visalia,CA,No,1,K-5,K-4,133.20404404465336
10622656088959,Active,No,Traditional,Elementary,Public,Great Western Elementary,Kings Canyon Joint Unified,Fresno,5051 South Frankwood Avenue,Reedley,CA,No,1,P-5,K-5,125.16946897676013
54755230116590,Active,Yes,Traditional,High School,Public,Harmony Magnet Academy,Porterville Unified,Tulare,19429 Road 228,Strathmore,CA,Yes,2,9-12,9-12,117.66021630290636
54755235434931,Active,No,Traditional,High School,Public,Strathmore High,Porterville Unified,Tulare,22568 Avenue 196,Strathmore,CA,Yes,2,9-12,9-12,117.66021630290636
40688096043269,Active,No,Traditional,Elementary,Public,Pacheco Elementary,San Luis Coastal Unified,San Luis Obispo,261 Cuesta Drive,San Luis Obispo,CA,No,1,P-6,K-6,115.53726903009358
24656986025472,Active,No,Traditional,Elementary,Public,Merquin Elementary,Hilmar Unified,Merced,20316 West Third Avenue,Stevinson,CA,No,1,K-5,K-5,105.43747406866773
10622651033703,Active,No,Continuation School,Elementary - High Combination,Public,Kings Canyon Continuation,Kings Canyon Joint Unified,Fresno,10026 South Crawford Avenue,Dinuba,CA,No,1,9-12,2-12,96.50862340787445
50755646052906,Active,No,Traditional,Intermediate/Middle/Junior High,Public,Oakdale Junior High,Oakdale Joint Unified,Stanislaus,400 Maag Avenue,Oakdale,CA,No,1,7-8,7-8,95.65956976855544
40687596109342,Active,No,Traditional,Intermediate/Middle/Junior High,Public,Mesa Middle,Lucia Mar Unified,San Luis Obispo,2555 Halcyon Road,Arroyo Grande,CA,No,1,7-8,6-8,89.52667681889875
35752596035117,Active,No,Traditional,Elementary - Intermediate/Middle/Junior High Combination,Public,San Juan,Aromas - San Juan Unified,San Benito,100 Nyland Drive,San Juan Bautista,CA,No,1,K-8,K-8,89.01486920027683
50711676052682,Active,No,Traditional,Elementary,Public,Fairview Elementary,Modesto City Elementary,Stanislaus,1937 West Whitmore Avenue,Modesto,CA,No,1,K-6,K-6,88.88940434225563
47736844730081,Active,No,Continuation School,Intermediate/Middle/Junior High,Public,Cascade High,Butte Valley Unified,Siskiyou,615 West Third,Dorris,CA,Yes,3,9-12,9-10,86.07840308680404
47736844731253,Active,No,Traditional,High School,Public,Butte Valley High,Butte Valley Unified,Siskiyou,615 West Third Street,Dorris,CA,Yes,3,9-12,9-12,86.07840308680404
47736846114607,Active,No,Community Day School,Elementary - Intermediate/Middle/Junior High Combination,Public,Picard Community Day Elementary,Butte Valley Unified,Siskiyou,615 West Third Street,Dorris,CA,Yes,3,K-8,1-8,86.07840308680404
24102496068498,Active,No,Special Education School,Elementary - High Combination,Public,Floyd A. Schelby,Merced County Office of Education,Merced,6738 North Sultana Drive,Livingston,CA,No,1,P-12,K-12,82.75037588630451
54718606118111,Active,No,Traditional,Intermediate/Middle/Junior High,Public,El Monte Middle,Cutler-Orosi Joint Unified,Tulare,42111 Road 128,Orosi,CA,No,1,6-8,6-8,76.66736242560643
50757390108175,Active,No,Traditional,Elementary,Public,Sandra Tovar Medeiros Elementary,Turlock Unified,Stanislaus,651 West Springer Drive,Turlock,CA,No,1,K-6,K-6,75.35246819059465
10621666088942,Active,No,Traditional,Elementary,Public,Sunset Elementary,Fresno Unified,Fresno,1755 South Crystal Avenue,Fresno,CA,No,1,K-6,K-6,73.24936058604504
54755316053961,Active,No,Traditional,Elementary,Public,Grand View Elementary,Dinuba Unified,Tulare,39746 Road 64,Dinuba,CA,No,1,K-6,K-6,73.12682798315149
54753256100275,Active,No,Traditional,Intermediate/Middle/Junior High,Public,Farmersville Junior High,Farmersville Unified,Tulare,650 North Virginia Street,Farmersville,CA,No,1,7-8,7-8,67.35007008408999
51714646053359,Active,No,Traditional,Elementary - Intermediate/Middle/Junior High Combination,Public,Barry Elementary,Yuba City Unified,Sutter,1255 Barry Road,Yuba City,CA,No,1,K-8,K-8,67.31337427477202
50710430129106,Active,No,Traditional,Elementary - Intermediate/Middle/Junior High Combination,Public,Patricia Kay Beaver Elementary,Ceres Unified,Stanislaus,4927 Central Avenue,Ceres,CA,No,1,K-8,K-8,66.24313794401203
27738256026447,Active,No,Traditional,Elementary,Public,Prunedale Elementary,North Monterey County Unified,Monterey,17719 Pesante Road,Salinas,CA,No,1,K-6,K-6,64.62031393524406
10622406108328,Active,Yes,Traditional,Intermediate/Middle/Junior High,Public,Rafer Johnson Junior High,Kingsburg Elementary Charter,Fresno,1300 Stroud Avenue,Kingsburg,CA,No,1,7-8,7-8,63.80276121945123
10624306007322,Active,No,Traditional,Elementary,Public,Terry Elementary,Selma Unified,Fresno,12906 South Fowler Avenue,Selma,CA,No,1,K-6,K-6,63.599643105634264
10622656006837,Active,No,Traditional,Elementary - Intermediate/Middle/Junior High Combination,Public,Riverview Elementary,Kings Canyon Joint Unified,Fresno,8662 South Lac Jac Avenue,Parlier,CA,No,1,K-8,K-8,62.47051412479901
10767781030774,Active,Yes,Traditional,Elementary - High Combination,Public,W.E.B. DuBois Public Charter,Washington Unified,Fresno,2604 Martin Luther King Boulevard,Fresno,CA,No,1,K-12,K-12,56.21168272820373
39686506106322,Active,No,Traditional,Elementary - Intermediate/Middle/Junior High Combination,Public,Weston Elementary,Ripon Unified,San Joaquin,1660 Stanley Drive,Ripon,CA,No,1,K-8,K-8,53.46048658494108
24753660131862,Active,No,Traditional,Intermediate/Middle/Junior High,Public,Delhi Middle,Delhi Unified,Merced,16881 West Schendel Avenue,Delhi,CA,Yes,2,7-8,7-8,53.30841541127186
24753662430114,Active,No,Traditional,High School,Public,Delhi High,Delhi Unified,Merced,16881 West Schendel Avenue,Delhi,CA,Yes,2,9-12,9-12,53.30841541127186
50105045030085,Active,No,County Community School,Intermediate/Middle/Junior High - High Combination,Public,Stanislaus Military Academy at Teel,Stanislaus County Office of Education,Stanislaus,5255 1st Street,Empire,CA,Yes,3,9-12,8-12,46.774332024425675
50710766052518,Active,No,Traditional,Elementary,Public,Empire Elementary,Empire Union Elementary,Stanislaus,5201 First St,Empire,CA,Yes,3,K-6,K-6,46.774332024425675
50711750120212,Active,Yes,Traditional,Intermediate/Middle/Junior High - High Combination,Public,Aspire Vanguard College Preparatory Academy,Modesto City High,Stanislaus,819 Sunset Avenue,Modesto,CA,Yes,3,6-12,6-12,46.774332024425675
24657486109649,Active,No,Traditional,Elementary,Public,Yamato Colony Elementary,Livingston Union,Merced,800 North Main Street,Livingston,CA,No,1,K-5,K-5,45.62727821673575
27661420132407,Active,No,Traditional,Elementary,Public,Boronda Elementary,Salinas City Elementary,Monterey,1114 Fontes Lane,Salinas,CA,No,1,K-6,K-4,44.85781197129083
50711346052591,Active,No,Traditional,Elementary,Public,Keyes Elementary,Keyes Union,Stanislaus,4400 Maud Avenue,Keyes,CA,Yes,2,K-5,K-5,43.402928181555545
50711346113286,Active,Yes,Traditional,Elementary - High Combination,Public,Keyes to Learning Charter,Keyes Union,Stanislaus,5709 Ninth Street,Keyes,CA,Yes,2,K-12,K-12,43.402928181555545
39685856098057,Active,No,Traditional,Elementary - Intermediate/Middle/Junior High Combination,Public,Victor Elementary,Lodi Unified,San Joaquin,17670 North Bruella Road,Victor,CA,No,1,K-6,K-8,41.28294281330362
40687596043095,Active,No,Traditional,Elementary,Public,Oceano Elementary,Lucia Mar Unified,San Luis Obispo,1551 17th Street,Oceano,CA,No,1,K-6,K-6,40.03583094726886
39686760108159,Active,No,Traditional,High School,Public,Cesar Chavez High,Stockton Unified,San Joaquin,2929 Windflower Lane,Stockton,CA,No,1,9-12,9-12,39.56618171590347
39686766042550,Active,No,Traditional,Elementary - Intermediate/Middle/Junior High Combination,Public,Elmwood Elementary,Stockton Unified,San Joaquin,840 South Cardinal Avenue,Stockton,CA,No,1,K-8,K-8,39.36575640350374
40687590125328,Active,No,Traditional,High School,Public,Central Coast New Tech High,Lucia Mar Unified,San Luis Obispo,525 North Thompson Avenue,Nipomo,CA,Yes,2,9-12,9-12,39.215651560300714
40687594030268,Active,No,Traditional,Intermediate/Middle/Junior High - High Combination,Public,Nipomo High,Lucia Mar Unified,San Luis Obispo,525 North Thompson Road,Nipomo,CA,Yes,2,9-12,6-12,39.215651560300714
52715636053557,Active,No,Traditional,Elementary - Intermediate/Middle/Junior High Combination,Public,Lassen View Elementary,Lassen View Union Elementary,Tehama,10818 Highway 99-E,Los Molinos,CA,No,1,K-8,K-8,38.94429178006345
27659616119663,Active,Yes,Traditional,Elementary,Public,Oasis Charter Public,Alisal Union,Monterey,1135 Westridge Parkway,Salinas,CA,No,1,K-6,K-6,36.91852408509172
24657716025621,Active,No,Traditional,Elementary,Public,Franklin Elementary,Merced City Elementary,Merced,2936 Franklin Road,Merced,CA,No,1,K-3,K-3,36.21423142183858
43694846047336,Active,No,Traditional,Elementary,Public,Rucker Elementary,Gilroy Unified,Santa Clara,325 Santa Clara Avenue,Gilroy,CA,No,1,K-5,K-5,34.78974198644931
33672156032577,Active,No,Traditional,Elementary,Public,Emerson Elementary,Riverside Unified,Riverside,4660 Ottawa Avenue,Riverside,CA,No,1,P-6,K-6,34.39915180012324
54105466119291,Active,Yes,Traditional,Elementary - High Combination,Public,Eleanor Roosevelt Community Learning Center,Tulare County Office of Education,Tulare,31191 Road 180,Visalia,CA,No,1,K-12,K-12,34.30331616798913
58727366056667,Active,No,Traditional,Elementary,Public,Cordua Elementary,Marysville Joint Unified,Yuba,2830 Highway 20,Marysville,CA,No,1,K-5,K-5,26.410930110132888
54722566054563,Active,No,Traditional,Elementary,Public,Elbow Creek Elementary,Visalia Unified,Tulare,32747 Road 138,Visalia,CA,No,1,P-6,K-6,24.42578075169419
50755720117689,Active,No,Continuation School,High School,Public,Sentinel High,Waterford Unified,Stanislaus,121 South Reinway Avenue,Waterford,CA,Yes,2,9-12,11-12,24.20789493728343
50755725030259,Active,No,Traditional,High School,Public,Waterford High,Waterford Unified,Stanislaus,121 South Reinway,Waterford,CA,Yes,2,9-12,9-12,24.20789493728343
39685026041800,Active,No,Traditional,Elementary,Public,Farmington Elementary,Escalon Unified,San Joaquin,25233 East Highway 4,Farmington,CA,No,1,K-5,K-5,24.14958754471882
39685776041974,Active,No,Traditional,Elementary,Public,Linden Elementary,Linden Unified,San Joaquin,18100 West Front Street,Linden,CA,No,1,K-4,K-4,23.702469481617598
50757395030283,Active,No,Traditional,High School,Public,John H. Pitman High,Turlock Unified,Stanislaus,2525 West Christoffersen Parkway,Turlock,CA,No,1,9-12,9-12,22.210533494210736
10623566007025,Active,No,Traditional,Elementary - Intermediate/Middle/Junior High Combination,Public,Pacific Union Elementary,Pacific Union Elementary,Fresno,2065 East Bowles Avenue,Fresno,CA,No,1,K-8,K-8,21.952860070367734
50712666106934,Active,No,Traditional,Elementary,Public,Sisk Elementary,Salida Union Elementary,Stanislaus,5337 Sugar Creek Lane,Salida,CA,No,1,K-5,K-5,20.719977509507633
39685776041990,Active,No,Traditional,Intermediate/Middle/Junior High,Public,Waterloo Elementary,Linden Unified,San Joaquin,7007 North Pezzi Road,Stockton,CA,No,1,5-8,5-8,19.460335987339157
50710430109074,Active,No,Traditional,Elementary,Public,Joel J. Hidahl Elementary,Ceres Unified,Stanislaus,2351 East Redwood Road,Ceres,CA,No,1,K-6,K-6,19.433373550640066
39685773933959,Active,No,Traditional,High School,Public,Linden High,Linden Unified,San Joaquin,18527 East Front Street,Linden,CA,No,1,9-12,9-12,14.841082176797434
39686760100206,Active,No,Traditional,Elementary - Intermediate/Middle/Junior High Combination,Public,George W. Bush Elementary,Stockton Unified,San Joaquin,5420 Fred Russo Drive,Stockton,CA,No,1,K-8,K-8,14.294850480050055
10621666103840,Active,No,Traditional,Intermediate/Middle/Junior High,Public,Edison Computech,Fresno Unified,Fresno,555 East Belgravia,Fresno,CA,No,1,7-8,7-8,14.228787124652374
54718605433230,Active,No,Traditional,High School,Public,Orosi High,Cutler-Orosi Joint Unified,Tulare,41815 Road 128,Orosi,CA,No,1,9-12,9-12,12.50592460182662
10622816006894,Active,No,Traditional,Intermediate/Middle/Junior High,Public,Laton Middle,Laton Joint Unified,Fresno,6065 East Latonia,Laton,CA,Yes,2,6-8,6-8,11.749713379916917
10622816006902,Active,No,Traditional,Elementary,Public,Laton Elementary,Laton Joint Unified,Fresno,6065 Latonia,Laton,CA,Yes,2,K-5,K-5,11.749713379916917
11101166077184,Active,No,Special Education School,Elementary - High Combination,Public,Glenn County Special Education,Glenn County Office of Education,Glenn,311 South Villa Avenue,Willows,CA,No,1,K-12,K-12,11.318616373904229
10622650126292,Active,Yes,Traditional,High School,Public,Reedley Middle College High,Kings Canyon Joint Unified,Fresno,995 North Reed Avenue,Reedley,CA,No,1,9-12,9-12,10.42795539596815
10622400113142,Active,Yes,Traditional,Elementary,Public,Ronald W. Reagan Elementary,Kingsburg Elementary Charter,Fresno,1180 Diane Avenue,Kingsburg,CA,No,1,4-6,4-6,9.296479040097077
10621176005847,Active,No,Traditional,Elementary,Public,Cole Elementary,Clovis Unified,Fresno,615 West Stuart Avenue,Clovis,CA,No,1,K-6,K-6,8.873323971346387
11101161130103,Active,Yes,County Community School,Elementary - High Combination,Public,William Finch,Glenn County Office of Education,Glenn,607 East Tehama Street,Orland,CA,No,1,K-12,K-12,8.007202857914866
10621660114553,Active,Yes,Traditional,High School,Public,University High,Fresno Unified,Fresno,2611 East Matoian M/S UH134,Fresno,CA,No,1,9-12,9-12,7.328020606060726
56726526097034,Active,No,Traditional,Elementary,Public,Portola Elementary,Ventura Unified,Ventura,6700 Eagle Street,Ventura,CA,No,1,K-5,K-5,7.32693687534524
39685020126011,Active,Yes,Traditional,Elementary - High Combination,Public,Escalon Charter Academy,Escalon Unified,San Joaquin,1520 Yosemite Avenue,Escalon,CA,Yes,3,K-12,K-12,6.955918896037322
39685023930054,Active,No,Continuation School,High School,Public,Vista High (Continuation),Escalon Unified,San Joaquin,1520 Yosemite Avenue,Escalon,CA,Yes,3,9-12,11-12,6.955918896037322
39685023932308,Active,No,Traditional,High School,Public,Escalon High,Escalon Unified,San Joaquin,1528 East Yosemite Avenue,Escalon,CA,Yes,3,9-12,9-12,6.955918896037322
24753660105817,Active,No,Traditional,Elementary,Public,Harmony Elementary,Delhi Unified,Merced,16464 West August Avenue,Delhi,CA,No,1,K-6,K-6,6.38168519681862
27659956026082,Active,No,Traditional,Elementary - Intermediate/Middle/Junior High Combination,Public,Chualar Elementary,Chualar Union,Monterey,24285 Lincoln Street,Chualar,CA,No,1,K-8,K-8,5.969032227929999
50710430108076,Active,No,Traditional,High School,Public,Central Valley High,Ceres Unified,Stanislaus,4033 Central Avenue,Ceres,CA,No,1,9-12,9-12,5.8939653428433525
42691200139824,Active,No,Traditional,Elementary,Public,Bill Libbon Elementary,Santa Maria-Bonita,Santa Barbara,750 Meehan Street,Santa Maria,CA,No,1,K-6,No Data,5.287951503080549
56725460125674,Active,No,Alternative School of Choice,High School,Public,Condor High,Oxnard Union High,Ventura,1101 West Second Street,Oxnard,CA,No,1,9-12,9-12,4.834810725238351
50710506052484,Active,No,Traditional,Elementary,Public,Chatom Elementary,Chatom Union,Stanislaus,7221 Clayton Road,Turlock,CA,No,1,K-5,K-5,4.576299928103939
50712666113823,Active,No,Traditional,Elementary,Public,Dena Boer,Salida Union Elementary,Stanislaus,4801 Gold Valley Road,Salida,CA,No,1,K-5,K-5,3.9287347047304624
11626616007611,Active,No,Traditional,Intermediate/Middle/Junior High,Public,Willows Intermediate,Willows Unified,Glenn,1145 West Cedar Street,Willows,CA,Yes,2,6-8,6-8,3.599571868089385
11743851190016,Active,No,Regional Occupational Center/Program,High School,Public,Glenn County ROP,Glenn County ROP,Glenn,451 South Villa Avenue,Willows,CA,Yes,2,9-12,No Data,3.599571868089385
50710436052443,Active,No,Traditional,Elementary,Public,Don Pedro Elementary,Ceres Unified,Stanislaus,2300 Don Pedro Road,Ceres,CA,No,1,K-6,K-6,3.4433730285745847
54753255430277,Active,No,Continuation School,High School,Public,Deep Creek Academy,Farmersville Unified,Tulare,281 South Farmersville Boulevard,Farmersville,CA,Yes,2,9-12,10-12,2.7458383777720545
54753256054076,Active,No,Traditional,Elementary,Public,George L. Snowden Elementary,Farmersville Unified,Tulare,301 South Farmersville Boulevard,Farmersville,CA,Yes,2,2-3,2-3,2.7458383777720545
50755720117770,Active,No,Traditional,Elementary,Public,Lucille Whitehead Intermediate,Waterford Unified,Stanislaus,119 North Reinway Avenue,Waterford,CA,Yes,2,4-6,4-6,2.471244750071802
50755720118513,Active,No,Traditional,Elementary,Public,Richard M. Moon Primary,Waterford Unified,Stanislaus,319 North Reinway Avenue,Waterford,CA,Yes,2,K-3,K-3,2.471244750071802
40687596043079,Active,No,Traditional,Elementary,Public,Fairgrove Elementary,Lucia Mar Unified,San Luis Obispo,2101 The Pike,Grover Beach,CA,No,1,K-6,K-6,2.45834872066255
50755560118810,Active,No,Traditional,Elementary,Public,Mesa Verde Elementary,Riverbank Unified,Stanislaus,4850 Mesa Drive,Oakdale,CA,No,1,K-5,K-5,2.4123331847639564
54720906054324,Active,No,Traditional,Elementary - Intermediate/Middle/Junior High Combination,Public,Rockford Elementary,Rockford Elementary,Tulare,14983 Road 208,Porterville,CA,No,1,K-8,K-8,2.0833750133610778
50710506052492,Active,No,Traditional,Intermediate/Middle/Junior High,Public,Mountain View Middle,Chatom Union,Stanislaus,10001 Crows Landing Road,Turlock,CA,No,1,6-8,6-8,1.8734791315367485
58727516056840,Active,No,Traditional,Elementary,Public,Wheatland Elementary,Wheatland,Yuba,111 Hooper Street,Wheatland,CA,No,1,K-3,K-3,1.4565475763772449
54718606112684,Active,No,Traditional,Elementary,Public,Golden Valley Elementary,Cutler-Orosi Joint Unified,Tulare,41465 Road 127,Orosi,CA,No,1,K-5,K-5,1.339589389618284
54722566054704,Active,No,Traditional,Elementary,Public,Annie R. Mitchell,Visalia Unified,Tulare,2121 East Laura Avenue,Visalia,CA,No,1,P-6,K-6,1.035325560614249
10621170133314,Active,No,Traditional,Elementary,Public,Virginia R. Boris Elementary,Clovis Unified,Fresno,7071 East Clinton Avenue,Fresno ,CA,No,1,K-6,K-6,1.0253686753524753
54755310102707,Active,No,Traditional,Elementary,Public,John F. Kennedy Elementary,Dinuba Unified,Tulare,999 North Crawford,Dinuba,CA,Yes,2,K-6,K-6,0.7143840889614994
54755316053995,Active,No,Traditional,Intermediate/Middle/Junior High,Public,Washington Intermediate,Dinuba Unified,Tulare,1150 North Hayes Avenue,Dinuba,CA,Yes,2,7-8,7-8,0.7143840889614994
10767780108993,Active,No,Community Day School,High School,Public,Easton Community Day,Washington Unified,Fresno,5865 South Clara Avenue,Fresno,CA,Yes,3,9-12,9-11,0.6680093806401947
10767780122473,Active,No,Alternative School of Choice,High School,Public,Elm High,Washington Unified,Fresno,5865 South Clara Avenue,Fresno,CA,Yes,3,9-12,9-12,0.6680093806401947
10767781038298,Active,No,Continuation School,High School,Public,Easton Continuation High,Washington Unified,Fresno,5865 South Clara Avenue,Fresno,CA,Yes,3,9-12,11-12,0.6680093806401947
52714726053466,Active,No,Traditional,Elementary,Public,Antelope Elementary,Antelope Elementary,Tehama,22630 Antelope Boulevard,Red Bluff,CA,No,1,K-5,K-5,0.6281451161400994
39686763932654,Active,No,Traditional,Intermediate/Middle/Junior High - High Combination,Public,Franklin High,Stockton Unified,San Joaquin,4600 East Fremont Street,Stockton,CA,No,1,6-12,6-12,0.6185262254502509
58727516056816,Active,No,Traditional,Elementary - Intermediate/Middle/Junior High Combination,Public,Bear River,Wheatland,Yuba,100 Wheatland Park Drive,Wheatland,CA,Yes,2,4-8,4-8,0.3344166305901479
58727690123570,Active,No,Community Day School,High School,Public,Wheatland Community Day High,Wheatland Union High,Yuba,1010 Wheatland Road,Wheatland,CA,Yes,2,7-12,9-11,0.3344166305901479
10623646115224,Active,No,Traditional,Intermediate/Middle/Junior High,Public,Parlier Junior High,Parlier Unified,Fresno,1200 East Parlier Avenue,Parlier,CA,No,1,7-8,7-8,0.32633179448882127
39685850122879,Active,No,Community Day School,High School,Public,Walter J. Katnich Community Day,Lodi Unified,San Joaquin,13451 North Extension Road,Lodi,CA,Yes,4,7-12,9-12,0.24186549879836428
39685850132837,Active,No,Alternative School of Choice,Intermediate/Middle/Junior High,Public,Henderson,Lodi Unified,San Joaquin,13451 North Extension Road,Lodi,CA,Yes,4,7-8,7-8,0.24186549879836428
39685853930344,Active,No,Alternative School of Choice,Elementary - High Combination,Public,Independence,Lodi Unified,San Joaquin,13451 North Extension Road,Lodi,CA,Yes,4,K-12,2-12,0.24186549879836428
39685850139261,Active,No,Alternative School of Choice,Intermediate/Middle/Junior High,Public,Valley Robotics Academy,Lodi Unified,San Joaquin,13451 North Extension Road,Lodi,CA,Yes,4,K-12,7-9,0.24186526845481282
39686760115303,Active,No,Traditional,Elementary - Intermediate/Middle/Junior High Combination,Public,Valentine Peyton Elementary,Stockton Unified,San Joaquin,2525 Gold Brook Drive,Stockton,CA,No,1,K-8,K-8,0.2162974188027053
10625136007405,Active,No,Traditional,Elementary - Intermediate/Middle/Junior High Combination,Public,Washington Colony Elementary,Washington Colony Elementary,Fresno,130 East Lincoln Avenue,Fresno,CA,No,1,K-8,K-8,0.10907959144820721
40687596043061,Active,No,Traditional,Elementary,Public,Nipomo Elementary,Lucia Mar Unified,San Luis Obispo,190 East Price Street,Nipomo,CA,No,1,K-6,K-6,0.07371813061829595
52714726066328,Active,No,Traditional,Intermediate/Middle/Junior High,Public,Berrendos Middle,Antelope Elementary,Tehama,401 Chestnut Avenue,Red Bluff,CA,No,1,6-8,6-8,0.012669746933697306
