cds_code,status,charter,ed_type,level,pb_prv_bie,school,district,county,street,city,state,stacked,stack_cnt,grades_offered,grades_served,pounds_13d_intersection
56725465634761,Active,No,Traditional,High School,Public,Rio Mesa High,Oxnard Union High,Ventura,545 Central Avenue,Oxnard,CA,No,1,9-12,9-12,36978.03498166899
08618206005458,Active,No,Traditional,Elementary - Intermediate/Middle/Junior High Combination,Public,Smith River Elementary,Del Norte County Unified,Del Norte,134 First Street,Smith River,CA,No,1,K-8,K-8,23792.78315211244
27661916102925,Active,No,Traditional,Intermediate/Middle/Junior High,Public,Gavilan View Middle,Santa Rita Union Elementary,Monterey,18250 Vab Buren Avenue,Salinas,CA,No,1,6-8,6-8,23219.408681766425
27738252730034,Active,No,Traditional,High School,Public,North Monterey County High,North Monterey County Unified,Monterey,13990 Castroville Boulevard,Castroville,CA,No,1,9-12,9-12,19154.93748312106
56105615630223,Active,No,Juvenile Court School,High School,Public,Providence,Ventura County Office of Education,Ventura,4333 Vineyard Avenue,Oxnard,CA,No,1,K-12,9-12,18788.44765196622
15735446010011,Active,No,Traditional,Intermediate/Middle/Junior High,Public,Rio Bravo-Greeley Elementary,Rio Bravo-Greeley Union Elementary,Kern,6601 Enos Lane,Bakersfield,CA,Yes,2,5-8,5-8,17986.061662534805
15735446117816,Active,No,Traditional,Elementary,Public,Rio Bravo Elementary,Rio Bravo-Greeley Union Elementary,Kern,22725 Elementary Lane,Bakersfield,CA,Yes,2,K-4,K-4,17986.061662534805
24656316113161,Active,No,Traditional,Elementary - Intermediate/Middle/Junior High Combination,Public,Peggy Heller Elementary,Atwater Elementary,Merced,201 Lake View Drive,Atwater,CA,No,1,K-8,K-8,15190.944415666881
50711750121129,Active,No,Traditional,High School,Public,Joseph A. Gregori High,Modesto City High,Stanislaus,3701 Pirrone Road,Modesto,CA,No,1,9-12,9-12,14890.516067287306
39686506109284,Active,No,Traditional,Elementary - Intermediate/Middle/Junior High Combination,Public,Colony Oak Elementary,Ripon Unified,San Joaquin,22241 South Murphy Road,Ripon,CA,No,1,K-8,K-8,14222.1537606734
27659616025985,Active,No,Traditional,Elementary,Public,Bardin Elementary,Alisal Union,Monterey,425 Bardin Road,Salinas,CA,No,1,K-6,K-6,13839.889576771931
15637686010037,Active,No,Traditional,Elementary - Intermediate/Middle/Junior High Combination,Public,Semitropic Elementary,Semitropic Elementary,Kern,25300 Highway 46,Wasco,CA,No,1,K-8,K-8,12717.788552092694
42691206045272,Active,No,Traditional,Elementary,Public,Bonita Elementary,Santa Maria-Bonita,Santa Barbara,2715 West Main Street,Santa Maria,CA,No,1,K-6,K-6,11875.892935622953
50736016025712,Active,No,Traditional,Elementary,Public,Bonita Elementary,Newman-Crows Landing Unified,Stanislaus,425 Fink Road,Crows Landing,CA,No,1,K-5,K-5,11545.581579705877
50712826053078,Active,No,Traditional,Elementary,Public,Stanislaus Elementary,Stanislaus Union Elementary,Stanislaus,1931 Kiernan Avenue,Modesto,CA,No,1,K-6,K-6,11169.35694951367
24737266025803,Active,No,Traditional,Elementary - Intermediate/Middle/Junior High Combination,Public,Washington Elementary,Merced River Union Elementary,Merced,4402 West Oakdale Road,Winton,CA,No,1,P-8,K-8,11077.919264632408
44697996108138,Active,No,Traditional,Elementary,Public,Ohlone Elementary,Pajaro Valley Unified,Monterey,21 Bay Farms Road,Watsonville,CA,No,1,K-5,K-5,10016.234934859976
24102492430171,Active,No,County Community School,Intermediate/Middle/Junior High - High Combination,Public,Valley Atwater Community,Merced County Office of Education,Merced,1800 Matthew Avenue,Atwater,CA,No,1,6-12,7-12,9872.782791165986
24102496068498,Active,No,Special Education School,Elementary - High Combination,Public,Floyd A. Schelby,Merced County Office of Education,Merced,6738 North Sultana Drive,Livingston,CA,No,1,P-12,K-12,9818.842193598332
50710926052542,Active,No,Traditional,Elementary - Intermediate/Middle/Junior High Combination,Public,Hart-Ransom Elementary,Hart-Ransom Union Elementary,Stanislaus,3930 Shoemake Avenue,Modesto,CA,No,1,K-8,K-8,9569.442595704579
52715636053557,Active,No,Traditional,Elementary - Intermediate/Middle/Junior High Combination,Public,Lassen View Elementary,Lassen View Union Elementary,Tehama,10818 Highway 99-E,Los Molinos,CA,No,1,K-8,K-8,9405.357871504133
24656986025472,Active,No,Traditional,Elementary,Public,Merquin Elementary,Hilmar Unified,Merced,20316 West Third Avenue,Stevinson,CA,No,1,K-5,K-5,9380.366607849664
40687594030557,Active,No,Traditional,High School,Public,Arroyo Grande High,Lucia Mar Unified,San Luis Obispo,495 Valley Road,Arroyo Grande,CA,No,1,8-12,9-12,9138.90181986685
10622650116657,Active,No,Traditional,Elementary - Intermediate/Middle/Junior High Combination,Public,Silas Bartsch,Kings Canyon Joint Unified,Fresno,2225 East North Avenue,Reedley,CA,No,1,P-8,K-8,8934.261962567763
24753666025407,Active,No,Traditional,Elementary,Public,El Capitan Elementary,Delhi Unified,Merced,10115 Fifth Street,Delhi,CA,No,1,K-6,K-6,8875.734864907328
27660766026140,Active,No,Traditional,Elementary - Intermediate/Middle/Junior High Combination,Public,Lagunita Elementary,Lagunita Elementary,Monterey,975 San Juan Grade Road,Salinas,CA,No,1,K-8,K-8,8198.698462057166
50712660124768,Active,Yes,Traditional,Elementary - Intermediate/Middle/Junior High Combination,Public,Great Valley Academy - Salida,Salida Union Elementary,Stanislaus,5901 Sisk Road,Modesto,CA,No,1,K-8,K-8,7915.33484593533
10751271030493,Active,No,Traditional,High School,Public,Mendota High,Mendota Unified,Fresno,1200 Belmont Avenue,Mendota,CA,Yes,2,9-12,9-12,7515.897717955306
10751276006977,Active,No,Traditional,Intermediate/Middle/Junior High,Public,Mendota Junior High,Mendota Unified,Fresno,1258 East Belmont Avenue,Mendota,CA,Yes,2,7-8,7-8,7515.897717955306
20102072030153,Active,No,Juvenile Court School,Intermediate/Middle/Junior High - High Combination,Public,Juvenile Hall (Endeavor/Voyager Secondary),Madera County Superintendent of Schools,Madera,28261 Avenue 14,Madera,CA,Yes,2,7-12,8-12,7501.655545475223
20102072030054,Active,No,County Community School,High School,Public,Enterprise Secondary,Madera County Superintendent of Schools,Madera,28261 Avenue 14,Madera,CA,Yes,2,6-12,9-12,7453.4579136461525
15635291530021,Active,No,Continuation School,High School,Public,Central Valley High (Continuation),Kern High,Kern,526 Mannel Avenue,Shafter,CA,Yes,2,9-12,11-12,7431.401250000046
15635291535087,Active,No,Traditional,High School,Public,Shafter High,Kern High,Kern,526 Mannel Avenue,Shafter,CA,Yes,2,9-12,9-12,7431.401250000046
27661592730166,Active,No,Traditional,High School,Public,Everett Alvarez High,Salinas Union High,Monterey,1900 Independence Boulevard,Salinas,CA,No,1,9-12,9-12,7040.738956554173
50710430129106,Active,No,Traditional,Elementary - Intermediate/Middle/Junior High Combination,Public,Patricia Kay Beaver Elementary,Ceres Unified,Stanislaus,4927 Central Avenue,Ceres,CA,No,1,K-8,K-8,6878.23213832349
42691126045264,Active,No,Traditional,Elementary - Intermediate/Middle/Junior High Combination,Public,Benjamin Foxen Elementary,Blochman Union Elementary,Santa Barbara,4949 Foxen Canyon Road,Santa Maria,CA,No,1,K-8,K-8,6876.21191575856
10767786005748,Active,No,Traditional,Elementary - Intermediate/Middle/Junior High Combination,Public,American Union Elementary,Washington Unified,Fresno,2801 West Adams Avenue,Fresno,CA,No,1,K-8,K-8,6859.2354115034495
51714640113134,Active,No,Traditional,Elementary - Intermediate/Middle/Junior High Combination,Public,Riverbend Elementary,Yuba City Unified,Sutter,301 Stewart Road,Yuba City,CA,No,1,K-8,K-8,6751.156980803947
39685770118307,Active,No,Continuation School,High School,Public,Pride Continuation,Linden Unified,San Joaquin,100 North Jack Tone Road,Stockton,CA,No,1,9-12,10-12,6737.924783756121
50757395036884,Active,No,Continuation School,High School,Public,Roselawn High,Turlock Unified,Stanislaus,312 South Roselawn,Turlock,CA,No,1,9-12,11-12,6589.044063851143
24753660131862,Active,No,Traditional,Intermediate/Middle/Junior High,Public,Delhi Middle,Delhi Unified,Merced,16881 West Schendel Avenue,Delhi,CA,Yes,2,7-8,7-8,6496.220759365174
24753662430114,Active,No,Traditional,High School,Public,Delhi High,Delhi Unified,Merced,16881 West Schendel Avenue,Delhi,CA,Yes,2,9-12,9-12,6496.220759365174
39685936042360,Active,No,Traditional,Elementary - Intermediate/Middle/Junior High Combination,Public,New Haven Elementary,Manteca Unified,San Joaquin,14600 South Austin Road,Manteca,CA,No,1,K-8,K-8,6456.49920459765
44697996049753,Active,No,Traditional,Intermediate/Middle/Junior High,Public,Pajaro Middle,Pajaro Valley Unified,Monterey,250 Salinas Road,Watsonville,CA,No,1,6-8,6-8,6363.460023736054
24657892430205,Active,No,Traditional,High School,Public,Buhach Colony High,Merced Union High,Merced,1800 Buhach Road,Atwater,CA,No,1,9-12,9-12,6310.56077775945
42693100102285,Active,No,Traditional,High School,Public,Pioneer Valley High,Santa Maria Joint Union High,Santa Barbara,675 Panther Drive,Santa Maria,CA,No,1,9-12,9-12,6228.407035853851
50757396053169,Active,No,Traditional,Elementary,Public,Cunningham Elementary,Turlock Unified,Stanislaus,324 West Linwood Avenue,Turlock,CA,No,1,K-6,K-6,6211.085692790205
24658706109425,Active,No,Traditional,Intermediate/Middle/Junior High,Public,Winton Middle,Winton,Merced,6300 North Cypress Avenue,Winton,CA,No,1,6-8,6-8,6198.761379419875
50710436052468,Active,No,Traditional,Elementary,Public,Westport Elementary,Ceres Unified,Stanislaus,5218 South Carpenter,Modesto,CA,No,1,K-6,K-6,6112.363258854692
50710506052484,Active,No,Traditional,Elementary,Public,Chatom Elementary,Chatom Union,Stanislaus,7221 Clayton Road,Turlock,CA,No,1,K-5,K-5,6019.546779054156
15636106009732,Active,No,Traditional,Elementary - Intermediate/Middle/Junior High Combination,Public,Maple Elementary,Maple Elementary,Kern,29161 Fresno Avenue,Shafter,CA,No,1,K-8,K-8,5902.596832027371
44697994437794,Active,No,Continuation School,High School,Public,Renaissance High Continuation,Pajaro Valley Unified,Santa Cruz,11 Spring Valley Road,La Selva Beach,CA,No,1,9-12,10-12,5883.101902876474
24736196103766,Active,No,Traditional,Intermediate/Middle/Junior High,Public,Gustine Middle,Gustine Unified,Merced,28075 Sullivan Road,Gustine,CA,No,1,6-8,6-8,5862.11845249159
51714230132977,Active,Yes,Traditional,Elementary - High Combination,Public,Sutter Peak Charter Academy,Nuestro Elementary,Sutter,3934 Broadway Road,Live Oak,CA,Yes,2,K-12,K-12,5590.02982373789
51714236053318,Active,No,Traditional,Elementary - Intermediate/Middle/Junior High Combination,Public,Nuestro Elementary,Nuestro Elementary,Sutter,3934 Broadway Road,Live Oak,CA,Yes,2,K-8,K-8,5590.02982373789
50710506052492,Active,No,Traditional,Intermediate/Middle/Junior High,Public,Mountain View Middle,Chatom Union,Stanislaus,10001 Crows Landing Road,Turlock,CA,No,1,6-8,6-8,5482.048228136479
20652430123620,Active,No,Continuation School,High School,Public,Mountain Vista High,Madera Unified,Madera,1901 Clinton Avenue,Madera,CA,Yes,2,10-12,9-12,5457.59212742523
20652430129544,Active,No,Traditional,Elementary - Intermediate/Middle/Junior High Combination,Public,Eastin Arcola,Madera Unified,Madera,29551 Avenue 8,Madera,CA,Yes,2,K-8,K-8,5457.59212742523
44697996049803,Active,No,Traditional,Elementary,Public,T. S. MacQuiddy Elementary,Pajaro Valley Unified,Santa Cruz,330 Martinelli Street,Watsonville,CA,No,1,K-5,K-5,5322.042887944213
10623806007074,Active,No,Traditional,Elementary - Intermediate/Middle/Junior High Combination,Public,Raisin City Elementary,Raisin City Elementary,Fresno,6425 West Bowles Avenue,Raisin City,CA,No,1,K-8,K-8,5284.763215104581
20652436024012,Active,No,Traditional,Elementary - Intermediate/Middle/Junior High Combination,Public,La Vina Elementary,Madera Unified,Madera,8594 Road 23,Madera,CA,No,1,K-8,K-8,5278.164150218588
24656982430080,Active,No,Continuation School,High School,Public,Irwin High (Continuation),Hilmar Unified,Merced,20384 Geer Avenue,Hilmar,CA,Yes,5,9-12,10-12,5117.274520131891
24656982430106,Active,No,Alternative School of Choice,High School,Public,Colony Basic Skills Alternative High,Hilmar Unified,Merced,20384 Geer Avenue,Hilmar,CA,Yes,5,9-12,11-12,5117.274520131891
24656982432409,Active,No,Traditional,High School,Public,Hilmar High,Hilmar Unified,Merced,7807 North Lander Avenue,Hilmar,CA,Yes,5,9-12,9-12,5117.274520131891
24656986025464,Active,No,Traditional,Elementary,Public,Elim Elementary,Hilmar Unified,Merced,7677 North Lander Avenue,Hilmar,CA,Yes,5,K-5,K-5,5117.274520131891
24656986109458,Active,No,Traditional,Intermediate/Middle/Junior High,Public,Hilmar Middle,Hilmar Unified,Merced,7528 North Scholar Way,Hilmar,CA,Yes,5,6-8,6-8,5117.274520131891
44697996049712,Active,No,Traditional,Elementary,Public,Hall District Elementary,Pajaro Valley Unified,Monterey,300 Sill Road,Watsonville,CA,No,1,K-5,K-5,5053.919772209939
42691206045975,Active,No,Traditional,Elementary,Public,Arellanes (Don Juan Bautista) Elementary,Santa Maria-Bonita,Santa Barbara,1890 Sandalwood Drive,Santa Maria,CA,Yes,2,K-6,K-6,4861.1504720279045
42691206119820,Active,No,Traditional,Intermediate/Middle/Junior High,Public,Arellanes Junior High,Santa Maria-Bonita,Santa Barbara,1890 Sandalwood Drive,Santa Maria,CA,Yes,2,7-8,7-8,4861.1504720279045
10622656006837,Active,No,Traditional,Elementary - Intermediate/Middle/Junior High Combination,Public,Riverview Elementary,Kings Canyon Joint Unified,Fresno,8662 South Lac Jac Avenue,Parlier,CA,No,1,K-8,K-8,4841.022940650548
39685026041834,Active,No,Traditional,Elementary,Public,Van Allen Elementary,Escalon Unified,San Joaquin,21051 East Highway 120,Escalon,CA,No,1,K-5,K-5,4719.690032396141
10624306007322,Active,No,Traditional,Elementary,Public,Terry Elementary,Selma Unified,Fresno,12906 South Fowler Avenue,Selma,CA,No,1,K-6,K-6,4668.537699524204
54722490116368,Active,No,Traditional,High School,Public,Mission Oak High,Tulare Joint Union High,Tulare,3442 East Bardsley Avenue,Tulare,CA,No,1,9-12,9-12,4601.518523214324
10625396007413,Active,No,Traditional,Elementary - Intermediate/Middle/Junior High Combination,Public,West Park Elementary,West Park Elementary,Fresno,2695 South Valentine Avenue,Fresno,CA,Yes,2,P-8,K-8,4556.011923980481
10625396112387,Active,Yes,Traditional,Elementary - High Combination,Public,West Park Charter Academy,West Park Elementary,Fresno,2695 South Valentine Avenue,Fresno,CA,Yes,2,K-12,K-12,4556.011923980481
42691200102848,Active,No,Traditional,Elementary,Public,Sanchez (David J.) Elementary,Santa Maria-Bonita,Santa Barbara,804 West Liberty Street,Santa Maria,CA,No,1,K-6,K-6,4387.717227377992
30736500116053,Active,No,Special Education School,Elementary,Public,Early Childhood Learning Center,Irvine Unified,Orange,1 Smoketree,Irvine,CA,No,1,P,K,4370.848601270201
27661910122911,Active,No,Traditional,Intermediate/Middle/Junior High,Public,Bolsa Knolls Middle,Santa Rita Union Elementary,Monterey,1031 Rogge Road,Salinas,CA,No,1,6-8,6-8,4370.695358270274
10739990123596,Active,No,Traditional,Elementary,Public,Goldenrod Elementary,Kerman Unified,Fresno,445 South Goldenrod Avenue,Kerman,CA,No,1,K-6,K-6,4276.56579008712
24658706025829,Active,No,Traditional,Elementary,Public,Frank Sparkes Elementary,Winton,Merced,7265 West Almond Avenue,Winton,CA,No,1,K-5,K-5,4196.841331519533
24657636025589,Active,No,Traditional,Elementary - Intermediate/Middle/Junior High Combination,Public,McSwain Elementary,McSwain Union Elementary,Merced,922 Scott Road,Merced,CA,No,1,K-8,K-8,4145.885504825046
15635780107771,Active,No,Traditional,Elementary,Public,Sequoia Elementary,Richland Union Elementary,Kern,500 East Fresno Avenue,Shafter,CA,No,1,P-6,K-6,4135.9355880629255
24657716025621,Active,No,Traditional,Elementary,Public,Franklin Elementary,Merced City Elementary,Merced,2936 Franklin Road,Merced,CA,No,1,K-3,K-3,4080.759334987858
54719696054126,Active,No,Traditional,Elementary - Intermediate/Middle/Junior High Combination,Public,Kings River Elementary,Kings River Union Elementary,Tulare,3961 Avenue 400,Kingsburg,CA,No,1,K-8,K-8,4022.4173430467426
54721736054399,Active,No,Traditional,Elementary - Intermediate/Middle/Junior High Combination,Public,Sundale Elementary,Sundale Union Elementary,Tulare,13990 Avenue 240,Tulare,CA,No,1,K-8,K-8,4010.1683550579237
27661426066963,Active,No,Traditional,Elementary,Public,University Park Elementary,Salinas City Elementary,Monterey,833 West Acacia Street,Salinas,CA,No,1,K-6,K-6,4005.38415132673
42691206045959,Active,No,Traditional,Elementary,Public,Adam (William Laird) Elementary,Santa Maria-Bonita,Santa Barbara,500 West Windsor,Santa Maria,CA,No,1,K-6,K-6,3994.83062248976
50712090112383,Active,Yes,Traditional,Elementary - Intermediate/Middle/Junior High Combination,Public,Paradise Charter,Paradise Elementary,Stanislaus,3361 California Avenue,Modesto,CA,Yes,2,K-8,K-8,3613.4533257386047
50712096052914,Active,No,Traditional,Elementary - Intermediate/Middle/Junior High Combination,Public,Paradise Elementary,Paradise Elementary,Stanislaus,3361 California Avenue,Modesto,CA,Yes,2,K-8,K-8,3613.4533257386047
33736766032361,Active,No,Traditional,Elementary,Public,Oasis Elementary,Coachella Valley Unified,Riverside,88175 74th Avenue,Thermal,CA,No,1,K-6,K-6,3612.0371866588903
50710430109074,Active,No,Traditional,Elementary,Public,Joel J. Hidahl Elementary,Ceres Unified,Stanislaus,2351 East Redwood Road,Ceres,CA,No,1,K-6,K-6,3604.4454030892293
16639416010474,Active,Yes,Traditional,Elementary - Intermediate/Middle/Junior High Combination,Public,Kings River-Hardwick Elementary,Kings River-Hardwick Union Elementary,Kings,10300 Excelsior Avenue,Hanford,CA,No,1,K-8,K-8,3603.851135918974
43695836118541,Active,Yes,Traditional,Elementary - Intermediate/Middle/Junior High Combination,Public,Charter School of Morgan Hill,Morgan Hill Unified,Santa Clara,9530 Monterey Road,Morgan Hill,CA,No,1,K-8,K-8,3553.774178621965
56725120118265,Active,No,Traditional,Elementary,Public,Ocean View Early Education,Ocean View,Ventura,4600 Olds Road,Oxnard,CA,Yes,3,P,K,3510.623026556194
56725126055172,Active,No,Traditional,Elementary,Public,Mar Vista Elementary,Ocean View,Ventura,2382 Etting Road,Oxnard,CA,Yes,3,K-5,K-5,3510.623026556194
56725126084891,Active,No,Traditional,Intermediate/Middle/Junior High,Public,Ocean View Junior High,Ocean View,Ventura,4300 Olds Road,Oxnard,CA,Yes,3,6-8,6-8,3510.623026556194
20652430131086,Active,No,Community Day School,Intermediate/Middle/Junior High - High Combination,Public,Ripperdan Community Day,Madera Unified,Madera,26133 Avenue 7,Madera,CA,No,1,7-12,8-12,3507.4248850667423
24658700111294,Active,No,Traditional,Elementary,Public,Winfield Elementary,Winton,Merced,6981 Chestnut Lane,Winton,CA,No,1,K-5,K-5,3470.0196361056014
44697996112841,Active,No,Traditional,Intermediate/Middle/Junior High,Public,Lakeview Middle,Pajaro Valley Unified,Santa Cruz,2350 East Lake Avenue,Watsonville,CA,No,1,6-8,6-8,3457.6366053120614
13101320131094,Active,No,County Community School,Intermediate/Middle/Junior High - High Combination,Public,Valley Academy,Imperial County Office of Education,Imperial,253 East Ross Avenue,El Centro,CA,No,1,K-12,8-12,3431.5203616955496
56725465634548,Active,No,Traditional,High School,Public,Oxnard High,Oxnard Union High,Ventura,3400 West Gonzales Road,Oxnard,CA,No,1,9-12,9-12,3345.9370185849784
10623236006993,Active,No,Traditional,Elementary - Intermediate/Middle/Junior High Combination,Public,Monroe Elementary,Monroe Elementary,Fresno,11842 South Chestnut Avenue,Fresno,CA,No,1,K-8,K-8,3316.306445799207
33736766032254,Active,No,Traditional,Elementary,Public,Mecca Elementary,Coachella Valley Unified,Riverside,65250 Coahuilla Street,Mecca,CA,No,1,K-6,K-6,3259.038013235344
15634876009534,Active,No,Traditional,Elementary - Intermediate/Middle/Junior High Combination,Public,General Shafter Elementary,General Shafter Elementary,Kern,1825 Shafter Road,Bakersfield,CA,No,1,K-8,K-8,3239.5278718994964
50710685030267,Active,Yes,Traditional,Elementary - High Combination,Public,Denair Charter Academy,Denair Unified,Stanislaus,3460 Lester Road,Denair,CA,Yes,3,K-12,K-12,3219.5408536014747
50710685031521,Active,No,Traditional,High School,Public,Denair High,Denair Unified,Stanislaus,3431 Lester Road,Denair,CA,Yes,3,9-12,9-12,3219.5408536014747
50710686071575,Active,No,Traditional,Intermediate/Middle/Junior High,Public,Denair Middle,Denair Unified,Stanislaus,3701 Lester Road,Denair,CA,Yes,3,6-8,6-8,3219.5408536014747
40687596043012,Active,No,Traditional,Elementary,Public,Branch Elementary,Lucia Mar Unified,San Luis Obispo,970 School Road,Arroyo Grande,CA,No,1,K-6,K-6,3143.844231911386
51714646053359,Active,No,Traditional,Elementary - Intermediate/Middle/Junior High Combination,Public,Barry Elementary,Yuba City Unified,Sutter,1255 Barry Road,Yuba City,CA,No,1,K-8,K-8,3136.488011946429
56725386055370,Active,No,Traditional,Elementary,Public,Rose Avenue Elementary,Oxnard,Ventura,220 South Driskill Street,Oxnard,CA,No,1,K-5,K-5,3130.779890584756
34322765637780,Active,No,Youth Authority School,High School,Public,Mary B. Perry High,California Education Authority (CEA) Headquarters,Ventura,3100 Wright Road,Camarillo,CA,No,1,9-12,9-12,3125.998603550172
39685933935111,Active,No,Continuation School,High School,Public,Calla High,Manteca Unified,San Joaquin,130 South Austin Road,Manteca,CA,No,1,9-12,11-12,3066.138877031221
27738256026413,Active,No,Traditional,Elementary,Public,Elkhorn Elementary,North Monterey County Unified,Monterey,2235 Elkhorn Road,Castroville,CA,No,1,K-6,K-6,3023.2336622302223
50712176052922,Active,No,Traditional,Elementary,Public,Grayson Elementary,Patterson Joint Unified,Stanislaus,301 Howard Road,Westley,CA,No,1,K-5,K-5,2836.9775729389826
10101081030337,Active,No,Juvenile Court School,Intermediate/Middle/Junior High - High Combination,Public,Alice M. Worsley,Fresno County Office of Education,Fresno,3333 American Avenue,Fresno,CA,No,1,K-12,7-12,2836.634931283783
10624146007173,Active,No,Traditional,Elementary,Public,Lone Star Elementary,Sanger Unified,Fresno,2617 South Fowler Avenue,Fresno,CA,No,1,P-6,K-6,2831.099353442999
50710840120089,Active,Yes,Traditional,Elementary - Intermediate/Middle/Junior High Combination,Public,Gratton Charter,Gratton Elementary,Stanislaus,4500 South Gratton Road,Denair,CA,Yes,2,K-8,K-8,2821.1590640337454
50710846052534,Active,No,Traditional,Elementary - Intermediate/Middle/Junior High Combination,Public,Gratton Elementary,Gratton Elementary,Stanislaus,4500 South Gratton Road,Denair,CA,Yes,2,K-8,K-8,2821.1590640337454
15638346010235,Active,No,Traditional,Elementary,Public,Vineland Elementary,Vineland Elementary,Kern,14713 Weedpatch Highway,Bakersfield,CA,No,1,K-4,K-4,2817.9447587151953
56725386100333,Active,No,Traditional,Elementary - Intermediate/Middle/Junior High Combination,Public,Lemonwood Elementary,Oxnard,Ventura,2001 San Mateo Place,Oxnard,CA,No,1,K-8,K-8,2766.5299088443426
54722560110940,Active,No,Traditional,Elementary,Public,Cottonwood Creek Elementary,Visalia Unified,Tulare,4222 South Dans Street,Visalia,CA,No,1,K-6,K-6,2757.8076978357276
54105460135459,Active,Yes,Traditional,Elementary,Public,Blue Oak Academy,Tulare County Office of Education,Tulare,28050 Road 148,Visalia,CA,No,1,K-5,K-4,2665.7752297212633
10624306007280,Active,No,Traditional,Elementary,Public,Indianola Elementary,Selma Unified,Fresno,11524 East Dinuba Avenue,Selma,CA,No,1,K-6,K-6,2636.6631945856416
50710430108076,Active,No,Traditional,High School,Public,Central Valley High,Ceres Unified,Stanislaus,4033 Central Avenue,Ceres,CA,No,1,9-12,9-12,2630.769184394626
10619946005730,Active,Yes,Traditional,Elementary - Intermediate/Middle/Junior High Combination,Public,Alvina Elementary Charter,Alvina Elementary,Fresno,295 West Saginaw Avenue,Caruthers,CA,No,1,K-8,K-8,2597.14547393724
10623566007025,Active,No,Traditional,Elementary - Intermediate/Middle/Junior High Combination,Public,Pacific Union Elementary,Pacific Union Elementary,Fresno,2065 East Bowles Avenue,Fresno,CA,No,1,K-8,K-8,2586.8808395291762
10739656006910,Active,No,Traditional,Elementary,Public,Madison Elementary,Central Unified,Fresno,330 South Brawley Avenue,Fresno,CA,No,1,K-6,K-6,2576.7356766840935
24656496025381,Active,Yes,Traditional,Elementary - Intermediate/Middle/Junior High Combination,Public,Ballico-Cressey Community Charter,Ballico-Cressey Elementary,Merced,11818 Gregg Street,Ballico,CA,No,1,1-8,1-8,2566.0796847258175
39685936042378,Active,No,Traditional,Elementary - Intermediate/Middle/Junior High Combination,Public,Nile Garden Elementary,Manteca Unified,San Joaquin,5700 East Nile Road,Manteca,CA,No,1,K-8,K-8,2556.750166716364
51714640107722,Active,No,Traditional,High School,Public,River Valley High,Yuba City Unified,Sutter,801 El Margarita Road,Yuba City,CA,No,1,9-12,9-12,2514.289093634315
51713816053250,Active,No,Traditional,Elementary - Intermediate/Middle/Junior High Combination,Public,Franklin Elementary,Franklin Elementary,Sutter,332 North Township Road,Yuba City,CA,No,1,K-8,K-8,2502.724835948249
52715486053532,Active,No,Traditional,Elementary - Intermediate/Middle/Junior High Combination,Public,Gerber Elementary,Gerber Union Elementary,Tehama,23014 Chard Avenue,Gerber,CA,No,1,K-8,K-8,2449.827223440811
54722236054449,Active,No,Traditional,Elementary - Intermediate/Middle/Junior High Combination,Public,Traver Elementary,Traver Joint Elementary,Tulare,36736 Canal Drive,Traver,CA,No,1,K-8,K-8,2365.1659499999746
10622656088959,Active,No,Traditional,Elementary,Public,Great Western Elementary,Kings Canyon Joint Unified,Fresno,5051 South Frankwood Avenue,Reedley,CA,No,1,P-5,K-5,2354.6861057299075
40687590110486,Active,No,Traditional,Elementary,Public,Lange (Dorothea) Elementary,Lucia Mar Unified,San Luis Obispo,1661 Via Alta Mesa,Nipomo,CA,No,1,K-6,K-6,2333.297893774524
39685856098057,Active,No,Traditional,Elementary - Intermediate/Middle/Junior High Combination,Public,Victor Elementary,Lodi Unified,San Joaquin,17670 North Bruella Road,Victor,CA,No,1,K-6,K-8,2297.968195369086
50712666113823,Active,No,Traditional,Elementary,Public,Dena Boer,Salida Union Elementary,Stanislaus,4801 Gold Valley Road,Salida,CA,No,1,K-5,K-5,2280.280668107312
54722560139212,Active,No,Community Day School,Intermediate/Middle/Junior High - High Combination,Public,Creekside Community Day,Visalia Unified,Tulare,31411 Road 160,Visalia,CA,No,1,7-12,7-12,2180.8678029326597
56725126055164,Active,No,Traditional,Elementary,Public,Laguna Vista Elementary,Ocean View,Ventura,5084 Etting Road,Oxnard,CA,No,1,K-5,K-5,2171.6590113911925
44697996117253,Active,No,Traditional,Elementary,Public,Ann Soldo Elementary,Pajaro Valley Unified,Santa Cruz,1140 Menasco Drive,Watsonville,CA,No,1,K-5,K-5,2170.084704408066
37684520118430,Active,No,Alternative School of Choice,High School,Public,Mission Vista High,Vista Unified,San Diego,1306 Melrose Drive,Oceanside,CA,No,1,9-12,9-12,2139.652400883247
24657486025514,Active,No,Traditional,Intermediate/Middle/Junior High,Public,Livingston Middle,Livingston Union,Merced,101 F Street,Livingston,CA,No,1,6-8,6-8,2134.8892345770914
56725616055511,Active,No,Traditional,Elementary,Public,Rio Plaza Elementary,Rio Elementary,Ventura,600 Simon Way,Oxnard,CA,No,1,K-5,K-5,2131.4999017896093
20651936023931,Active,No,Traditional,Elementary,Public,Fairmead Elementary,Chowchilla Elementary,Madera,19421 Avenue 22 3/4,Chowchilla,CA,No,1,5-6,5-6,2088.989594710076
24657892430601,Active,No,Traditional,High School,Public,Atwater High,Merced Union High,Merced,2201 Fruitland Avenue,Atwater,CA,No,1,9-12,9-12,2077.1864958498586
54721816054407,Active,No,Traditional,Elementary - Intermediate/Middle/Junior High Combination,Public,Sunnyside Elementary,Sunnyside Union Elementary,Tulare,21644 Avenue 196,Strathmore,CA,No,1,P-8,K-8,2022.0396607801747
24656496025399,Active,No,Traditional,Elementary,Public,Cressey Elementary,Ballico-Cressey Elementary,Merced,9921 Crocker Street,Cressey,CA,No,1,K,K,2008.9267406548456
39754996110530,Active,No,Traditional,Elementary,Public,Louis A. Bohn Elementary,Tracy Joint Unified,San Joaquin,350 East Mount Diablo,Tracy,CA,No,1,K-5,K-5,1984.5110862440513
50711676107023,Active,No,Traditional,Elementary,Public,Alberta Martone Elementary,Modesto City Elementary,Stanislaus,1413 Poust Road,Modesto,CA,No,1,K-6,K-6,1955.5570519895782
27659610127456,Active,No,Traditional,Elementary,Public,Monte Bella Elementary,Alisal Union,Monterey,1300 Tuscany Boulevard,Salinas,CA,No,1,K-6,K-6,1952.479389234519
10623646007058,Active,No,Traditional,Elementary,Public,Cesar E Chavez Elementary,Parlier Unified,Fresno,500 Tuolumne Street,Parlier,CA,No,1,K-6,K-6,1944.6916626803827
44697996049829,Active,Yes,Traditional,Elementary - Intermediate/Middle/Junior High Combination,Public,Alianza Charter,Pajaro Valley Unified,Santa Cruz,115 Casserly Road,Watsonville,CA,Yes,2,K-8,K-8,1903.502328314065
44697996119077,Active,Yes,Traditional,Elementary - Intermediate/Middle/Junior High Combination,Public,Watsonville Charter School of the Arts,Pajaro Valley Unified,Santa Cruz,"115 Casserly Road, West Campus",Watsonville,CA,Yes,2,K-8,K-8,1903.502328314065
50712740121558,Active,Yes,Traditional,Elementary - Intermediate/Middle/Junior High Combination,Public,Shiloh Charter,Shiloh Elementary,Stanislaus,6633 Paradise Road,Modesto,CA,Yes,2,K-8,K-8,1884.1737656460677
50712746053045,Active,No,Traditional,Elementary,Public,Shiloh Elementary,Shiloh Elementary,Stanislaus,6633 Paradise Road,Modesto,CA,Yes,2,K-8,K-2,1884.1737656460677
24736196025720,Active,No,Traditional,Elementary,Public,Gustine Elementary,Gustine Unified,Merced,2806 West Grove Avenue,Gustine,CA,No,1,K-5,K-5,1869.0264878738942
54722566054639,Active,No,Traditional,Elementary - Intermediate/Middle/Junior High Combination,Public,Ivanhoe Elementary,Visalia Unified,Tulare,16030 Avenue 332,Ivanhoe,CA,No,1,P-8,K-8,1827.8771426328958
15637196009963,Active,No,Traditional,Elementary - Intermediate/Middle/Junior High Combination,Public,Pond Elementary,Pond Union Elementary,Kern,29585 Pond Road,Wasco,CA,No,1,K-8,K-8,1807.1962553288286
24657892433605,Active,No,Traditional,High School,Public,Livingston High,Merced Union High,Merced,1617 Main Street,Livingston,CA,No,1,9-12,9-12,1782.6368355617483
10621170133314,Active,No,Traditional,Elementary,Public,Virginia R. Boris Elementary,Clovis Unified,Fresno,7071 East Clinton Avenue,Fresno ,CA,No,1,K-6,K-6,1776.4266075821238
50755490116848,Active,No,Community Day School,Intermediate/Middle/Junior High,Public,Valley Community Day,Hughson Unified,Stanislaus,7419 East Whitmore,Hughson,CA,Yes,2,8-12,9-10,1758.6178069403059
50755495032651,Active,No,Traditional,High School,Public,Hughson High,Hughson Unified,Stanislaus,7419 East Whitmore Avenue,Hughson,CA,Yes,2,9-12,9-12,1758.6178069403059
42691206046049,Active,No,Traditional,Elementary,Public,Oakley (Calvin C.) Elementary,Santa Maria-Bonita,Santa Barbara,1120 West Harding Street,Santa Maria,CA,No,1,K-6,K-6,1659.939173178695
54718606118111,Active,No,Traditional,Intermediate/Middle/Junior High,Public,El Monte Middle,Cutler-Orosi Joint Unified,Tulare,42111 Road 128,Orosi,CA,No,1,6-8,6-8,1650.0110460564126
10621096005839,Active,No,Traditional,Elementary - Intermediate/Middle/Junior High Combination,Public,Clay Elementary,Clay Joint Elementary,Fresno,12449 South Smith Avenue,Kingsburg,CA,No,1,K-8,K-8,1627.6160983526663
39685850125369,Active,No,Special Education School,Elementary - Intermediate/Middle/Junior High Combination,Public,Turner Academy at Tokay Colony,Lodi Unified,San Joaquin,13520 East Live Oak Road,Lodi,CA,No,1,K-8,K-8,1575.2362987466115
56725126055180,Active,No,Traditional,Elementary,Public,Tierra Vista Elementary,Ocean View,Ventura,2001 Sanford Street,Oxnard,CA,No,1,K-5,K-5,1490.1458191351412
39686760108159,Active,No,Traditional,High School,Public,Cesar Chavez High,Stockton Unified,San Joaquin,2929 Windflower Lane,Stockton,CA,No,1,9-12,9-12,1489.496939200243
50105045030085,Active,No,County Community School,Intermediate/Middle/Junior High - High Combination,Public,Stanislaus Military Academy at Teel,Stanislaus County Office of Education,Stanislaus,5255 1st Street,Empire,CA,Yes,3,9-12,8-12,1475.819716720479
50710766052518,Active,No,Traditional,Elementary,Public,Empire Elementary,Empire Union Elementary,Stanislaus,5201 First St,Empire,CA,Yes,3,K-6,K-6,1475.819716720479
50711750120212,Active,Yes,Traditional,Intermediate/Middle/Junior High - High Combination,Public,Aspire Vanguard College Preparatory Academy,Modesto City High,Stanislaus,819 Sunset Avenue,Modesto,CA,Yes,3,6-12,6-12,1475.819716720479
33736760100248,Active,No,Traditional,Elementary,Public,Las Palmitas Elementary,Coachella Valley Unified,Riverside,86150 Avenue 66,Thermal,CA,Yes,3,K-6,K-6,1469.3487666123324
33736760100255,Active,No,Traditional,High School,Public,Desert Mirage High,Coachella Valley Unified,Riverside,86150 Avenue 66,Thermal,CA,Yes,3,9-12,9-12,1469.3487666123324
33736760100263,Active,No,Traditional,Intermediate/Middle/Junior High,Public,Toro Canyon Middle,Coachella Valley Unified,Riverside,86150 Avenue 66,Thermal,CA,Yes,3,7-8,7-8,1469.3487666123324
56724705630363,Active,Yes,Traditional,Elementary - High Combination,Public,Golden Valley Charter,Mesa Union Elementary,Ventura,"3585 Maple Street, Suite 101",Ventura,CA,No,1,K-12,K-12,1460.94560114497
04614996003198,Active,No,Traditional,Elementary - Intermediate/Middle/Junior High Combination,Public,Manzanita Elementary,Manzanita Elementary,Butte,627 East Evans-Reimer Road,Gridley,CA,No,1,K-8,K-8,1455.3289032799535
39685026070957,Active,No,Traditional,Intermediate/Middle/Junior High,Public,El Portal Middle,Escalon Unified,San Joaquin,805 First Street,Escalon,CA,No,1,6-8,6-8,1450.665003767904
50711006052559,Active,Yes,Traditional,Elementary,Public,Hickman Elementary,Hickman Community Charter,Stanislaus,"13306 Fourth Street, Area A",Hickman,CA,Yes,3,K-5,K-5,1446.1884809317173
50711006112627,Active,Yes,Traditional,Elementary - Intermediate/Middle/Junior High Combination,Public,Hickman Charter,Hickman Community Charter,Stanislaus,13306 Fourth Street,Hickman,CA,Yes,3,K-8,K-8,1446.1884809317173
50711006116388,Active,Yes,Traditional,Intermediate/Middle/Junior High,Public,Hickman Middle,Hickman Community Charter,Stanislaus,13306 Fourth Street,Hickman,CA,Yes,3,6-8,6-8,1446.1884809317173
10739656005789,Active,No,Traditional,Elementary,Public,Biola-Pershing Elementary,Central Unified,Fresno,4885 North Biola Avenue,Fresno,CA,No,1,K-6,K-6,1444.920111889707
24753660105817,Active,No,Traditional,Elementary,Public,Harmony Elementary,Delhi Unified,Merced,16464 West August Avenue,Delhi,CA,No,1,K-6,K-6,1426.2157811944137
24656316025316,Active,No,Traditional,Elementary,Public,Aileen Colburn Elementary,Atwater Elementary,Merced,2201 Heller Street,Atwater,CA,No,1,K-6,K-6,1419.6099152291085
10623640126870,Active,No,Continuation School,High School,Public,San Joaquin Valley High,Parlier Unified,Fresno,900 Newmark Avenue,Parlier,CA,Yes,3,9-12,9-12,1406.6608300507814
10623641034990,Active,No,Traditional,High School,Public,Parlier High,Parlier Unified,Fresno,603 Third Street,Parlier,CA,Yes,3,9-12,9-12,1406.6608300507814
10623646007033,Active,No,Traditional,Elementary,Public,Mathew J Brletic Elementary,Parlier Unified,Fresno,601 Third Street,Parlier,CA,Yes,3,K-6,K-6,1406.6608300507814
24657556025530,Active,No,Traditional,Elementary,Public,Charleston Elementary,Los Banos Unified,Merced,18463 West Charleston Road,Los Banos,CA,No,1,K-6,K-6,1392.4825084548268
50755560118810,Active,No,Traditional,Elementary,Public,Mesa Verde Elementary,Riverbank Unified,Stanislaus,4850 Mesa Drive,Oakdale,CA,No,1,K-5,K-5,1356.1266114946714
51713996053268,Active,No,Traditional,Elementary - Intermediate/Middle/Junior High Combination,Public,Encinal Elementary,Live Oak Unified,Sutter,6484 Larkin Road,Live Oak,CA,No,1,K-8,K-8,1353.0420464410674
10624140113043,Active,No,Traditional,Elementary,Public,Ronald W. Reagan Elementary,Sanger Unified,Fresno,1586 South Indianola,Sanger,CA,No,1,K-6,K-6,1349.9232587177305
10621580108977,Active,No,Community Day School,Intermediate/Middle/Junior High,Public,Fowler Academy Community Day (9-12),Fowler Unified,Fresno,975 East Adams Avenue,Fowler,CA,Yes,3,9-12,9-10,1294.968806008132
10621580126250,Active,No,Community Day School,Intermediate/Middle/Junior High,Public,Fowler Academy Community Day,Fowler Unified,Fresno,975 East Adams Avenue,Fowler,CA,Yes,3,K-8,8,1294.968806008132
10621586006050,Active,No,Traditional,Elementary,Public,Marshall Elementary,Fowler Unified,Fresno,142 North Armstrong Avenue,Fowler,CA,Yes,3,K-2,K-2,1294.968806008132
39685776041966,Active,No,Traditional,Elementary - Intermediate/Middle/Junior High Combination,Public,Glenwood Elementary,Linden Unified,San Joaquin,2005 North Alpine Road,Stockton,CA,No,1,K-8,K-8,1293.3404385494885
15634120100529,Active,No,Traditional,High School,Public,Cesar E. Chavez High,Delano Joint Union High,Kern,800 Browning Road,Delano,CA,No,1,9-12,9-12,1277.618024882046
10624146007116,Active,No,Traditional,Elementary,Public,Del Rey Elementary,Sanger Unified,Fresno,10620 Morro Street,Del Rey,CA,No,1,P-6,K-6,1270.084095349106
04755070433953,Active,No,Traditional,High School,Public,Gridley High,Gridley Unified,Butte,300 East Spruce Street,Gridley,CA,No,1,9-12,9-12,1267.3650493789573
50711346119002,Active,No,Traditional,Intermediate/Middle/Junior High,Public,Barbara Spratling Middle,Keyes Union,Stanislaus,5277 Washington Road,Hughson,CA,No,1,6-8,6-8,1223.682130088731
27660276026108,Active,No,Traditional,Elementary - Intermediate/Middle/Junior High Combination,Public,Graves Elementary,Graves Elementary,Monterey,15 McFadden Road,Salinas,CA,No,1,K-8,K-8,1203.5723912021397
10755981030535,Active,No,Traditional,Elementary - High Combination,Public,Caruthers High,Caruthers Unified,Fresno,2580 West Tahoe Avenue,Caruthers,CA,Yes,2,9-12,1-12,1178.1814838790192
10755981030543,Active,No,Continuation School,High School,Public,MARC High,Caruthers Unified,Fresno,2580 West Tahoe Avenue,Caruthers,CA,Yes,2,9-12,9-12,1178.1814838790192
10739991033430,Active,No,Traditional,High School,Public,Kerman High,Kerman Unified,Fresno,205 South First Street,Kerman,CA,No,1,9-12,9-12,1176.4802670715908
15633626009260,Active,No,Traditional,Elementary,Public,Buena Vista Elementary,Panama-Buena Vista Union,Kern,6547 Buena Vista Road,Bakersfield,CA,No,1,K-6,K-6,1154.3359862418017
56724476054969,Active,No,Traditional,Intermediate/Middle/Junior High,Public,Briggs Elementary,Briggs Elementary,Ventura,14438 West Telegraph Road,Santa Paula,CA,No,1,5-8,5-8,1144.2671690431596
54721086054332,Active,No,Traditional,Elementary - Intermediate/Middle/Junior High Combination,Public,Saucelito Elementary,Saucelito Elementary,Tulare,17615 Avenue 104,Terra Bella,CA,No,1,K-8,K-8,1142.7369027494008
27661910107391,Active,No,Traditional,Elementary,Public,New Republic Elementary,Santa Rita Union Elementary,Monterey,636 Arcadia Way,Salinas,CA,No,1,K-5,K-5,1140.3296593058203
54753256100275,Active,No,Traditional,Intermediate/Middle/Junior High,Public,Farmersville Junior High,Farmersville Unified,Tulare,650 North Virginia Street,Farmersville,CA,No,1,7-8,7-8,1138.61177424186
40688096043244,Active,No,Traditional,Elementary,Public,Los Ranchos Elementary,San Luis Coastal Unified,San Luis Obispo,5785 Los Ranchos Road,San Luis Obispo,CA,No,1,K-6,K-6,1130.8619205952239
44697996049639,Active,No,Traditional,Elementary,Public,Amesti Elementary,Pajaro Valley Unified,Santa Cruz,25 Amesti Road,Watsonville,CA,No,1,K-5,K-5,1128.7053982680475
15635526009666,Active,No,Traditional,Elementary - Intermediate/Middle/Junior High Combination,Public,Lakeside,Lakeside Union,Kern,14535 Old River Road,Bakersfield,CA,No,1,K-8,K-8,1077.2571823119142
10755986005813,Active,No,Traditional,Elementary - Intermediate/Middle/Junior High Combination,Public,Caruthers Elementary,Caruthers Unified,Fresno,13699 South Quince Quince Avenue and Tiller Avenue,Caruthers,CA,No,1,K-8,K-8,1066.0831833611214
50757390108175,Active,No,Traditional,Elementary,Public,Sandra Tovar Medeiros Elementary,Turlock Unified,Stanislaus,651 West Springer Drive,Turlock,CA,No,1,K-6,K-6,1065.1134049183686
27661590136697,Active,No,Traditional,High School,Public,Rancho San Juan High,Salinas Union High,Monterey,1100 Rogge Road,Salinas,CA,No,1,9-12,9-12,1032.0013316195982
56725610112631,Active,No,Traditional,Elementary,Public,Rio Del Mar,Rio Elementary,Ventura,3150 Thames River,Oxnard,CA,No,1,K-5,K-5,1028.4921910107896
10623646007041,Active,No,Traditional,Elementary,Public,John C Martinez Elementary,Parlier Unified,Fresno,13174 East Parlier Avenue,Parlier,CA,No,1,K-6,K-6,1017.1655499327954
27659616117691,Active,No,Traditional,Elementary,Public,Oscar F. Loya Elementary,Alisal Union,Monterey,1505 Cougar Drive,Salinas,CA,No,1,K-6,K-6,1015.609994277942
39685856042170,Active,No,Traditional,Elementary,Public,Live Oak Elementary,Lodi Unified,San Joaquin,5099 East Bear Creek Road,Lodi,CA,No,1,K-6,K-6,1007.6125222019032
39686500108035,Active,No,Traditional,Elementary - Intermediate/Middle/Junior High Combination,Public,Park View Elementary,Ripon Unified,San Joaquin,751 Cindy Drive,Ripon,CA,No,1,K-8,K-8,1000.8393182158045
24657486109649,Active,No,Traditional,Elementary,Public,Yamato Colony Elementary,Livingston Union,Merced,800 North Main Street,Livingston,CA,No,1,K-5,K-5,988.8343973445117
35752596049654,Active,No,Traditional,Elementary - Intermediate/Middle/Junior High Combination,Public,Aromas,Aromas - San Juan Unified,Monterey,365 Vega Street,Aromas,CA,No,1,K-8,K-8,972.9528947196284
27659616119663,Active,Yes,Traditional,Elementary,Public,Oasis Charter Public,Alisal Union,Monterey,1135 Westridge Parkway,Salinas,CA,No,1,K-6,K-6,959.0956901800241
10623640107409,Active,No,Traditional,Elementary,Public,S Ben Benavidez Elementary,Parlier Unified,Fresno,13900 Tuolumne Street,Parlier,CA,No,1,K-6,K-6,940.204601778667
27661916026652,Active,No,Traditional,Elementary,Public,La Joya Elementary,Santa Rita Union Elementary,Monterey,55 Rogge Road,Salinas,CA,No,1,K-5,K-5,938.4495803857658
15633136110464,Active,No,Traditional,Elementary - Intermediate/Middle/Junior High Combination,Public,Bear Mountain Elementary,Arvin Union,Kern,1501 Hood Street,Arvin,CA,No,1,P-6,K-8,925.1258495030123
56724706055123,Active,No,Traditional,Elementary - Intermediate/Middle/Junior High Combination,Public,Mesa Elementary,Mesa Union Elementary,Ventura,3901 North Mesa School Road,Somis,CA,No,1,K-8,K-8,907.4320884780227
39685776041990,Active,No,Traditional,Intermediate/Middle/Junior High,Public,Waterloo Elementary,Linden Unified,San Joaquin,7007 North Pezzi Road,Stockton,CA,No,1,5-8,5-8,899.0062103432487
54767945430285,Active,No,Community Day School,Intermediate/Middle/Junior High - High Combination,Public,Woodlake Community Day,Woodlake Unified,Tulare,36220 Millwood Drive,Woodlake,CA,No,1,7-12,7-12,887.1729394851177
27661916120224,Active,No,Traditional,Elementary,Public,McKinnon,Santa Rita Union Elementary,Monterey,2100 McKinnon,Salinas,CA,No,1,K-5,K-5,849.0787216023393
39685776041974,Active,No,Traditional,Elementary,Public,Linden Elementary,Linden Unified,San Joaquin,18100 West Front Street,Linden,CA,No,1,K-4,K-4,822.7414711982748
10622571033729,Active,No,Continuation School,High School,Public,Oasis Continuation High,Kingsburg Joint Union High,Fresno,2311 Sierra Street,Kingsburg,CA,No,1,9-12,10-12,822.1311594177677
10625136007405,Active,No,Traditional,Elementary - Intermediate/Middle/Junior High Combination,Public,Washington Colony Elementary,Washington Colony Elementary,Fresno,130 East Lincoln Avenue,Fresno,CA,No,1,K-8,K-8,814.0654275983538
54720096054167,Active,No,Traditional,Elementary - Intermediate/Middle/Junior High Combination,Public,Monson-Sultana Elementary,Monson-Sultana Joint Union Elementary,Tulare,10643 Avenue 416,Dinuba,CA,No,1,K-8,K-8,805.7483260538916
20652430116970,Active,No,Traditional,Elementary,Public,Parkwood Elementary,Madera Unified,Madera,1150 East Pecan Avenue,Madera,CA,No,1,K-6,K-6,790.9144611739199
11625966007454,Active,No,Traditional,Elementary - Intermediate/Middle/Junior High Combination,Public,Lake Elementary,Lake Elementary,Glenn,4672 County Road North,Orland,CA,No,1,K-8,K-8,762.0155477529961
20652430110957,Active,No,Traditional,Elementary,Public,Cesar Chavez Elementary,Madera Unified,Madera,2600 East Pecan,Madera,CA,No,1,K-6,K-6,748.8658131836529
40687596043053,Active,No,Traditional,Elementary,Public,Harloe Elementary,Lucia Mar Unified,San Luis Obispo,901 Fair Oaks Avenue,Arroyo Grande,CA,No,1,K-6,K-6,732.5044449902203
10622651033703,Active,No,Continuation School,Elementary - High Combination,Public,Kings Canyon Continuation,Kings Canyon Joint Unified,Fresno,10026 South Crawford Avenue,Dinuba,CA,No,1,9-12,2-12,698.5971993064231
51713656053243,Active,No,Traditional,Elementary - Intermediate/Middle/Junior High Combination,Public,Browns Elementary,Browns Elementary,Sutter,1248 Pacific Avenue,Rio Oso,CA,No,1,K-8,K-8,692.4396182684084
58727366056659,Active,No,Traditional,Elementary,Public,Cedar Lane Elementary,Marysville Joint Unified,Yuba,841 Cedar Lane,Olivehurst,CA,No,1,K-6,K-6,665.5670212227043
04614320433201,Active,No,Traditional,High School,Public,Durham High,Durham Unified,Butte,9455 Putney Drive,Durham,CA,Yes,3,9-12,9-12,655.7515158429328
04614326003115,Active,No,Traditional,Elementary,Public,Durham Elementary,Durham Unified,Butte,9421 Putney Drive,Durham,CA,Yes,3,K-5,K-5,655.7515158429328
04614326105761,Active,No,Traditional,Intermediate/Middle/Junior High,Public,Durham Intermediate,Durham Unified,Butte,9416 Putney Drive,Durham,CA,Yes,3,6-8,6-8,655.7515158429328
54755316053961,Active,No,Traditional,Elementary,Public,Grand View Elementary,Dinuba Unified,Tulare,39746 Road 64,Dinuba,CA,No,1,K-6,K-6,636.7731101752487
20652436023949,Active,No,Traditional,Elementary - Intermediate/Middle/Junior High Combination,Public,Dixieland Elementary,Madera Unified,Madera,18440 Road 19,Madera,CA,No,1,K-8,K-8,631.6058740287639
27660350136796,Active,No,Traditional,Elementary,Public,Arroyo Seco Academy,Greenfield Union Elementary,Monterey,1226 Apple Avenue,Greenfield,CA,No,1,K-6,K-6,629.629732881614
10767781038306,Active,No,Traditional,High School,Public,Washington High,Washington Unified,Fresno,6041 South Elm Avenue,Fresno,CA,No,1,9-12,9-12,624.3645105948017
10624140123463,Active,No,Traditional,Elementary,Public,Sequoia Elementary,Sanger Unified,Fresno,1820 South Armstrong Avenue,Fresno,CA,No,1,P-6,K-6,621.6483565271379
27660846026157,Active,No,Traditional,Elementary - Intermediate/Middle/Junior High Combination,Public,Mission Elementary,Mission Union Elementary,Monterey,36825 Foothill Road,Soledad,CA,No,1,K-8,K-8,617.3183592826513
56726525637814,Active,No,Traditional,High School,Public,Ventura Adult and Continuing Education,Ventura Unified,Ventura,5200 Valentine Road,Ventura,CA,No,1,Adult,12,604.326100439786
54755316107650,Active,No,Traditional,Elementary,Public,Roosevelt Elementary,Dinuba Unified,Tulare,1311 Euclid Avenue,Dinuba,CA,No,1,K-6,K-6,598.3061153828515
10622656006738,Active,No,Traditional,Elementary,Public,Alta Elementary,Kings Canyon Joint Unified,Fresno,21771 East Parlier Avenue,Reedley,CA,No,1,K-5,K-5,590.4407834247139
51713996053276,Active,No,Traditional,Intermediate/Middle/Junior High,Public,Live Oak Middle,Live Oak Unified,Sutter,2082 Pennington Road,Live Oak,CA,No,1,5-8,5-8,587.4550149033097
54720256054183,Active,No,Traditional,Elementary - Intermediate/Middle/Junior High Combination,Public,Outside Creek Elementary,Outside Creek Elementary,Tulare,26452 Road 164,Visalia,CA,No,1,K-8,K-8,581.2109961329047
50710680132662,Active,Yes,Traditional,Elementary,Public,Denair Elementary Charter Academy,Denair Unified,Stanislaus,3773 Madera Avenue,Denair,CA,Yes,2,K-5,K-5,576.0640770722384
50710686052500,Active,No,Traditional,Elementary,Public,Denair Elementary,Denair Unified,Stanislaus,3773 Madera Avenue,Denair,CA,Yes,2,K-5,K-5,576.0640770722384
54718605430095,Active,No,Alternative School of Choice,Intermediate/Middle/Junior High - High Combination,Public,Esperanza High,Cutler-Orosi Joint Unified,Tulare,12724 Avenue 392,Cutler,CA,Yes,2,K-12,8-12,563.0032218078213
54718605430806,Active,No,Continuation School,High School,Public,Lovell High,Cutler-Orosi Joint Unified,Tulare,12724 Avenue 392,Cutler,CA,Yes,2,9-12,11-12,563.0032218078213
16639666010508,Active,No,Traditional,Elementary - Intermediate/Middle/Junior High Combination,Public,Lakeside Elementary,Lakeside Union Elementary,Kings,9100 Jersey Avenue,Hanford,CA,No,1,K-8,K-8,552.0985269748335
54767946108286,Active,No,Traditional,Elementary,Public,Castle Rock Elementary,Woodlake Unified,Tulare,360 North Castle Rock Street,Woodlake,CA,No,1,3-5,3-5,538.1739805074446
27661420132407,Active,No,Traditional,Elementary,Public,Boronda Elementary,Salinas City Elementary,Monterey,1114 Fontes Lane,Salinas,CA,No,1,K-6,K-4,530.3079846901055
42691386119804,Active,No,Traditional,Elementary,Public,Oak Valley Elementary,Buellton Union Elementary,Santa Barbara,595 Second Street,Buellton,CA,No,1,K-5,K-5,529.6052558935872
10621581031954,Active,No,Continuation School,High School,Public,Fowler Academy Continuation,Fowler Unified,Fresno,975 E. Adams Avenue,Fowler,CA,No,1,7-12,11-12,529.5111179323192
50755496052575,Active,No,Traditional,Elementary,Public,Hughson Elementary,Hughson Unified,Stanislaus,7201 East Whitmore Avenue,Hughson,CA,No,1,K-3,K-3,528.0366477350282
39685776042006,Active,No,Traditional,Elementary - Intermediate/Middle/Junior High Combination,Public,Waverly Elementary,Linden Unified,San Joaquin,3507 Wilmarth Road,Stockton,CA,No,1,K-8,K-8,526.622681206026
39686760100206,Active,No,Traditional,Elementary - Intermediate/Middle/Junior High Combination,Public,George W. Bush Elementary,Stockton Unified,San Joaquin,5420 Fred Russo Drive,Stockton,CA,No,1,K-8,K-8,499.35020444499366
13631806008593,Active,No,Traditional,Elementary - Intermediate/Middle/Junior High Combination,Public,McCabe Elementary,McCabe Union Elementary,Imperial,701 West McCabe Road,El Centro,CA,No,1,K-8,K-8,497.322068888532
11626386007504,Active,No,Traditional,Elementary - Intermediate/Middle/Junior High Combination,Public,Plaza Elementary,Plaza Elementary,Glenn,7322 County Road 24,Orland,CA,No,1,K-8,K-8,494.2389441553252
50711676052682,Active,No,Traditional,Elementary,Public,Fairview Elementary,Modesto City Elementary,Stanislaus,1937 West Whitmore Avenue,Modesto,CA,No,1,K-6,K-6,482.5882017871963
27738256026421,Active,No,Traditional,Intermediate/Middle/Junior High,Public,North Monterey County Middle,North Monterey County Unified,Monterey,10301 Seymour Street,Castroville,CA,No,1,7-8,7-8,468.8814690493949
10621586006027,Active,No,Traditional,Elementary,Public,Fremont Elementary,Fowler Unified,Fresno,306 East Tuolumne Street,Fowler,CA,No,1,3-5,3-5,459.4972402928247
49753586110993,Active,No,Traditional,Elementary,Public,Mattie Washburn Elementary,Windsor Unified,Sonoma,75 Pleasant Avenue,Santa Rosa,CA,No,1,K-2,K-2,459.2736298289336
15633626009948,Active,No,Traditional,Elementary,Public,Panama Elementary,Panama-Buena Vista Union,Kern,9400 Stine Road,Bakersfield,CA,No,1,K-6,K-6,458.88792306622656
50755720117689,Active,No,Continuation School,High School,Public,Sentinel High,Waterford Unified,Stanislaus,121 South Reinway Avenue,Waterford,CA,Yes,2,9-12,11-12,455.5640267095579
50755725030259,Active,No,Traditional,High School,Public,Waterford High,Waterford Unified,Stanislaus,121 South Reinway,Waterford,CA,Yes,2,9-12,9-12,455.5640267095579
54718526053896,Active,No,Traditional,Elementary - Intermediate/Middle/Junior High Combination,Public,Columbine Elementary,Columbine Elementary,Tulare,2240 Road 160,Delano,CA,No,1,K-8,K-8,449.52114311613445
51714495130042,Active,No,Continuation School,High School,Public,Butte View High,Sutter Union High,Sutter,2665 Acacia Street,Sutter,CA,Yes,2,9-12,10-12,442.9605363856309
51714495137500,Active,No,Traditional,High School,Public,Sutter High,Sutter Union High,Sutter,2665 Acacia Street,Sutter,CA,Yes,2,9-12,9-12,442.9605363856309
50755726053219,Active,No,Traditional,Intermediate/Middle/Junior High,Public,Waterford Junior,Waterford Unified,Stanislaus,12916 Bentley Street,Waterford,CA,No,1,7-8,7-8,442.45383887489527
27661426026587,Active,No,Traditional,Elementary,Public,Monterey Park Elementary,Salinas City Elementary,Monterey,410 San Miguel Avenue,Salinas,CA,No,1,K-6,K-6,441.6804583796447
39685773933959,Active,No,Traditional,High School,Public,Linden High,Linden Unified,San Joaquin,18527 East Front Street,Linden,CA,No,1,9-12,9-12,439.47320875548957
15634040106575,Active,No,Traditional,Elementary,Public,Harvest Elementary,Delano Union Elementary,Kern,1320 Vassar Avenue,Delano,CA,Yes,2,K-5,K-5,434.4931325747927
15634040112185,Active,No,Traditional,Intermediate/Middle/Junior High,Public,La Vina Middle,Delano Union Elementary,Kern,1331 Browning Road,Delano,CA,Yes,2,6-8,5-8,434.4931325747927
50710436052443,Active,No,Traditional,Elementary,Public,Don Pedro Elementary,Ceres Unified,Stanislaus,2300 Don Pedro Road,Ceres,CA,No,1,K-6,K-6,423.9269481143504
27661420108068,Active,No,Traditional,Elementary,Public,Boronda Meadows,Salinas City Elementary,Monterey,915 Larkin Street,Salinas,CA,No,1,K-6,K-6,417.1228227633299
27738256026397,Active,No,Traditional,Elementary,Public,Castroville Elementary,North Monterey County Unified,Monterey,11161 Merritt Street,Castroville,CA,No,1,K-6,K-6,411.74226397169133
10624146007108,Active,No,Traditional,Elementary,Public,Centerville Elementary,Sanger Unified,Fresno,48 South Smith Avenue,Sanger,CA,No,1,K-6,K-6,404.3561392219275
44697990105858,Active,No,Traditional,High School,Public,Pajaro Valley High,Pajaro Valley Unified,Santa Cruz,500 Harkins Slough Road,Watsonville,CA,No,1,9-12,9-12,378.3918481676337
54718605433230,Active,No,Traditional,High School,Public,Orosi High,Cutler-Orosi Joint Unified,Tulare,41815 Road 128,Orosi,CA,No,1,9-12,9-12,375.19887693095654
50712666106934,Active,No,Traditional,Elementary,Public,Sisk Elementary,Salida Union Elementary,Stanislaus,5337 Sugar Creek Lane,Salida,CA,No,1,K-5,K-5,372.62723463963675
10622406108328,Active,Yes,Traditional,Intermediate/Middle/Junior High,Public,Rafer Johnson Junior High,Kingsburg Elementary Charter,Fresno,1300 Stroud Avenue,Kingsburg,CA,No,1,7-8,7-8,372.55613704818217
51105120114207,Active,No,County Community School,Intermediate/Middle/Junior High - High Combination,Public,Feather River Academy,Sutter County Office of Education,Sutter,1895 Lassen Boulevard,Yuba City,CA,Yes,3,7-12,8-12,368.45495474927884
51105126069454,Active,No,Special Education School,Elementary - High Combination,Public,Sutter County Special Education,Sutter County Office of Education,Sutter,970 Klamath Lane,Yuba City,CA,Yes,3,K-12,K-12,368.45495474927884
51746335190012,Active,No,Regional Occupational Center/Program,High School,Public,Tri-County ROP,Tri-County ROP,Sutter,970 Klamath Lane,Yuba City,CA,Yes,3,9-12,No Data,368.45495474927884
10621170139766,Active,No,Traditional,Elementary,Public,Janet L. Young Elementary,Clovis Unified,Fresno,3140 North Locan Avenue,Fresno,CA,No,1,K-6,No Data,367.27426295317383
10622400113142,Active,Yes,Traditional,Elementary,Public,Ronald W. Reagan Elementary,Kingsburg Elementary Charter,Fresno,1180 Diane Avenue,Kingsburg,CA,No,1,4-6,4-6,364.1806892440457
24656310126771,Active,No,Traditional,Intermediate/Middle/Junior High,Public,Bellevue Senior Elementary,Atwater Elementary,Merced,1020 East Bellevue Road,Atwater,CA,Yes,2,7-8,7-8,361.5356681557539
24656316025324,Active,No,Traditional,Elementary,Public,Bellevue Elementary,Atwater Elementary,Merced,1020 East Bellevue Road,Atwater,CA,Yes,2,K-6,K-6,361.5356681557539
10624306007256,Active,No,Traditional,Elementary,Public,Eric White Elementary,Selma Unified,Fresno,2001 Mitchell,Selma,CA,No,1,K-6,K-6,355.9932316577397
52714726053466,Active,No,Traditional,Elementary,Public,Antelope Elementary,Antelope Elementary,Tehama,22630 Antelope Boulevard,Red Bluff,CA,No,1,K-5,K-5,349.28378060607486
44697996049662,Active,No,Traditional,Elementary,Public,Bradley Elementary,Pajaro Valley Unified,Santa Cruz,321 Corralitos Road,Watsonville,CA,No,1,K-6,K-6,344.40530841451414
44697994430229,Active,Yes,Traditional,Elementary - High Combination,Public,Pacific Coast Charter,Pajaro Valley Unified,Santa Cruz,294 Green Valley Road,Watsonville,CA,No,1,K-12,1-12,339.05084876536057
54753255430210,Active,No,Traditional,High School,Public,Farmersville High,Farmersville Unified,Tulare,631 East Walnut Avenue,Farmersville,CA,No,1,9-12,9-12,331.38726319690693
16639906110233,Active,Yes,Traditional,Intermediate/Middle/Junior High,Public,Pioneer Middle,Pioneer Union Elementary,Kings,101 West Pioneer Way,Hanford,CA,No,1,6-8,6-8,321.3129515631178
10739656006662,Active,No,Traditional,Elementary - Intermediate/Middle/Junior High Combination,Public,Houghton-Kearney Elementary,Central Unified,Fresno,8905 West Kearney Boulevard,Fresno,CA,No,1,K-8,K-8,318.99389531000554
50755565036850,Active,No,Traditional,High School,Public,Riverbank High,Riverbank Unified,Stanislaus,6200 Claus Road,Riverbank,CA,No,1,9-12,9-12,316.79137279430637
15638346010227,Active,No,Traditional,Intermediate/Middle/Junior High,Public,Sunset,Vineland Elementary,Kern,14713 Weedpatch Highway,Bakersfield,CA,No,1,5-8,5-8,312.3477651202106
50712820105700,Active,No,Traditional,Elementary,Public,Mary Lou Dieterich Elementary,Stanislaus Union Elementary,Stanislaus,2412 Warm Springs Drive,Modesto,CA,No,1,K-6,K-6,307.43339450259344
50755720117770,Active,No,Traditional,Elementary,Public,Lucille Whitehead Intermediate,Waterford Unified,Stanislaus,119 North Reinway Avenue,Waterford,CA,Yes,2,4-6,4-6,297.45300283845125
50755720118513,Active,No,Traditional,Elementary,Public,Richard M. Moon Primary,Waterford Unified,Stanislaus,319 North Reinway Avenue,Waterford,CA,Yes,2,K-3,K-3,297.45300283845125
54755230116590,Active,Yes,Traditional,High School,Public,Harmony Magnet Academy,Porterville Unified,Tulare,19429 Road 228,Strathmore,CA,Yes,2,9-12,9-12,291.7648143117039
54755235434931,Active,No,Traditional,High School,Public,Strathmore High,Porterville Unified,Tulare,22568 Avenue 196,Strathmore,CA,Yes,2,9-12,9-12,291.7648143117039
50711346052591,Active,No,Traditional,Elementary,Public,Keyes Elementary,Keyes Union,Stanislaus,4400 Maud Avenue,Keyes,CA,Yes,2,K-5,K-5,275.3368729027811
50711346113286,Active,Yes,Traditional,Elementary - High Combination,Public,Keyes to Learning Charter,Keyes Union,Stanislaus,5709 Ninth Street,Keyes,CA,Yes,2,K-12,K-12,275.3368729027811
27738252730125,Active,No,Alternative School of Choice,Elementary - High Combination,Public,North Monterey County Center for Independent Study,North Monterey County Unified,Monterey,17500 Pesante Road,Salinas,CA,Yes,2,K-12,K-12,269.9073133375157
27738252730141,Active,No,Continuation School,High School,Public,Central Bay High (Continuation),North Monterey County Unified,Monterey,17500 Pesante Road,Salinas,CA,Yes,2,9-12,10-12,269.9073133375157
10623316007009,Active,No,Traditional,Elementary - Intermediate/Middle/Junior High Combination,Public,Orange Center Elementary,Orange Center,Fresno,3530 South Cherry Avenue,Fresno,CA,No,1,K-8,K-8,268.14595668716527
10624146007181,Active,No,Traditional,Elementary,Public,Madison Elementary,Sanger Unified,Fresno,2324 Cherry Street,Sanger,CA,No,1,P-6,K-6,264.03768174290667
39686506106322,Active,No,Traditional,Elementary - Intermediate/Middle/Junior High Combination,Public,Weston Elementary,Ripon Unified,San Joaquin,1660 Stanley Drive,Ripon,CA,No,1,K-8,K-8,258.7104340330981
54105466119291,Active,Yes,Traditional,Elementary - High Combination,Public,Eleanor Roosevelt Community Learning Center,Tulare County Office of Education,Tulare,31191 Road 180,Visalia,CA,No,1,K-12,K-12,255.78002889455217
10622650108092,Active,No,Traditional,High School,Public,Orange Cove High,Kings Canyon Joint Unified,Fresno,1700 Anchor Avenue,Orange Cove,CA,Yes,2,9-12,9-12,250.28491229466047
10622656006746,Active,No,Traditional,Intermediate/Middle/Junior High,Public,Citrus Middle,Kings Canyon Joint Unified,Fresno,1400 Anchor Avenue,Orange Cove,CA,Yes,2,6-8,6-8,250.28491229466047
42692036045520,Active,No,Traditional,Intermediate/Middle/Junior High,Public,Kermit McKenzie Intermediate,Guadalupe Union Elementary,Santa Barbara,4710 West Main Street,Guadalupe,CA,No,1,4-8,5-8,237.13011127782283
44697996049670,Active,No,Traditional,Elementary,Public,Calabasas Elementary,Pajaro Valley Unified,Santa Cruz,202 Calabasas Road,Watsonville,CA,No,1,K-6,K-6,235.76036705032254
56725465630066,Active,No,Continuation School,High School,Public,Frontier High,Oxnard Union High,Ventura,545 Airport Way,Camarillo,CA,No,1,9-12,10-12,231.5304780904925
51713995130059,Active,No,Continuation School,High School,Public,Valley Oak Continuation High,Live Oak Unified,Sutter,2207 Pennington Road,Live Oak,CA,Yes,2,9-12,11-12,227.63834635322587
51713995130067,Active,No,Alternative School of Choice,Intermediate/Middle/Junior High - High Combination,Public,Live Oak Alternative,Live Oak Unified,Sutter,2207 Pennington Road,Live Oak,CA,Yes,2,K-12,7-12,227.63834635322587
27661592730109,Active,No,Traditional,High School,Public,Alisal High,Salinas Union High,Monterey,777 Williams Road,Salinas,CA,No,1,9-12,9-12,225.49737827495102
54722490133793,Active,Yes,Traditional,High School,Public,Accelerated Charter High,Tulare Joint Union High,Tulare,4136 North Mooney Boulevard,Tulare,CA,No,1,9-12,11-12,214.88691999181077
51714646067268,Active,No,Traditional,Elementary - Intermediate/Middle/Junior High Combination,Public,Butte Vista Elementary,Yuba City Unified,Sutter,2195 Blevin Road,Yuba City,CA,No,1,K-8,K-8,205.25428946993372
56105610135780,Active,No,Special Education School,Elementary - High Combination,Public,Phoenix,Ventura County Office of Education,Ventura,500 Airport Way,Camarillo,CA,Yes,4,K-12,1-12,196.74727958829675
56105615630397,Active,No,County Community School,Intermediate/Middle/Junior High - High Combination,Public,Gateway Community,Ventura County Office of Education,Ventura,200 Horizon Circle,Camarillo,CA,Yes,4,6-12,7-12,196.74727958829675
56725460120634,Active,Yes,Traditional,High School,Public,"Architecture, Construction & Engineering Charter High (ACE)",Oxnard Union High,Ventura,570 Airport Way,Camarillo,CA,Yes,4,9-12,9-12,196.74727958829675
56746175690011,Active,No,Regional Occupational Center/Program,High School,Public,Career Education Center,Ventura County ROP,Ventura,465 Horizon Circle,Camarillo,CA,Yes,4,6-12,No Data,196.74727958829675
54722566054563,Active,No,Traditional,Elementary,Public,Elbow Creek Elementary,Visalia Unified,Tulare,32747 Road 138,Visalia,CA,No,1,P-6,K-6,192.36305340515187
10621176120091,Active,No,Traditional,Elementary,Public,Freedom Elementary,Clovis Unified,Fresno,2955 Gettysburg Avenue,Clovis,CA,No,1,K-6,K-6,165.23845276015678
44697994437901,Active,No,Traditional,High School,Public,Watsonville High,Pajaro Valley Unified,Santa Cruz,250 East Beach Street,Watsonville,CA,No,1,9-12,9-12,164.9186089772713
20652436112973,Active,No,Traditional,Intermediate/Middle/Junior High,Public,Martin Luther King Jr. Middle,Madera Unified,Madera,601 Lilly Street,Madera,CA,No,1,7-8,7-8,154.522500634302
42692036045512,Active,No,Traditional,Elementary,Public,Mary Buren Elementary,Guadalupe Union Elementary,Santa Barbara,1050 Peralta Street,Guadalupe,CA,No,1,P-4,K-4,148.4742870872571
50757395030283,Active,No,Traditional,High School,Public,John H. Pitman High,Turlock Unified,Stanislaus,2525 West Christoffersen Parkway,Turlock,CA,No,1,9-12,9-12,137.143978465458
50755560112573,Active,No,Continuation School,High School,Public,Adelante High,Riverbank Unified,Stanislaus,6801 Seventh Street,Riverbank,CA,Yes,2,10-12,10-12,132.04786114331037
50755566052989,Active,No,Traditional,Intermediate/Middle/Junior High,Public,Cardozo Middle,Riverbank Unified,Stanislaus,3525 Santa Fe Street,Riverbank,CA,Yes,2,6-8,6-8,132.04786114331037
10621666103840,Active,No,Traditional,Intermediate/Middle/Junior High,Public,Edison Computech,Fresno Unified,Fresno,555 East Belgravia,Fresno,CA,No,1,7-8,7-8,127.37874003228563
54722560101857,Active,No,Traditional,Elementary - Intermediate/Middle/Junior High Combination,Public,Oak Grove Elementary,Visalia Unified,Tulare,4445 West Ferguson Avenue,Visalia,CA,No,1,K-8,K-8,124.16009672244557
39686766042550,Active,No,Traditional,Elementary - Intermediate/Middle/Junior High Combination,Public,Elmwood Elementary,Stockton Unified,San Joaquin,840 South Cardinal Avenue,Stockton,CA,No,1,K-8,K-8,121.48178657768436
42691200131623,Active,No,Traditional,Elementary,Public,Jimnez Roberto and Dr. Francisco Elementary,Santa Maria-Bonita,Santa Barbara,1970 South Biscayne Street,Santa Maria,CA,No,1,K-7,K-6,106.29792971606196
58727360131599,Active,No,Community Day School,Intermediate/Middle/Junior High,Public,Marysville Community Day,Marysville Joint Unified,Yuba,1919 B Street,Marysville,CA,Yes,3,7-12,9-10,104.03024632256191
58727365830138,Active,Yes,Traditional,Intermediate/Middle/Junior High - High Combination,Public,Marysville Charter Academy for the Arts,Marysville Joint Unified,Yuba,1917 B Street,Marysville,CA,Yes,3,7-12,7-12,104.03024632256191
58727365835202,Active,No,Traditional,High School,Public,Marysville High,Marysville Joint Unified,Yuba,12 East 18th Street,Marysville,CA,Yes,3,9-12,9-12,104.03024632256191
54722560116517,Active,No,Traditional,Elementary,Public,Manuel F. Hernandez,Visalia Unified,Tulare,2133 North Leila Street,Visalia,CA,No,1,P-6,K-6,102.44635045681656
50711750110593,Active,No,Traditional,High School,Public,James C. Enochs High,Modesto City High,Stanislaus,3201 Sylvan Avenue,Modesto,CA,No,1,9-12,9-12,97.09960445033644
39685856042121,Active,No,Traditional,Elementary - Intermediate/Middle/Junior High Combination,Public,Houston,Lodi Unified,San Joaquin,4600 East Acampo Road,Acampo,CA,No,1,K-8,K-8,92.5782063709452
51105120138040,Active,Yes,Traditional,Intermediate/Middle/Junior High,Public,AeroSTEM Academy,Sutter County Office of Education,Sutter,82 Second Street,Yuba City,CA,No,1,6-12,6-10,87.68531049961469
44104470136572,Active,Yes,Traditional,High School,Public,Santa Cruz County Career Advancement Charter,Santa Cruz County Office of Education,Santa Cruz,229 Green Valley Road,Freedom,CA,No,1,12,12,79.55592933584916
54719446054092,Active,No,Traditional,Elementary - Intermediate/Middle/Junior High Combination,Public,Hope Elementary,Hope Elementary,Tulare,613 West Teapot Dome Avenue,Porterville,CA,No,1,K-8,K-8,69.46184464161276
20652430135079,Active,No,Traditional,Elementary,Public,Virginia Lee Rose Elementary,Madera Unified,Madera,1001 Lilly Street,Madera,CA,No,1,K-6,K-6,69.01266144796801
11765626007447,Active,No,Traditional,Elementary - Intermediate/Middle/Junior High Combination,Public,Hamilton Elementary,Hamilton Unified,Glenn,277 Capay Avenue,Hamilton City,CA,No,1,K-8,K-8,65.41100634968821
33672156032577,Active,No,Traditional,Elementary,Public,Emerson Elementary,Riverside Unified,Riverside,4660 Ottawa Avenue,Riverside,CA,No,1,P-6,K-6,62.85032346189664
54755316054001,Active,No,Traditional,Elementary,Public,Wilson Elementary,Dinuba Unified,Tulare,305 East Kamm Avenue,Dinuba,CA,No,1,K-6,K-6,62.6361987957261
10622650126292,Active,Yes,Traditional,High School,Public,Reedley Middle College High,Kings Canyon Joint Unified,Fresno,995 North Reed Avenue,Reedley,CA,No,1,9-12,9-12,58.490959903192504
10621666088942,Active,No,Traditional,Elementary,Public,Sunset Elementary,Fresno Unified,Fresno,1755 South Crystal Avenue,Fresno,CA,No,1,K-6,K-6,47.93162857140531
56726526056105,Active,No,Traditional,Elementary,Public,Junipero Serra Elementary,Ventura Unified,Ventura,8880 Halifax Street,Ventura,CA,No,1,K-5,K-5,47.803438984339806
54753255430277,Active,No,Continuation School,High School,Public,Deep Creek Academy,Farmersville Unified,Tulare,281 South Farmersville Boulevard,Farmersville,CA,Yes,2,9-12,10-12,46.86299548470703
54753256054076,Active,No,Traditional,Elementary,Public,George L. Snowden Elementary,Farmersville Unified,Tulare,301 South Farmersville Boulevard,Farmersville,CA,Yes,2,2-3,2-3,46.86299548470703
51714645130018,Active,No,Continuation School,High School,Public,Albert Powell Continuation,Yuba City Unified,Sutter,1875 Clark Avenue,Yuba City,CA,No,1,10-12,10-12,46.78894043349165
10621581032150,Active,No,Traditional,High School,Public,Fowler High,Fowler Unified,Fresno,701 East Main Street,Fowler,CA,No,1,9-12,9-12,46.77292962511632
27738256026447,Active,No,Traditional,Elementary,Public,Prunedale Elementary,North Monterey County Unified,Monterey,17719 Pesante Road,Salinas,CA,No,1,K-6,K-6,42.35713157239496
10624146007215,Active,No,Traditional,Elementary,Public,Wilson Elementary,Sanger Unified,Fresno,610 Faller Street,Sanger,CA,No,1,P-6,K-6,40.939378679701484
39685856108856,Active,No,Traditional,Elementary,Public,Beckman Elementary,Lodi Unified,San Joaquin,2201 Scarborough Drive,Lodi,CA,No,1,P-6,K-6,40.492492590028554
10767781030774,Active,Yes,Traditional,Elementary - High Combination,Public,W.E.B. DuBois Public Charter,Washington Unified,Fresno,2604 Martin Luther King Boulevard,Fresno,CA,No,1,K-12,K-12,36.78281252348902
04614240110551,Active,Yes,Traditional,Elementary - Intermediate/Middle/Junior High Combination,Public,Nord Country,Chico Unified,Butte,5554 California Street,Chico,CA,No,1,K-8,K-8,32.606841282166876
39685936042311,Active,No,Traditional,Elementary - Intermediate/Middle/Junior High Combination,Public,French Camp Elementary,Manteca Unified,San Joaquin,241 East Fourth Street,French Camp,CA,No,1,K-8,K-8,28.610860159221122
54718606053938,Active,No,Traditional,Elementary,Public,Palm Elementary,Cutler-Orosi Joint Unified,Tulare,12915 Avenue 419,Orosi,CA,No,1,K-5,K-5,26.43654427834641
43694846047336,Active,No,Traditional,Elementary,Public,Rucker Elementary,Gilroy Unified,Santa Clara,325 Santa Clara Avenue,Gilroy,CA,No,1,K-5,K-5,22.803876814439388
35752596035117,Active,No,Traditional,Elementary - Intermediate/Middle/Junior High Combination,Public,San Juan,Aromas - San Juan Unified,San Benito,100 Nyland Drive,San Juan Bautista,CA,No,1,K-8,K-8,21.75175375194661
40687596109342,Active,No,Traditional,Intermediate/Middle/Junior High,Public,Mesa Middle,Lucia Mar Unified,San Luis Obispo,2555 Halcyon Road,Arroyo Grande,CA,No,1,7-8,6-8,21.338726891243667
40687596043095,Active,No,Traditional,Elementary,Public,Oceano Elementary,Lucia Mar Unified,San Luis Obispo,1551 17th Street,Oceano,CA,No,1,K-6,K-6,20.361007638221267
20652430110965,Active,No,Traditional,High School,Public,Madera South High,Madera Unified,Madera,755 West Pecan Avenue,Madera,CA,Yes,3,9-12,9-12,17.987661464170426
20652432035640,Active,No,Alternative School of Choice,High School,Public,Furman (Duane E.) High (Independent Study Program),Madera Unified,Madera,955 West Pecan Avenue,Madera,CA,Yes,3,K-12,9-12,17.987661464170426
20652436107122,Active,No,Traditional,Elementary,Public,Alpha Elementary,Madera Unified,Madera,900 Stadium Road,Madera,CA,Yes,3,K-6,K-6,17.98690942188635
10622816006894,Active,No,Traditional,Intermediate/Middle/Junior High,Public,Laton Middle,Laton Joint Unified,Fresno,6065 East Latonia,Laton,CA,Yes,2,6-8,6-8,17.737763277730167
10622816006902,Active,No,Traditional,Elementary,Public,Laton Elementary,Laton Joint Unified,Fresno,6065 Latonia,Laton,CA,Yes,2,K-5,K-5,17.737763277730167
58727366056667,Active,No,Traditional,Elementary,Public,Cordua Elementary,Marysville Joint Unified,Yuba,2830 Highway 20,Marysville,CA,No,1,K-5,K-5,17.282320038509102
39686763932654,Active,No,Traditional,Intermediate/Middle/Junior High - High Combination,Public,Franklin High,Stockton Unified,San Joaquin,4600 East Fremont Street,Stockton,CA,No,1,6-12,6-12,16.993267621932688
50757396053136,Active,No,Traditional,Intermediate/Middle/Junior High,Public,Turlock Junior High,Turlock Unified,Stanislaus,3951 North Walnut Road,Turlock,CA,No,1,7-8,6-8,15.769374627056902
10621176005847,Active,No,Traditional,Elementary,Public,Cole Elementary,Clovis Unified,Fresno,615 West Stuart Avenue,Clovis,CA,No,1,K-6,K-6,14.875626832935048
10621660114553,Active,Yes,Traditional,High School,Public,University High,Fresno Unified,Fresno,2611 East Matoian M/S UH134,Fresno,CA,No,1,9-12,9-12,12.285012957019026
39686760115303,Active,No,Traditional,Elementary - Intermediate/Middle/Junior High Combination,Public,Valentine Peyton Elementary,Stockton Unified,San Joaquin,2525 Gold Brook Drive,Stockton,CA,No,1,K-8,K-8,7.555734133397905
10767780108993,Active,No,Community Day School,High School,Public,Easton Community Day,Washington Unified,Fresno,5865 South Clara Avenue,Fresno,CA,Yes,3,9-12,9-11,5.275498683838795
10767780122473,Active,No,Alternative School of Choice,High School,Public,Elm High,Washington Unified,Fresno,5865 South Clara Avenue,Fresno,CA,Yes,3,9-12,9-12,5.275498683838795
10767781038298,Active,No,Continuation School,High School,Public,Easton Continuation High,Washington Unified,Fresno,5865 South Clara Avenue,Fresno,CA,Yes,3,9-12,11-12,5.275498683838795
15635291530252,Active,No,Traditional,High School,Public,Arvin High,Kern High,Kern,900 Varsity Road,Arvin,CA,No,1,9-12,9-12,5.120037828037229
10622811033950,Active,No,Traditional,High School,Public,Laton High,Laton Joint Unified,Fresno,6449 DeWoody,Laton,CA,No,1,9-12,9-12,4.649088049407157
39685020126011,Active,Yes,Traditional,Elementary - High Combination,Public,Escalon Charter Academy,Escalon Unified,San Joaquin,1520 Yosemite Avenue,Escalon,CA,Yes,3,K-12,K-12,4.1229054782923455
39685023930054,Active,No,Continuation School,High School,Public,Vista High (Continuation),Escalon Unified,San Joaquin,1520 Yosemite Avenue,Escalon,CA,Yes,3,9-12,11-12,4.1229054782923455
39685023932308,Active,No,Traditional,High School,Public,Escalon High,Escalon Unified,San Joaquin,1528 East Yosemite Avenue,Escalon,CA,Yes,3,9-12,9-12,4.1229054782923455
42692296045587,Active,No,Traditional,Elementary,Public,Clarence Ruth Elementary,Lompoc Unified,Santa Barbara,501 North W Street,Lompoc,CA,No,1,K-6,K-6,4.101548396629284
54767945436282,Active,No,Traditional,High School,Public,Woodlake High,Woodlake Unified,Tulare,400 West Whitney Avenue,Woodlake,CA,Yes,2,9-12,9-12,2.457704739783405
54767946054761,Active,No,Traditional,Intermediate/Middle/Junior High,Public,Woodlake Valley Middle,Woodlake Unified,Tulare,497 North Palm Street,Woodlake,CA,Yes,2,6-8,6-8,2.457704739783405
54753250106021,Active,No,Traditional,Elementary,Public,Freedom Elementary,Farmersville Unified,Tulare,575 East Citrus,Farmersville,CA,No,1,4-6,4-6,2.4071499505681193
27659956026082,Active,No,Traditional,Elementary - Intermediate/Middle/Junior High Combination,Public,Chualar Elementary,Chualar Union,Monterey,24285 Lincoln Street,Chualar,CA,No,1,K-8,K-8,1.4568218498246794
40687596043079,Active,No,Traditional,Elementary,Public,Fairgrove Elementary,Lucia Mar Unified,San Luis Obispo,2101 The Pike,Grover Beach,CA,No,1,K-6,K-6,1.2502418204045878
54718606112684,Active,No,Traditional,Elementary,Public,Golden Valley Elementary,Cutler-Orosi Joint Unified,Tulare,41465 Road 127,Orosi,CA,No,1,K-5,K-5,0.876576949582434
54719020101303,Active,No,Community Day School,Intermediate/Middle/Junior High,Public,Earlimart Community Day,Earlimart Elementary,Tulare,599 East Sutter Avenue,Earlimart,CA,Yes,2,4-8,6-8,0.8159824822778184
54719026054035,Active,No,Traditional,Intermediate/Middle/Junior High,Public,Earlimart Middle,Earlimart Elementary,Tulare,599 South Sutter Street,Earlimart,CA,Yes,2,6-8,6-8,0.8159824822778184
42691200139824,Active,No,Traditional,Elementary,Public,Bill Libbon Elementary,Santa Maria-Bonita,Santa Barbara,750 Meehan Street,Santa Maria,CA,No,1,K-6,No Data,0.7381244510996557
54755310102707,Active,No,Traditional,Elementary,Public,John F. Kennedy Elementary,Dinuba Unified,Tulare,999 North Crawford,Dinuba,CA,Yes,2,K-6,K-6,0.7011855311652087
54755316053995,Active,No,Traditional,Intermediate/Middle/Junior High,Public,Washington Intermediate,Dinuba Unified,Tulare,1150 North Hayes Avenue,Dinuba,CA,Yes,2,7-8,7-8,0.7011855311652087
54722566054704,Active,No,Traditional,Elementary,Public,Annie R. Mitchell,Visalia Unified,Tulare,2121 East Laura Avenue,Visalia,CA,No,1,P-6,K-6,0.6774781353012702
50755490101030,Active,No,Traditional,Elementary,Public,Fox Road Elementary,Hughson Unified,Stanislaus,7600 Fox Road,Hughson,CA,Yes,2,4-5,4-5,0.5354759411933082
50755496052567,Active,No,Traditional,Intermediate/Middle/Junior High,Public,Emilie J. Ross Middle,Hughson Unified,Stanislaus,7448 Fox Road,Hughson,CA,Yes,2,6-8,6-8,0.5354759411933082
52714726066328,Active,No,Traditional,Intermediate/Middle/Junior High,Public,Berrendos Middle,Antelope Elementary,Tehama,401 Chestnut Avenue,Red Bluff,CA,No,1,6-8,6-8,0.37527740751421435
56726526097034,Active,No,Traditional,Elementary,Public,Portola Elementary,Ventura Unified,Ventura,6700 Eagle Street,Ventura,CA,No,1,K-5,K-5,0.1697500086831704
