cds_code,status,charter,ed_type,level,pb_prv_bie,school,district,county,street,city,state,stacked,stack_cnt,grades_offered,grades_served,pounds_13d_intersection
08618206005458,Active,No,Traditional,Elementary - Intermediate/Middle/Junior High Combination,Public,Smith River Elementary,Del Norte County Unified,Del Norte,134 First Street,Smith River,CA,No,1,K-8,K-8,230292.02531445512
56725465634761,Active,No,Traditional,High School,Public,Rio Mesa High,Oxnard Union High,Ventura,545 Central Avenue,Oxnard,CA,No,1,9-12,9-12,177551.62761000515
24656986025472,Active,No,Traditional,Elementary,Public,Merquin Elementary,Hilmar Unified,Merced,20316 West Third Avenue,Stevinson,CA,No,1,K-5,K-5,170627.82083354334
42691206045975,Active,No,Traditional,Elementary,Public,Arellanes (Don Juan Bautista) Elementary,Santa Maria-Bonita,Santa Barbara,1890 Sandalwood Drive,Santa Maria,CA,Yes,2,K-6,K-6,166511.73886603006
42691206119820,Active,No,Traditional,Intermediate/Middle/Junior High,Public,Arellanes Junior High,Santa Maria-Bonita,Santa Barbara,1890 Sandalwood Drive,Santa Maria,CA,Yes,2,7-8,7-8,166511.73886603006
27661916102925,Active,No,Traditional,Intermediate/Middle/Junior High,Public,Gavilan View Middle,Santa Rita Union Elementary,Monterey,18250 Vab Buren Avenue,Salinas,CA,No,1,6-8,6-8,156572.8020414843
27738252730034,Active,No,Traditional,High School,Public,North Monterey County High,North Monterey County Unified,Monterey,13990 Castroville Boulevard,Castroville,CA,No,1,9-12,9-12,151982.56985028353
27661910122911,Active,No,Traditional,Intermediate/Middle/Junior High,Public,Bolsa Knolls Middle,Santa Rita Union Elementary,Monterey,1031 Rogge Road,Salinas,CA,No,1,6-8,6-8,148825.0896135765
56105615630223,Active,No,Juvenile Court School,High School,Public,Providence,Ventura County Office of Education,Ventura,4333 Vineyard Avenue,Oxnard,CA,No,1,K-12,9-12,143756.22188820943
27661916026652,Active,No,Traditional,Elementary,Public,La Joya Elementary,Santa Rita Union Elementary,Monterey,55 Rogge Road,Salinas,CA,No,1,K-5,K-5,136828.82781574538
50757396053169,Active,No,Traditional,Elementary,Public,Cunningham Elementary,Turlock Unified,Stanislaus,324 West Linwood Avenue,Turlock,CA,No,1,K-6,K-6,135254.91157592807
27661590136697,Active,No,Traditional,High School,Public,Rancho San Juan High,Salinas Union High,Monterey,1100 Rogge Road,Salinas,CA,No,1,9-12,9-12,130676.24777255527
56725386100333,Active,No,Traditional,Elementary - Intermediate/Middle/Junior High Combination,Public,Lemonwood Elementary,Oxnard,Ventura,2001 San Mateo Place,Oxnard,CA,No,1,K-8,K-8,123476.09428233276
15637686010037,Active,No,Traditional,Elementary - Intermediate/Middle/Junior High Combination,Public,Semitropic Elementary,Semitropic Elementary,Kern,25300 Highway 46,Wasco,CA,No,1,K-8,K-8,122686.10559586347
50711750121129,Active,No,Traditional,High School,Public,Joseph A. Gregori High,Modesto City High,Stanislaus,3701 Pirrone Road,Modesto,CA,No,1,9-12,9-12,113795.74880760054
42693100102285,Active,No,Traditional,High School,Public,Pioneer Valley High,Santa Maria Joint Union High,Santa Barbara,675 Panther Drive,Santa Maria,CA,No,1,9-12,9-12,110614.00068366433
42691206045272,Active,No,Traditional,Elementary,Public,Bonita Elementary,Santa Maria-Bonita,Santa Barbara,2715 West Main Street,Santa Maria,CA,No,1,K-6,K-6,108775.4747643152
24753666025407,Active,No,Traditional,Elementary,Public,El Capitan Elementary,Delhi Unified,Merced,10115 Fifth Street,Delhi,CA,No,1,K-6,K-6,107843.97813487785
44697996108138,Active,No,Traditional,Elementary,Public,Ohlone Elementary,Pajaro Valley Unified,Monterey,21 Bay Farms Road,Watsonville,CA,No,1,K-5,K-5,105433.42844943445
56725616055511,Active,No,Traditional,Elementary,Public,Rio Plaza Elementary,Rio Elementary,Ventura,600 Simon Way,Oxnard,CA,No,1,K-5,K-5,105216.70916980406
56725386055370,Active,No,Traditional,Elementary,Public,Rose Avenue Elementary,Oxnard,Ventura,220 South Driskill Street,Oxnard,CA,No,1,K-5,K-5,102057.47722014648
27661916026660,Active,No,Traditional,Elementary,Public,Santa Rita Elementary,Santa Rita Union Elementary,Monterey,2014 South Santa Rita Street,Salinas,CA,No,1,K-5,K-5,100382.5161834025
52715636053557,Active,No,Traditional,Elementary - Intermediate/Middle/Junior High Combination,Public,Lassen View Elementary,Lassen View Union Elementary,Tehama,10818 Highway 99-E,Los Molinos,CA,No,1,K-8,K-8,99136.31529668262
44697996049753,Active,No,Traditional,Intermediate/Middle/Junior High,Public,Pajaro Middle,Pajaro Valley Unified,Monterey,250 Salinas Road,Watsonville,CA,No,1,6-8,6-8,98640.89384954511
56725120118265,Active,No,Traditional,Elementary,Public,Ocean View Early Education,Ocean View,Ventura,4600 Olds Road,Oxnard,CA,Yes,3,P,K,96578.1312784069
56725126055172,Active,No,Traditional,Elementary,Public,Mar Vista Elementary,Ocean View,Ventura,2382 Etting Road,Oxnard,CA,Yes,3,K-5,K-5,96578.1312784069
56725126084891,Active,No,Traditional,Intermediate/Middle/Junior High,Public,Ocean View Junior High,Ocean View,Ventura,4300 Olds Road,Oxnard,CA,Yes,3,6-8,6-8,96578.1312784069
24102496068498,Active,No,Special Education School,Elementary - High Combination,Public,Floyd A. Schelby,Merced County Office of Education,Merced,6738 North Sultana Drive,Livingston,CA,No,1,P-12,K-12,93588.58197962995
24102492430171,Active,No,County Community School,Intermediate/Middle/Junior High - High Combination,Public,Valley Atwater Community,Merced County Office of Education,Merced,1800 Matthew Avenue,Atwater,CA,No,1,6-12,7-12,93109.62221278899
39686506109284,Active,No,Traditional,Elementary - Intermediate/Middle/Junior High Combination,Public,Colony Oak Elementary,Ripon Unified,San Joaquin,22241 South Murphy Road,Ripon,CA,No,1,K-8,K-8,92383.85177837976
50710926052542,Active,No,Traditional,Elementary - Intermediate/Middle/Junior High Combination,Public,Hart-Ransom Elementary,Hart-Ransom Union Elementary,Stanislaus,3930 Shoemake Avenue,Modesto,CA,No,1,K-8,K-8,91388.36947917985
24737266025803,Active,No,Traditional,Elementary - Intermediate/Middle/Junior High Combination,Public,Washington Elementary,Merced River Union Elementary,Merced,4402 West Oakdale Road,Winton,CA,No,1,P-8,K-8,91234.73392180684
39685770118307,Active,No,Continuation School,High School,Public,Pride Continuation,Linden Unified,San Joaquin,100 North Jack Tone Road,Stockton,CA,No,1,9-12,10-12,90082.75103402422
27661592730166,Active,No,Traditional,High School,Public,Everett Alvarez High,Salinas Union High,Monterey,1900 Independence Boulevard,Salinas,CA,No,1,9-12,9-12,88580.29203422353
50736016025712,Active,No,Traditional,Elementary,Public,Bonita Elementary,Newman-Crows Landing Unified,Stanislaus,425 Fink Road,Crows Landing,CA,No,1,K-5,K-5,86559.37195443005
50712660124768,Active,Yes,Traditional,Elementary - Intermediate/Middle/Junior High Combination,Public,Great Valley Academy - Salida,Salida Union Elementary,Stanislaus,5901 Sisk Road,Modesto,CA,No,1,K-8,K-8,85678.89358298756
40687590110486,Active,No,Traditional,Elementary,Public,Lange (Dorothea) Elementary,Lucia Mar Unified,San Luis Obispo,1661 Via Alta Mesa,Nipomo,CA,No,1,K-6,K-6,84773.49792229076
24753660131862,Active,No,Traditional,Intermediate/Middle/Junior High,Public,Delhi Middle,Delhi Unified,Merced,16881 West Schendel Avenue,Delhi,CA,Yes,2,7-8,7-8,80981.12009964985
24753662430114,Active,No,Traditional,High School,Public,Delhi High,Delhi Unified,Merced,16881 West Schendel Avenue,Delhi,CA,Yes,2,9-12,9-12,80981.12009964985
39686500108035,Active,No,Traditional,Elementary - Intermediate/Middle/Junior High Combination,Public,Park View Elementary,Ripon Unified,San Joaquin,751 Cindy Drive,Ripon,CA,No,1,K-8,K-8,79742.61706910377
50757395036884,Active,No,Continuation School,High School,Public,Roselawn High,Turlock Unified,Stanislaus,312 South Roselawn,Turlock,CA,No,1,9-12,11-12,79500.22074302769
50712826053078,Active,No,Traditional,Elementary,Public,Stanislaus Elementary,Stanislaus Union Elementary,Stanislaus,1931 Kiernan Avenue,Modesto,CA,No,1,K-6,K-6,78566.81486719215
56725610112631,Active,No,Traditional,Elementary,Public,Rio Del Mar,Rio Elementary,Ventura,3150 Thames River,Oxnard,CA,No,1,K-5,K-5,76531.29428075781
50710436052468,Active,No,Traditional,Elementary,Public,Westport Elementary,Ceres Unified,Stanislaus,5218 South Carpenter,Modesto,CA,No,1,K-6,K-6,75780.82691681475
54722236054449,Active,No,Traditional,Elementary - Intermediate/Middle/Junior High Combination,Public,Traver Elementary,Traver Joint Elementary,Tulare,36736 Canal Drive,Traver,CA,No,1,K-8,K-8,71039.97534743241
50711346119002,Active,No,Traditional,Intermediate/Middle/Junior High,Public,Barbara Spratling Middle,Keyes Union,Stanislaus,5277 Washington Road,Hughson,CA,No,1,6-8,6-8,70145.33490587109
24656316113161,Active,No,Traditional,Elementary - Intermediate/Middle/Junior High Combination,Public,Peggy Heller Elementary,Atwater Elementary,Merced,201 Lake View Drive,Atwater,CA,No,1,K-8,K-8,69285.59220272211
10739656005789,Active,No,Traditional,Elementary,Public,Biola-Pershing Elementary,Central Unified,Fresno,4885 North Biola Avenue,Fresno,CA,No,1,K-6,K-6,69275.73375179394
27659610127456,Active,No,Traditional,Elementary,Public,Monte Bella Elementary,Alisal Union,Monterey,1300 Tuscany Boulevard,Salinas,CA,No,1,K-6,K-6,68716.5208131183
56725380119412,Active,No,Traditional,Elementary - Intermediate/Middle/Junior High Combination,Public,Juan Lagunas Soria Elementary,Oxnard,Ventura,3101 Dunkirk Drive,Oxnard,CA,No,1,K-8,K-8,68235.23571785704
24753666025415,Active,No,Traditional,Elementary,Public,Schendel Elementary,Delhi Unified,Merced,16114 Schendel Avenue,Delhi,CA,No,1,P-6,K-6,67413.02407874957
44697996117253,Active,No,Traditional,Elementary,Public,Ann Soldo Elementary,Pajaro Valley Unified,Santa Cruz,1140 Menasco Drive,Watsonville,CA,No,1,K-5,K-5,67233.3719063672
37684520118430,Active,No,Alternative School of Choice,High School,Public,Mission Vista High,Vista Unified,San Diego,1306 Melrose Drive,Oceanside,CA,No,1,9-12,9-12,66790.5528980466
51714230132977,Active,Yes,Traditional,Elementary - High Combination,Public,Sutter Peak Charter Academy,Nuestro Elementary,Sutter,3934 Broadway Road,Live Oak,CA,Yes,2,K-12,K-12,66628.23030794684
51714236053318,Active,No,Traditional,Elementary - Intermediate/Middle/Junior High Combination,Public,Nuestro Elementary,Nuestro Elementary,Sutter,3934 Broadway Road,Live Oak,CA,Yes,2,K-8,K-8,66628.23030794684
33736766032361,Active,No,Traditional,Elementary,Public,Oasis Elementary,Coachella Valley Unified,Riverside,88175 74th Avenue,Thermal,CA,No,1,K-6,K-6,65074.41335056259
24657636025589,Active,No,Traditional,Elementary - Intermediate/Middle/Junior High Combination,Public,McSwain Elementary,McSwain Union Elementary,Merced,922 Scott Road,Merced,CA,No,1,K-8,K-8,62706.338047553894
56725465634548,Active,No,Traditional,High School,Public,Oxnard High,Oxnard Union High,Ventura,3400 West Gonzales Road,Oxnard,CA,No,1,9-12,9-12,61691.31371363361
50710430129106,Active,No,Traditional,Elementary - Intermediate/Middle/Junior High Combination,Public,Patricia Kay Beaver Elementary,Ceres Unified,Stanislaus,4927 Central Avenue,Ceres,CA,No,1,K-8,K-8,61240.00038922776
24656496025381,Active,Yes,Traditional,Elementary - Intermediate/Middle/Junior High Combination,Public,Ballico-Cressey Community Charter,Ballico-Cressey Elementary,Merced,11818 Gregg Street,Ballico,CA,No,1,1-8,1-8,61022.2887556933
27659616109466,Active,No,Traditional,Elementary,Public,John E. Steinbeck Elementary,Alisal Union,Monterey,1714 Burlington Drive,Salinas,CA,No,1,K-6,K-6,60661.82673892034
10624306007322,Active,No,Traditional,Elementary,Public,Terry Elementary,Selma Unified,Fresno,12906 South Fowler Avenue,Selma,CA,No,1,K-6,K-6,60503.0894548932
40687596043012,Active,No,Traditional,Elementary,Public,Branch Elementary,Lucia Mar Unified,San Luis Obispo,970 School Road,Arroyo Grande,CA,No,1,K-6,K-6,60077.64263800182
39685026041834,Active,No,Traditional,Elementary,Public,Van Allen Elementary,Escalon Unified,San Joaquin,21051 East Highway 120,Escalon,CA,No,1,K-5,K-5,59966.029367026844
10622656006837,Active,No,Traditional,Elementary - Intermediate/Middle/Junior High Combination,Public,Riverview Elementary,Kings Canyon Joint Unified,Fresno,8662 South Lac Jac Avenue,Parlier,CA,No,1,K-8,K-8,59419.56524791445
24656982430080,Active,No,Continuation School,High School,Public,Irwin High (Continuation),Hilmar Unified,Merced,20384 Geer Avenue,Hilmar,CA,Yes,5,9-12,10-12,59259.07759883967
24656982430106,Active,No,Alternative School of Choice,High School,Public,Colony Basic Skills Alternative High,Hilmar Unified,Merced,20384 Geer Avenue,Hilmar,CA,Yes,5,9-12,11-12,59259.07759883967
24656982432409,Active,No,Traditional,High School,Public,Hilmar High,Hilmar Unified,Merced,7807 North Lander Avenue,Hilmar,CA,Yes,5,9-12,9-12,59259.07759883967
24656986025464,Active,No,Traditional,Elementary,Public,Elim Elementary,Hilmar Unified,Merced,7677 North Lander Avenue,Hilmar,CA,Yes,5,K-5,K-5,59259.07759883967
24656986109458,Active,No,Traditional,Intermediate/Middle/Junior High,Public,Hilmar Middle,Hilmar Unified,Merced,7528 North Scholar Way,Hilmar,CA,Yes,5,6-8,6-8,59259.07759883967
15636106009732,Active,No,Traditional,Elementary - Intermediate/Middle/Junior High Combination,Public,Maple Elementary,Maple Elementary,Kern,29161 Fresno Avenue,Shafter,CA,No,1,K-8,K-8,57596.607323145785
10623806007074,Active,No,Traditional,Elementary - Intermediate/Middle/Junior High Combination,Public,Raisin City Elementary,Raisin City Elementary,Fresno,6425 West Bowles Avenue,Raisin City,CA,No,1,K-8,K-8,57395.990021461854
39685933935111,Active,No,Continuation School,High School,Public,Calla High,Manteca Unified,San Joaquin,130 South Austin Road,Manteca,CA,No,1,9-12,11-12,56636.29111991227
56725616055495,Active,No,Traditional,Intermediate/Middle/Junior High,Public,Rio del Valle Middle,Rio Elementary,Ventura,3100 Rose Avenue,Oxnard,CA,No,1,6-8,6-8,55730.65272104428
24658700111294,Active,No,Traditional,Elementary,Public,Winfield Elementary,Winton,Merced,6981 Chestnut Lane,Winton,CA,No,1,K-5,K-5,55288.50137975833
56725460136804,Active,No,Alternative School of Choice,Intermediate/Middle/Junior High,Public,Oxnard Middle College High,Oxnard Union High,Ventura,4000 South Rose Avenue,Oxnard,CA,No,1,9-12,9-10,54900.2113220524
20652430123620,Active,No,Continuation School,High School,Public,Mountain Vista High,Madera Unified,Madera,1901 Clinton Avenue,Madera,CA,Yes,2,10-12,9-12,54527.734932097585
20652430129544,Active,No,Traditional,Elementary - Intermediate/Middle/Junior High Combination,Public,Eastin Arcola,Madera Unified,Madera,29551 Avenue 8,Madera,CA,Yes,2,K-8,K-8,54527.734932097585
50757396053193,Active,No,Traditional,Elementary,Public,Wakefield Elementary,Turlock Unified,Stanislaus,400 South Avenue,Turlock,CA,No,1,K-6,K-7,54488.70684390849
24656310126771,Active,No,Traditional,Intermediate/Middle/Junior High,Public,Bellevue Senior Elementary,Atwater Elementary,Merced,1020 East Bellevue Road,Atwater,CA,Yes,2,7-8,7-8,54262.192813308015
24656316025324,Active,No,Traditional,Elementary,Public,Bellevue Elementary,Atwater Elementary,Merced,1020 East Bellevue Road,Atwater,CA,Yes,2,K-6,K-6,54262.192813308015
27659616025985,Active,No,Traditional,Elementary,Public,Bardin Elementary,Alisal Union,Monterey,425 Bardin Road,Salinas,CA,No,1,K-6,K-6,54199.36515966085
50710506052492,Active,No,Traditional,Intermediate/Middle/Junior High,Public,Mountain View Middle,Chatom Union,Stanislaus,10001 Crows Landing Road,Turlock,CA,No,1,6-8,6-8,54141.226703892695
39685776041990,Active,No,Traditional,Intermediate/Middle/Junior High,Public,Waterloo Elementary,Linden Unified,San Joaquin,7007 North Pezzi Road,Stockton,CA,No,1,5-8,5-8,54055.717510940725
56725126055180,Active,No,Traditional,Elementary,Public,Tierra Vista Elementary,Ocean View,Ventura,2001 Sanford Street,Oxnard,CA,No,1,K-5,K-5,53494.13777556606
56725386110738,Active,No,Traditional,Elementary,Public,Emilie Ritchen Elementary,Oxnard,Ventura,2200 Cabrillo Way,Oxnard,CA,No,1,K-5,K-5,53434.23311845503
42691200139824,Active,No,Traditional,Elementary,Public,Bill Libbon Elementary,Santa Maria-Bonita,Santa Barbara,750 Meehan Street,Santa Maria,CA,No,1,K-6,No Data,53168.25988613719
56725610113977,Active,No,Traditional,Intermediate/Middle/Junior High,Public,Rio Vista Middle,Rio Elementary,Ventura,3050 Thames River Drive,Oxnard,CA,No,1,6-8,6-8,52962.057990090936
39685936042360,Active,No,Traditional,Elementary - Intermediate/Middle/Junior High Combination,Public,New Haven Elementary,Manteca Unified,San Joaquin,14600 South Austin Road,Manteca,CA,No,1,K-8,K-8,52903.375376678385
42691200102863,Active,No,Traditional,Elementary,Public,Liberty Elementary,Santa Maria-Bonita,Santa Barbara,1300 West Sonya Lane,Santa Maria,CA,No,1,K-6,K-6,52793.52223439517
24658706025837,Active,No,Traditional,Elementary,Public,Sybil N. Crookham Elementary,Winton,Merced,7160 West Walnut Avenue,Winton,CA,No,1,K-5,K-5,52652.534677369695
27659616115232,Active,No,Traditional,Elementary,Public,Creekside Elementary,Alisal Union,Monterey,1770 Kittery Street,Salinas,CA,No,1,K-6,K-6,51792.267791047045
42691126045264,Active,No,Traditional,Elementary - Intermediate/Middle/Junior High Combination,Public,Benjamin Foxen Elementary,Blochman Union Elementary,Santa Barbara,4949 Foxen Canyon Road,Santa Maria,CA,No,1,K-8,K-8,51665.06296869712
44697994437901,Active,No,Traditional,High School,Public,Watsonville High,Pajaro Valley Unified,Santa Cruz,250 East Beach Street,Watsonville,CA,No,1,9-12,9-12,51434.094304116676
44697996112841,Active,No,Traditional,Intermediate/Middle/Junior High,Public,Lakeview Middle,Pajaro Valley Unified,Santa Cruz,2350 East Lake Avenue,Watsonville,CA,No,1,6-8,6-8,51044.74325775135
10767786005748,Active,No,Traditional,Elementary - Intermediate/Middle/Junior High Combination,Public,American Union Elementary,Washington Unified,Fresno,2801 West Adams Avenue,Fresno,CA,No,1,K-8,K-8,50992.13691158539
24658706109425,Active,No,Traditional,Intermediate/Middle/Junior High,Public,Winton Middle,Winton,Merced,6300 North Cypress Avenue,Winton,CA,No,1,6-8,6-8,50582.97709404521
50755490116848,Active,No,Community Day School,Intermediate/Middle/Junior High,Public,Valley Community Day,Hughson Unified,Stanislaus,7419 East Whitmore,Hughson,CA,Yes,2,8-12,9-10,50580.34607064171
50755495032651,Active,No,Traditional,High School,Public,Hughson High,Hughson Unified,Stanislaus,7419 East Whitmore Avenue,Hughson,CA,Yes,2,9-12,9-12,50580.34607064171
10623640126870,Active,No,Continuation School,High School,Public,San Joaquin Valley High,Parlier Unified,Fresno,900 Newmark Avenue,Parlier,CA,Yes,3,9-12,9-12,50432.25203915061
10623641034990,Active,No,Traditional,High School,Public,Parlier High,Parlier Unified,Fresno,603 Third Street,Parlier,CA,Yes,3,9-12,9-12,50432.25203915061
10623646007033,Active,No,Traditional,Elementary,Public,Mathew J Brletic Elementary,Parlier Unified,Fresno,601 Third Street,Parlier,CA,Yes,3,K-6,K-6,50432.25203915061
50755496052575,Active,No,Traditional,Elementary,Public,Hughson Elementary,Hughson Unified,Stanislaus,7201 East Whitmore Avenue,Hughson,CA,No,1,K-3,K-3,49744.11408722703
27738252730125,Active,No,Alternative School of Choice,Elementary - High Combination,Public,North Monterey County Center for Independent Study,North Monterey County Unified,Monterey,17500 Pesante Road,Salinas,CA,Yes,2,K-12,K-12,49645.50393546437
27738252730141,Active,No,Continuation School,High School,Public,Central Bay High (Continuation),North Monterey County Unified,Monterey,17500 Pesante Road,Salinas,CA,Yes,2,9-12,10-12,49645.50393546437
24658706025829,Active,No,Traditional,Elementary,Public,Frank Sparkes Elementary,Winton,Merced,7265 West Almond Avenue,Winton,CA,No,1,K-5,K-5,49108.99846762506
54721736054399,Active,No,Traditional,Elementary - Intermediate/Middle/Junior High Combination,Public,Sundale Elementary,Sundale Union Elementary,Tulare,13990 Avenue 240,Tulare,CA,No,1,K-8,K-8,48031.97250362861
24657892433605,Active,No,Traditional,High School,Public,Livingston High,Merced Union High,Merced,1617 Main Street,Livingston,CA,No,1,9-12,9-12,47475.357649061116
24657892430601,Active,No,Traditional,High School,Public,Atwater High,Merced Union High,Merced,2201 Fruitland Avenue,Atwater,CA,No,1,9-12,9-12,47015.99715238352
44697996049712,Active,No,Traditional,Elementary,Public,Hall District Elementary,Pajaro Valley Unified,Monterey,300 Sill Road,Watsonville,CA,No,1,K-5,K-5,46614.527154851596
20652430131086,Active,No,Community Day School,Intermediate/Middle/Junior High - High Combination,Public,Ripperdan Community Day,Madera Unified,Madera,26133 Avenue 7,Madera,CA,No,1,7-12,8-12,45806.195467028636
20652436024012,Active,No,Traditional,Elementary - Intermediate/Middle/Junior High Combination,Public,La Vina Elementary,Madera Unified,Madera,8594 Road 23,Madera,CA,No,1,K-8,K-8,45515.81736793868
52715716053581,Active,No,Traditional,Elementary - Intermediate/Middle/Junior High Combination,Public,Vina Elementary,Los Molinos Unified,Tehama,7th and D Streets,Vina,CA,No,1,1-8,1-8,44830.86355423072
39685850125369,Active,No,Special Education School,Elementary - Intermediate/Middle/Junior High Combination,Public,Turner Academy at Tokay Colony,Lodi Unified,San Joaquin,13520 East Live Oak Road,Lodi,CA,No,1,K-8,K-8,44625.047090932865
50755490101030,Active,No,Traditional,Elementary,Public,Fox Road Elementary,Hughson Unified,Stanislaus,7600 Fox Road,Hughson,CA,Yes,2,4-5,4-5,44611.40820057455
50755496052567,Active,No,Traditional,Intermediate/Middle/Junior High,Public,Emilie J. Ross Middle,Hughson Unified,Stanislaus,7448 Fox Road,Hughson,CA,Yes,2,6-8,6-8,44611.40820057455
24753660105817,Active,No,Traditional,Elementary,Public,Harmony Elementary,Delhi Unified,Merced,16464 West August Avenue,Delhi,CA,No,1,K-6,K-6,44558.525066633316
27660766026140,Active,No,Traditional,Elementary - Intermediate/Middle/Junior High Combination,Public,Lagunita Elementary,Lagunita Elementary,Monterey,975 San Juan Grade Road,Salinas,CA,No,1,K-8,K-8,44197.86739769178
50712090112383,Active,Yes,Traditional,Elementary - Intermediate/Middle/Junior High Combination,Public,Paradise Charter,Paradise Elementary,Stanislaus,3361 California Avenue,Modesto,CA,Yes,2,K-8,K-8,43391.83794785833
50712096052914,Active,No,Traditional,Elementary - Intermediate/Middle/Junior High Combination,Public,Paradise Elementary,Paradise Elementary,Stanislaus,3361 California Avenue,Modesto,CA,Yes,2,K-8,K-8,43391.83794785833
50755495032669,Active,No,Continuation School,High School,Public,Dickens (Billy Joe) High (Continuation),Hughson Unified,Stanislaus,6937 Fox Road,Hughson,CA,No,1,9-12,10-12,42903.18353725433
10623646007041,Active,No,Traditional,Elementary,Public,John C Martinez Elementary,Parlier Unified,Fresno,13174 East Parlier Avenue,Parlier,CA,No,1,K-6,K-6,42751.6882108861
44697996049803,Active,No,Traditional,Elementary,Public,T. S. MacQuiddy Elementary,Pajaro Valley Unified,Santa Cruz,330 Martinelli Street,Watsonville,CA,No,1,K-5,K-5,42540.328425227366
42691206046049,Active,No,Traditional,Elementary,Public,Oakley (Calvin C.) Elementary,Santa Maria-Bonita,Santa Barbara,1120 West Harding Street,Santa Maria,CA,No,1,K-6,K-6,42441.15856054236
27738256026421,Active,No,Traditional,Intermediate/Middle/Junior High,Public,North Monterey County Middle,North Monterey County Unified,Monterey,10301 Seymour Street,Castroville,CA,No,1,7-8,7-8,42386.68138657755
34322765637780,Active,No,Youth Authority School,High School,Public,Mary B. Perry High,California Education Authority (CEA) Headquarters,Ventura,3100 Wright Road,Camarillo,CA,No,1,9-12,9-12,41786.23607076646
24656496025399,Active,No,Traditional,Elementary,Public,Cressey Elementary,Ballico-Cressey Elementary,Merced,9921 Crocker Street,Cressey,CA,No,1,K,K,41466.396431491936
44697994437794,Active,No,Continuation School,High School,Public,Renaissance High Continuation,Pajaro Valley Unified,Santa Cruz,11 Spring Valley Road,La Selva Beach,CA,No,1,9-12,10-12,41255.58407110452
24657892430205,Active,No,Traditional,High School,Public,Buhach Colony High,Merced Union High,Merced,1800 Buhach Road,Atwater,CA,No,1,9-12,9-12,41124.878572609
54719696054126,Active,No,Traditional,Elementary - Intermediate/Middle/Junior High Combination,Public,Kings River Elementary,Kings River Union Elementary,Tulare,3961 Avenue 400,Kingsburg,CA,No,1,K-8,K-8,41045.342409264646
27661426066963,Active,No,Traditional,Elementary,Public,University Park Elementary,Salinas City Elementary,Monterey,833 West Acacia Street,Salinas,CA,No,1,K-6,K-6,40595.3866738242
42693104234613,Active,No,Traditional,High School,Public,Ernest Righetti High,Santa Maria Joint Union High,Santa Barbara,941 East Foster Road,Santa Maria,CA,No,1,9-12,9-12,40528.683521645806
44697996049720,Active,Yes,Traditional,Elementary - Intermediate/Middle/Junior High Combination,Public,Linscott Charter,Pajaro Valley Unified,Santa Cruz,220 Elm Street,Watsonville,CA,No,1,K-8,K-8,40430.7701914038
56725530110502,Active,No,Traditional,Elementary,Public,Rancho Rosal Elementary,Pleasant Valley,Ventura,3535 Village at the Park Drive,Camarillo,CA,No,1,K-5,K-5,40285.63869040641
50712176052922,Active,No,Traditional,Elementary,Public,Grayson Elementary,Patterson Joint Unified,Stanislaus,301 Howard Road,Westley,CA,No,1,K-5,K-5,40060.278150321916
50710506052484,Active,No,Traditional,Elementary,Public,Chatom Elementary,Chatom Union,Stanislaus,7221 Clayton Road,Turlock,CA,No,1,K-5,K-5,39897.64350416162
50710430123679,Active,No,Traditional,Intermediate/Middle/Junior High,Public,Cesar Chavez Junior High,Ceres Unified,Stanislaus,2701 Eastgate Boulevard,Ceres,CA,Yes,2,7-8,7-8,39851.14986700237
27738256026447,Active,No,Traditional,Elementary,Public,Prunedale Elementary,North Monterey County Unified,Monterey,17719 Pesante Road,Salinas,CA,No,1,K-6,K-6,39818.52571614768
50710430110734,Active,No,Traditional,Elementary,Public,La Rosa Elementary,Ceres Unified,Stanislaus,2800 Eastgate Boulevard,Ceres,CA,Yes,2,K-6,K-6,39791.93861353988
39686506042485,Active,No,Traditional,Elementary - Intermediate/Middle/Junior High Combination,Public,Ripona Elementary,Ripon Unified,San Joaquin,415 East Oregon Street,Ripon,CA,No,1,K-8,K-8,39670.642555353035
27661592730109,Active,No,Traditional,High School,Public,Alisal High,Salinas Union High,Monterey,777 Williams Road,Salinas,CA,No,1,9-12,9-12,39591.3044402725
51714646053359,Active,No,Traditional,Elementary - Intermediate/Middle/Junior High Combination,Public,Barry Elementary,Yuba City Unified,Sutter,1255 Barry Road,Yuba City,CA,No,1,K-8,K-8,39512.39279055124
40687596043053,Active,No,Traditional,Elementary,Public,Harloe Elementary,Lucia Mar Unified,San Luis Obispo,901 Fair Oaks Avenue,Arroyo Grande,CA,No,1,K-6,K-6,39444.99551391579
52714726053466,Active,No,Traditional,Elementary,Public,Antelope Elementary,Antelope Elementary,Tehama,22630 Antelope Boulevard,Red Bluff,CA,No,1,K-5,K-5,39233.63295626477
27661910107391,Active,No,Traditional,Elementary,Public,New Republic Elementary,Santa Rita Union Elementary,Monterey,636 Arcadia Way,Salinas,CA,No,1,K-5,K-5,39026.47385790335
27738256026413,Active,No,Traditional,Elementary,Public,Elkhorn Elementary,North Monterey County Unified,Monterey,2235 Elkhorn Road,Castroville,CA,No,1,K-6,K-6,38669.0414696305
50712740121558,Active,Yes,Traditional,Elementary - Intermediate/Middle/Junior High Combination,Public,Shiloh Charter,Shiloh Elementary,Stanislaus,6633 Paradise Road,Modesto,CA,Yes,2,K-8,K-8,38424.42719294345
50712746053045,Active,No,Traditional,Elementary,Public,Shiloh Elementary,Shiloh Elementary,Stanislaus,6633 Paradise Road,Modesto,CA,Yes,2,K-8,K-2,38424.42719294345
10621096005839,Active,No,Traditional,Elementary - Intermediate/Middle/Junior High Combination,Public,Clay Elementary,Clay Joint Elementary,Fresno,12449 South Smith Avenue,Kingsburg,CA,No,1,K-8,K-8,38222.813530504776
27660276026108,Active,No,Traditional,Elementary - Intermediate/Middle/Junior High Combination,Public,Graves Elementary,Graves Elementary,Monterey,15 McFadden Road,Salinas,CA,No,1,K-8,K-8,38166.23674530346
27661916120224,Active,No,Traditional,Elementary,Public,McKinnon,Santa Rita Union Elementary,Monterey,2100 McKinnon,Salinas,CA,No,1,K-5,K-5,38147.73918699035
50711346052591,Active,No,Traditional,Elementary,Public,Keyes Elementary,Keyes Union,Stanislaus,4400 Maud Avenue,Keyes,CA,Yes,2,K-5,K-5,37462.285765445675
50711346113286,Active,Yes,Traditional,Elementary - High Combination,Public,Keyes to Learning Charter,Keyes Union,Stanislaus,5709 Ninth Street,Keyes,CA,Yes,2,K-12,K-12,37462.285765445675
39685856098057,Active,No,Traditional,Elementary - Intermediate/Middle/Junior High Combination,Public,Victor Elementary,Lodi Unified,San Joaquin,17670 North Bruella Road,Victor,CA,No,1,K-6,K-8,37328.63689693014
15735446010011,Active,No,Traditional,Intermediate/Middle/Junior High,Public,Rio Bravo-Greeley Elementary,Rio Bravo-Greeley Union Elementary,Kern,6601 Enos Lane,Bakersfield,CA,Yes,2,5-8,5-8,37012.33761993315
15735446117816,Active,No,Traditional,Elementary,Public,Rio Bravo Elementary,Rio Bravo-Greeley Union Elementary,Kern,22725 Elementary Lane,Bakersfield,CA,Yes,2,K-4,K-4,37012.33761993315
39686506106322,Active,No,Traditional,Elementary - Intermediate/Middle/Junior High Combination,Public,Weston Elementary,Ripon Unified,San Joaquin,1660 Stanley Drive,Ripon,CA,No,1,K-8,K-8,36501.78123397756
50710430109074,Active,No,Traditional,Elementary,Public,Joel J. Hidahl Elementary,Ceres Unified,Stanislaus,2351 East Redwood Road,Ceres,CA,No,1,K-6,K-6,36248.45724851953
24656316025316,Active,No,Traditional,Elementary,Public,Aileen Colburn Elementary,Atwater Elementary,Merced,2201 Heller Street,Atwater,CA,No,1,K-6,K-6,36204.16023489375
10623236006993,Active,No,Traditional,Elementary - Intermediate/Middle/Junior High Combination,Public,Monroe Elementary,Monroe Elementary,Fresno,11842 South Chestnut Avenue,Fresno,CA,No,1,K-8,K-8,35926.862662659594
24736196103766,Active,No,Traditional,Intermediate/Middle/Junior High,Public,Gustine Middle,Gustine Unified,Merced,28075 Sullivan Road,Gustine,CA,No,1,6-8,6-8,35717.51708045696
24657486025506,Active,No,Traditional,Elementary,Public,Campus Park Elementary,Livingston Union,Merced,1845 H Street,Livingston,CA,No,1,K-5,K-5,35555.01569087663
56725380100362,Active,No,Traditional,Elementary,Public,Thurgood Marshall Elementary,Oxnard,Ventura,2900 Thurgood Marshall Drive,Oxnard,CA,No,1,K-8,K-7,35352.76756264883
39754996110530,Active,No,Traditional,Elementary,Public,Louis A. Bohn Elementary,Tracy Joint Unified,San Joaquin,350 East Mount Diablo,Tracy,CA,No,1,K-5,K-5,34965.93382852066
10624146007116,Active,No,Traditional,Elementary,Public,Del Rey Elementary,Sanger Unified,Fresno,10620 Morro Street,Del Rey,CA,No,1,P-6,K-6,34871.09315771703
40687596043095,Active,No,Traditional,Elementary,Public,Oceano Elementary,Lucia Mar Unified,San Luis Obispo,1551 17th Street,Oceano,CA,No,1,K-6,K-6,34603.99072334538
06616146103576,Active,No,Traditional,Intermediate/Middle/Junior High,Public,Lloyd G. Johnson Junior High,Pierce Joint Unified,Colusa,938 Wildwood Road,Arbuckle,CA,No,1,6-8,6-8,34567.86418964736
10739990123596,Active,No,Traditional,Elementary,Public,Goldenrod Elementary,Kerman Unified,Fresno,445 South Goldenrod Avenue,Kerman,CA,No,1,K-6,K-6,34170.809470489
24657716025621,Active,No,Traditional,Elementary,Public,Franklin Elementary,Merced City Elementary,Merced,2936 Franklin Road,Merced,CA,No,1,K-3,K-3,34104.631700962935
10623566007025,Active,No,Traditional,Elementary - Intermediate/Middle/Junior High Combination,Public,Pacific Union Elementary,Pacific Union Elementary,Fresno,2065 East Bowles Avenue,Fresno,CA,No,1,K-8,K-8,33980.10910613747
24657486025514,Active,No,Traditional,Intermediate/Middle/Junior High,Public,Livingston Middle,Livingston Union,Merced,101 F Street,Livingston,CA,No,1,6-8,6-8,33877.096178978216
10623646007058,Active,No,Traditional,Elementary,Public,Cesar E Chavez Elementary,Parlier Unified,Fresno,500 Tuolumne Street,Parlier,CA,No,1,K-6,K-6,33810.83389197417
50712666106934,Active,No,Traditional,Elementary,Public,Sisk Elementary,Salida Union Elementary,Stanislaus,5337 Sugar Creek Lane,Salida,CA,No,1,K-5,K-5,33512.29287663339
50105045030069,Active,No,Juvenile Court School,Intermediate/Middle/Junior High - High Combination,Public,Stanislaus County West Campus,Stanislaus County Office of Education,Stanislaus,2215 Blue Gum Avenue,Modesto,CA,Yes,2,K-12,7-12,33463.56284916645
50105045030226,Active,No,County Community School,Intermediate/Middle/Junior High - High Combination,Public,Petersen Alternative Center for Education,Stanislaus County Office of Education,Stanislaus,2209 Blue Gum Avenue,Modesto,CA,Yes,2,6-12,6-12,33463.56284916645
16639416010474,Active,Yes,Traditional,Elementary - Intermediate/Middle/Junior High Combination,Public,Kings River-Hardwick Elementary,Kings River-Hardwick Union Elementary,Kings,10300 Excelsior Avenue,Hanford,CA,No,1,K-8,K-8,33363.66276129793
27661426026553,Active,No,Traditional,Elementary,Public,Loma Vista Elementary,Salinas City Elementary,Monterey,757 Sausal Drive,Salinas,CA,No,1,K-6,K-6,33327.49300288927
50711676107023,Active,No,Traditional,Elementary,Public,Alberta Martone Elementary,Modesto City Elementary,Stanislaus,1413 Poust Road,Modesto,CA,No,1,K-6,K-6,32753.17849857911
39685776041966,Active,No,Traditional,Elementary - Intermediate/Middle/Junior High Combination,Public,Glenwood Elementary,Linden Unified,San Joaquin,2005 North Alpine Road,Stockton,CA,No,1,K-8,K-8,32643.66532604172
42692290100651,Active,No,Alternative School of Choice,Elementary - Intermediate/Middle/Junior High Combination,Public,Mission Valley,Lompoc Unified,Santa Barbara,1301 North A Street,Lompoc,CA,Yes,2,K-8,K-8,32472.317348819095
42692296045629,Active,No,Traditional,Elementary,Public,La Honda STEAM Academy,Lompoc Unified,Santa Barbara,1213 North A Street,Lompoc,CA,Yes,2,K-6,K-6,32472.317348819095
10622650116657,Active,No,Traditional,Elementary - Intermediate/Middle/Junior High Combination,Public,Silas Bartsch,Kings Canyon Joint Unified,Fresno,2225 East North Avenue,Reedley,CA,No,1,P-8,K-8,32394.147783776767
42692606045736,Active,No,Traditional,Elementary,Public,Alice Shaw Elementary,Orcutt Union Elementary,Santa Barbara,759 Dahlia Place,Santa Maria,CA,No,1,K-6,K-6,32304.57389576151
42691206109268,Active,No,Traditional,Elementary,Public,Ontiveros (Juan Pacifico) Elementary,Santa Maria-Bonita,Santa Barbara,930 West Rancho Verde,Santa Maria,CA,No,1,K-6,K-6,32126.594216940786
51713996053268,Active,No,Traditional,Elementary - Intermediate/Middle/Junior High Combination,Public,Encinal Elementary,Live Oak Unified,Sutter,6484 Larkin Road,Live Oak,CA,No,1,K-8,K-8,32114.475906630807
24656316025365,Active,No,Traditional,Elementary,Public,Shaffer Elementary,Atwater Elementary,Merced,1434 California Street,Atwater,CA,No,1,K-6,K-6,32106.399194311052
44697996049688,Active,No,Traditional,Intermediate/Middle/Junior High,Public,E. A. Hall Middle,Pajaro Valley Unified,Santa Cruz,201 Brewington Avenue,Watsonville,CA,Yes,2,6-8,6-8,32041.780843907865
44772480138909,Active,Yes,Traditional,Elementary,Public,Watsonville Prep,SBE - Watsonville Prep,Santa Cruz,201 Brewington Avenue,Watsonville,CA,Yes,2,K-8,K-2,32006.906819742475
10101081030337,Active,No,Juvenile Court School,Intermediate/Middle/Junior High - High Combination,Public,Alice M. Worsley,Fresno County Office of Education,Fresno,3333 American Avenue,Fresno,CA,No,1,K-12,7-12,31943.106412687077
10622656088959,Active,No,Traditional,Elementary,Public,Great Western Elementary,Kings Canyon Joint Unified,Fresno,5051 South Frankwood Avenue,Reedley,CA,No,1,P-5,K-5,31914.12088690878
50757395030283,Active,No,Traditional,High School,Public,John H. Pitman High,Turlock Unified,Stanislaus,2525 West Christoffersen Parkway,Turlock,CA,No,1,9-12,9-12,31780.950965579334
27659616025977,Active,No,Traditional,Elementary,Public,Alisal Community,Alisal Union,Monterey,1437 Del Monte Avenue,Salinas,CA,No,1,K-6,K-6,31718.54180842584
50710436112338,Active,No,Traditional,Elementary,Public,Samuel Vaughn Elementary,Ceres Unified,Stanislaus,3618 Helen Perry Road,Ceres,CA,No,1,K-6,K-6,31711.437100938023
50712666113823,Active,No,Traditional,Elementary,Public,Dena Boer,Salida Union Elementary,Stanislaus,4801 Gold Valley Road,Salida,CA,No,1,K-5,K-5,31352.219829757334
06616140630087,Active,No,Continuation School,High School,Public,Arbuckle Alternative High (Continuation),Pierce Joint Unified,Colusa,966 Wildwood Road,Arbuckle,CA,Yes,2,9-12,11-12,31148.998102660596
06616140635250,Active,No,Traditional,High School,Public,Pierce High,Pierce Joint Unified,Colusa,960 Wildwood Road,Arbuckle,CA,Yes,2,9-12,9-12,31148.998102660596
24736196025720,Active,No,Traditional,Elementary,Public,Gustine Elementary,Gustine Unified,Merced,2806 West Grove Avenue,Gustine,CA,No,1,K-5,K-5,31084.55763402832
10739656006910,Active,No,Traditional,Elementary,Public,Madison Elementary,Central Unified,Fresno,330 South Brawley Avenue,Fresno,CA,No,1,K-6,K-6,30944.86173788628
40687596043079,Active,No,Traditional,Elementary,Public,Fairgrove Elementary,Lucia Mar Unified,San Luis Obispo,2101 The Pike,Grover Beach,CA,No,1,K-6,K-6,30781.285656690798
10739656006662,Active,No,Traditional,Elementary - Intermediate/Middle/Junior High Combination,Public,Houghton-Kearney Elementary,Central Unified,Fresno,8905 West Kearney Boulevard,Fresno,CA,No,1,K-8,K-8,30638.93551439176
50710430108076,Active,No,Traditional,High School,Public,Central Valley High,Ceres Unified,Stanislaus,4033 Central Avenue,Ceres,CA,No,1,9-12,9-12,30584.80298664221
44697994430229,Active,Yes,Traditional,Elementary - High Combination,Public,Pacific Coast Charter,Pajaro Valley Unified,Santa Cruz,294 Green Valley Road,Watsonville,CA,No,1,K-12,1-12,30386.4320443435
42691206107007,Active,No,Traditional,Elementary,Public,Battles (Washington) Elementary,Santa Maria-Bonita,Santa Barbara,605 East Battles Road,Santa Maria,CA,No,1,K-6,K-6,30352.97957522598
40687594030557,Active,No,Traditional,High School,Public,Arroyo Grande High,Lucia Mar Unified,San Luis Obispo,495 Valley Road,Arroyo Grande,CA,No,1,8-12,9-12,30231.132814859382
44697990117804,Active,Yes,Traditional,Intermediate/Middle/Junior High - High Combination,Public,Ceiba College Preparatory Academy,Pajaro Valley Unified,Santa Cruz,260 West Riverside Drive,Watsonville,CA,No,1,6-12,6-12,30214.020656036097
15634876009534,Active,No,Traditional,Elementary - Intermediate/Middle/Junior High Combination,Public,General Shafter Elementary,General Shafter Elementary,Kern,1825 Shafter Road,Bakersfield,CA,No,1,K-8,K-8,30118.9364973938
54722490116368,Active,No,Traditional,High School,Public,Mission Oak High,Tulare Joint Union High,Tulare,3442 East Bardsley Avenue,Tulare,CA,No,1,9-12,9-12,30033.410551581255
54722490133793,Active,Yes,Traditional,High School,Public,Accelerated Charter High,Tulare Joint Union High,Tulare,4136 North Mooney Boulevard,Tulare,CA,No,1,9-12,11-12,29886.306566943116
50710840120089,Active,Yes,Traditional,Elementary - Intermediate/Middle/Junior High Combination,Public,Gratton Charter,Gratton Elementary,Stanislaus,4500 South Gratton Road,Denair,CA,Yes,2,K-8,K-8,29655.69248803739
50710846052534,Active,No,Traditional,Elementary - Intermediate/Middle/Junior High Combination,Public,Gratton Elementary,Gratton Elementary,Stanislaus,4500 South Gratton Road,Denair,CA,Yes,2,K-8,K-8,29655.69248803739
10621586006027,Active,No,Traditional,Elementary,Public,Fremont Elementary,Fowler Unified,Fresno,306 East Tuolumne Street,Fowler,CA,No,1,3-5,3-5,29612.907906692213
39754993938008,Active,No,Traditional,High School,Public,Tracy High,Tracy Joint Unified,San Joaquin,315 East 11th Street,Tracy,CA,No,1,9-12,9-12,29350.694729015027
27659616117691,Active,No,Traditional,Elementary,Public,Oscar F. Loya Elementary,Alisal Union,Monterey,1505 Cougar Drive,Salinas,CA,No,1,K-6,K-6,29027.898128582285
24657486109649,Active,No,Traditional,Elementary,Public,Yamato Colony Elementary,Livingston Union,Merced,800 North Main Street,Livingston,CA,No,1,K-5,K-5,28925.934062155888
42691200102855,Active,No,Traditional,Intermediate/Middle/Junior High,Public,Kunst (Tommie) Junior High,Santa Maria-Bonita,Santa Barbara,930 Hidden Pines Way,Santa Maria,CA,No,1,7-8,7-8,28732.565382073008
42691200131623,Active,No,Traditional,Elementary,Public,Jim√©nez Roberto and Dr. Francisco Elementary,Santa Maria-Bonita,Santa Barbara,1970 South Biscayne Street,Santa Maria,CA,No,1,K-7,K-6,28519.952049349915
50710685030267,Active,Yes,Traditional,Elementary - High Combination,Public,Denair Charter Academy,Denair Unified,Stanislaus,3460 Lester Road,Denair,CA,Yes,3,K-12,K-12,28431.92328667698
50710685031521,Active,No,Traditional,High School,Public,Denair High,Denair Unified,Stanislaus,3431 Lester Road,Denair,CA,Yes,3,9-12,9-12,28431.92328667698
50710686071575,Active,No,Traditional,Intermediate/Middle/Junior High,Public,Denair Middle,Denair Unified,Stanislaus,3701 Lester Road,Denair,CA,Yes,3,6-8,6-8,28431.92328667698
20651930113076,Active,No,Traditional,Elementary,Public,Ronald Reagan Elementary,Chowchilla Elementary,Madera,2200 South Lake Tahoe Drive,Chowchilla,CA,No,1,3-4,3-4,27906.413874659534
20102072030054,Active,No,County Community School,High School,Public,Enterprise Secondary,Madera County Superintendent of Schools,Madera,28261 Avenue 14,Madera,CA,Yes,2,6-12,9-12,27876.905692943834
20102072030153,Active,No,Juvenile Court School,Intermediate/Middle/Junior High - High Combination,Public,Juvenile Hall (Endeavor/Voyager Secondary),Madera County Superintendent of Schools,Madera,28261 Avenue 14,Madera,CA,Yes,2,7-12,8-12,27876.905626678912
58727366056626,Active,No,Traditional,Intermediate/Middle/Junior High,Public,Anna McKenney Intermediate,Marysville Joint Unified,Yuba,1904 Huston,Marysville,CA,Yes,2,6-8,6-8,27810.181725607865
58727366056774,Active,No,Traditional,Elementary,Public,Kynoch Elementary,Marysville Joint Unified,Yuba,1905 Ahern Street,Marysville,CA,Yes,2,K-5,K-5,27810.181725607865
24656316025340,Active,No,Traditional,Elementary,Public,Mitchell Elementary,Atwater Elementary,Merced,1761 Grove Avenue,Atwater,CA,Yes,3,K-6,K-6,27576.732211424747
10755981030535,Active,No,Traditional,Elementary - High Combination,Public,Caruthers High,Caruthers Unified,Fresno,2580 West Tahoe Avenue,Caruthers,CA,Yes,2,9-12,1-12,27553.182326088277
10755981030543,Active,No,Continuation School,High School,Public,MARC High,Caruthers Unified,Fresno,2580 West Tahoe Avenue,Caruthers,CA,Yes,2,9-12,9-12,27553.182326088277
50712666120844,Active,No,Traditional,Intermediate/Middle/Junior High,Public,Salida Middle School - Vella Campus,Salida Union Elementary,Stanislaus,5041 Toomes Road,Salida,CA,No,1,6-8,6-8,27315.46656334044
10625396007413,Active,No,Traditional,Elementary - Intermediate/Middle/Junior High Combination,Public,West Park Elementary,West Park Elementary,Fresno,2695 South Valentine Avenue,Fresno,CA,Yes,2,P-8,K-8,27252.25009769157
10625396112387,Active,Yes,Traditional,Elementary - High Combination,Public,West Park Charter Academy,West Park Elementary,Fresno,2695 South Valentine Avenue,Fresno,CA,Yes,2,K-12,K-12,27252.25009769157
42692296045645,Active,No,Traditional,Elementary,Public,Leonora Fillmore Elementary,Lompoc Unified,Santa Barbara,1211 East Pine Avenue,Lompoc,CA,No,1,K-6,K-6,27249.353248103085
13101320131094,Active,No,County Community School,Intermediate/Middle/Junior High - High Combination,Public,Valley Academy,Imperial County Office of Education,Imperial,253 East Ross Avenue,El Centro,CA,No,1,K-12,8-12,27111.428275961393
39685936042378,Active,No,Traditional,Elementary - Intermediate/Middle/Junior High Combination,Public,Nile Garden Elementary,Manteca Unified,San Joaquin,5700 East Nile Road,Manteca,CA,No,1,K-8,K-8,27068.30282914109
24656310101402,Active,No,Community Day School,Intermediate/Middle/Junior High,Public,Atwater Senior Academy,Atwater Elementary,Merced,1800 Juniper Avenue,Atwater,CA,Yes,3,6-8,7-8,27047.02021324262
24656316025357,Active,No,Traditional,Intermediate/Middle/Junior High,Public,Mitchell Intermediate,Atwater Elementary,Merced,1753 Fifth Street,Atwater,CA,Yes,3,7-8,7-8,27047.02021324262
20652430135079,Active,No,Traditional,Elementary,Public,Virginia Lee Rose Elementary,Madera Unified,Madera,1001 Lilly Street,Madera,CA,No,1,K-6,K-6,27037.72947699808
42691206046015,Active,No,Traditional,Intermediate/Middle/Junior High,Public,Fesler (Isaac) Junior High,Santa Maria-Bonita,Santa Barbara,1100 East Fesler Street,Santa Maria,CA,No,1,7-8,7-8,26940.464541377492
44697996049746,Active,No,Traditional,Elementary,Public,Mintie White Elementary,Pajaro Valley Unified,Santa Cruz,515 Palm Avenue,Watsonville,CA,No,1,K-5,K-5,26624.60516359843
50757390108175,Active,No,Traditional,Elementary,Public,Sandra Tovar Medeiros Elementary,Turlock Unified,Stanislaus,651 West Springer Drive,Turlock,CA,No,1,K-6,K-6,26154.871065166073
56725126055164,Active,No,Traditional,Elementary,Public,Laguna Vista Elementary,Ocean View,Ventura,5084 Etting Road,Oxnard,CA,No,1,K-5,K-5,25780.862858439585
10621580108977,Active,No,Community Day School,Intermediate/Middle/Junior High,Public,Fowler Academy Community Day (9-12),Fowler Unified,Fresno,975 East Adams Avenue,Fowler,CA,Yes,3,9-12,9-10,25763.620943947866
10621580126250,Active,No,Community Day School,Intermediate/Middle/Junior High,Public,Fowler Academy Community Day,Fowler Unified,Fresno,975 East Adams Avenue,Fowler,CA,Yes,3,K-8,8,25763.620943947866
10621586006050,Active,No,Traditional,Elementary,Public,Marshall Elementary,Fowler Unified,Fresno,142 North Armstrong Avenue,Fowler,CA,Yes,3,K-2,K-2,25763.620943947866
24657710112615,Active,No,Traditional,Elementary,Public,Joe Stefani,Merced City Elementary,Merced,2768 Ranchero Lane,Merced,CA,No,1,3-6,3-6,25464.40291337068
56725460125674,Active,No,Alternative School of Choice,High School,Public,Condor High,Oxnard Union High,Ventura,1101 West Second Street,Oxnard,CA,No,1,9-12,9-12,25416.72348873887
10623646115224,Active,No,Traditional,Intermediate/Middle/Junior High,Public,Parlier Junior High,Parlier Unified,Fresno,1200 East Parlier Avenue,Parlier,CA,No,1,7-8,7-8,25378.618210184795
50757390114561,Active,No,Traditional,Elementary,Public,Walnut Elementary Education Center,Turlock Unified,Stanislaus,4219 North Walnut Road,Turlock,CA,No,1,K-6,K-6,25094.671206307008
50105040129023,Active,Yes,County Community School,High School,Public,Stanislaus Alternative Charter,Stanislaus County Office of Education,Stanislaus,1100 H Street,Modesto,CA,Yes,3,9-12,12,25009.795977728823
50712660120063,Active,Yes,Traditional,Elementary,Public,Independence Charter,Salida Union Elementary,Stanislaus,3920 Blue Bird Drive,Modesto,CA,Yes,3,K-8,K-5,25009.795977728823
50712660133660,Active,No,Traditional,Elementary,Public,Mildred Perkins Elementary,Salida Union Elementary,Stanislaus,3920 Blue Bird Drive,Modesto,CA,Yes,3,K-5,K-5,25009.3928286145
56725386055313,Active,No,Traditional,Intermediate/Middle/Junior High,Public,Fremont Academy of Environmental Science & Innovative Design,Oxnard,Ventura,1130 North M Street,Oxnard,CA,No,1,6-8,6-8,24983.12790753736
10623640107409,Active,No,Traditional,Elementary,Public,S Ben Benavidez Elementary,Parlier Unified,Fresno,13900 Tuolumne Street,Parlier,CA,No,1,K-6,K-6,24549.353915838987
44697996049639,Active,No,Traditional,Elementary,Public,Amesti Elementary,Pajaro Valley Unified,Santa Cruz,25 Amesti Road,Watsonville,CA,No,1,K-5,K-5,24447.663707637585
15638346010235,Active,No,Traditional,Elementary,Public,Vineland Elementary,Vineland Elementary,Kern,14713 Weedpatch Highway,Bakersfield,CA,No,1,K-4,K-4,24428.03262172576
39685936112197,Active,No,Traditional,Elementary - Intermediate/Middle/Junior High Combination,Public,Joshua Cowell Elementary,Manteca Unified,San Joaquin,740 Pestana Avenue,Manteca,CA,No,1,K-8,K-8,24281.07393561949
27661426026579,Active,No,Traditional,Elementary,Public,Mission Park Elementary,Salinas City Elementary,Monterey,403 West Acacia Street,Salinas,CA,No,1,K-6,K-6,24246.665117905097
50710680132662,Active,Yes,Traditional,Elementary,Public,Denair Elementary Charter Academy,Denair Unified,Stanislaus,3773 Madera Avenue,Denair,CA,Yes,2,K-5,K-5,23804.00503743649
50710686052500,Active,No,Traditional,Elementary,Public,Denair Elementary,Denair Unified,Stanislaus,3773 Madera Avenue,Denair,CA,Yes,2,K-5,K-5,23804.00503743649
20652436112973,Active,No,Traditional,Intermediate/Middle/Junior High,Public,Martin Luther King Jr. Middle,Madera Unified,Madera,601 Lilly Street,Madera,CA,No,1,7-8,7-8,23606.933421874495
35675796035158,Active,No,Traditional,Elementary - Intermediate/Middle/Junior High Combination,Public,Willow Grove Elementary,Willow Grove Union Elementary,San Benito,11655 Airline Highway,Paicines,CA,No,1,K-8,2-7,23535.108857001786
56725465631742,Active,No,Traditional,High School,Public,Channel Islands High,Oxnard Union High,Ventura,1400 Raiders Way,Oxnard,CA,No,1,9-12,9-12,23482.74686140744
10624306007280,Active,No,Traditional,Elementary,Public,Indianola Elementary,Selma Unified,Fresno,11524 East Dinuba Avenue,Selma,CA,No,1,K-6,K-6,23329.352763154297
10751271030493,Active,No,Traditional,High School,Public,Mendota High,Mendota Unified,Fresno,1200 Belmont Avenue,Mendota,CA,Yes,2,9-12,9-12,23146.33776
10751276006977,Active,No,Traditional,Intermediate/Middle/Junior High,Public,Mendota Junior High,Mendota Unified,Fresno,1258 East Belmont Avenue,Mendota,CA,Yes,2,7-8,7-8,23146.33776
10739996007371,Active,No,Traditional,Elementary,Public,Sun Empire Elementary,Kerman Unified,Fresno,2649 North Modoc Avenue,Kerman,CA,No,1,K-6,K-6,22976.53590839411
54722565430012,Active,No,Special Education School,Elementary - High Combination,Public,River Bend,Visalia Unified,Tulare,1800 North Lovers Lane,Visalia,CA,Yes,4,K-12,1-12,22935.230766275337
54722565430046,Active,No,Traditional,High School,Public,Golden West High,Visalia Unified,Tulare,1717 North McAuliff Street,Visalia,CA,Yes,4,9-12,9-12,22935.230766275337
54722566092373,Active,No,Traditional,Intermediate/Middle/Junior High,Public,Valley Oak Middle,Visalia Unified,Tulare,2000 North Lovers Lane,Visalia,CA,Yes,4,7-8,7-8,22935.230766275337
54722566106249,Active,No,Traditional,Elementary,Public,Golden Oak Elementary,Visalia Unified,Tulare,1700 North Lovers Lane,Visalia,CA,Yes,4,K-6,K-6,22935.230766275337
10625136007405,Active,No,Traditional,Elementary - Intermediate/Middle/Junior High Combination,Public,Washington Colony Elementary,Washington Colony Elementary,Fresno,130 East Lincoln Avenue,Fresno,CA,No,1,K-8,K-8,22748.619773261853
42691206046031,Active,No,Traditional,Elementary,Public,Miller (Isaac) Elementary,Santa Maria-Bonita,Santa Barbara,410 East Camino Colegio,Santa Maria,CA,No,1,K-6,K-6,22703.820267420797
51714640113134,Active,No,Traditional,Elementary - Intermediate/Middle/Junior High Combination,Public,Riverbend Elementary,Yuba City Unified,Sutter,301 Stewart Road,Yuba City,CA,No,1,K-8,K-8,22530.421573818214
10622571033729,Active,No,Continuation School,High School,Public,Oasis Continuation High,Kingsburg Joint Union High,Fresno,2311 Sierra Street,Kingsburg,CA,No,1,9-12,10-12,22373.211777420714
27661420132407,Active,No,Traditional,Elementary,Public,Boronda Elementary,Salinas City Elementary,Monterey,1114 Fontes Lane,Salinas,CA,No,1,K-6,K-4,21980.98189720872
51714645130018,Active,No,Continuation School,High School,Public,Albert Powell Continuation,Yuba City Unified,Sutter,1875 Clark Avenue,Yuba City,CA,No,1,10-12,10-12,21964.73876972701
39685856042170,Active,No,Traditional,Elementary,Public,Live Oak Elementary,Lodi Unified,San Joaquin,5099 East Bear Creek Road,Lodi,CA,No,1,K-6,K-6,21949.538356487392
44104470136572,Active,Yes,Traditional,High School,Public,Santa Cruz County Career Advancement Charter,Santa Cruz County Office of Education,Santa Cruz,229 Green Valley Road,Freedom,CA,No,1,12,12,21827.95715169638
10622400113142,Active,Yes,Traditional,Elementary,Public,Ronald W. Reagan Elementary,Kingsburg Elementary Charter,Fresno,1180 Diane Avenue,Kingsburg,CA,No,1,4-6,4-6,21816.63488870131
54722560110940,Active,No,Traditional,Elementary,Public,Cottonwood Creek Elementary,Visalia Unified,Tulare,4222 South Dans Street,Visalia,CA,No,1,K-6,K-6,21697.01677150375
50711006052559,Active,Yes,Traditional,Elementary,Public,Hickman Elementary,Hickman Community Charter,Stanislaus,"13306 Fourth Street, Area A",Hickman,CA,Yes,3,K-5,K-5,20992.257119153266
50711006112627,Active,Yes,Traditional,Elementary - Intermediate/Middle/Junior High Combination,Public,Hickman Charter,Hickman Community Charter,Stanislaus,13306 Fourth Street,Hickman,CA,Yes,3,K-8,K-8,20992.257119153266
50711006116388,Active,Yes,Traditional,Intermediate/Middle/Junior High,Public,Hickman Middle,Hickman Community Charter,Stanislaus,13306 Fourth Street,Hickman,CA,Yes,3,6-8,6-8,20992.257119153266
39686503935756,Active,No,Traditional,High School,Public,Ripon High,Ripon Unified,San Joaquin,301 North Acacia Avenue,Ripon,CA,Yes,2,9-12,9-12,20518.056975328385
39685026070957,Active,No,Traditional,Intermediate/Middle/Junior High,Public,El Portal Middle,Escalon Unified,San Joaquin,805 First Street,Escalon,CA,No,1,6-8,6-8,20492.4999585742
52715486053532,Active,No,Traditional,Elementary - Intermediate/Middle/Junior High Combination,Public,Gerber Elementary,Gerber Union Elementary,Tehama,23014 Chard Avenue,Gerber,CA,No,1,K-8,K-8,20428.464396574327
56725386055289,Active,No,Traditional,Elementary,Public,Elm Street Elementary,Oxnard,Ventura,450 East Elm Street,Oxnard,CA,No,1,K-5,K-5,20341.76263048578
54722310127621,Active,No,Traditional,Elementary - Intermediate/Middle/Junior High Combination,Public,Alpine Vista,Tulare City,Tulare,2975 East Alpine Avenue,Tulare,CA,No,1,K-8,K-8,20301.896312622575
54105460135459,Active,Yes,Traditional,Elementary,Public,Blue Oak Academy,Tulare County Office of Education,Tulare,28050 Road 148,Visalia,CA,No,1,K-5,K-4,20275.60374515642
56725536120620,Active,Yes,Traditional,Elementary - Intermediate/Middle/Junior High Combination,Public,University Preparation Charter School at CSU Channel Islands,Pleasant Valley,Ventura,1099 Bedford Drive,Camarillo,CA,No,1,K-8,K-8,20111.70115135667
50710430107128,Active,Yes,Traditional,Elementary - Intermediate/Middle/Junior High Combination,Public,Whitmore Charter School of Art & Technology,Ceres Unified,Stanislaus,3435 Don Pedro Road,Ceres,CA,Yes,2,K-8,K-8,19999.602370433782
50710430107136,Active,Yes,Traditional,High School,Public,Whitmore Charter High,Ceres Unified,Stanislaus,3435 Don Pedro Road,Ceres,CA,Yes,2,9-12,9-12,19999.602370433782
27660350136796,Active,No,Traditional,Elementary,Public,Arroyo Seco Academy,Greenfield Union Elementary,Monterey,1226 Apple Avenue,Greenfield,CA,No,1,K-6,K-6,19998.457220415276
56725616118061,Active,No,Traditional,Elementary,Public,Rio Rosales,Rio Elementary,Ventura,1001 Kohala Street,Oxnard,CA,No,1,K-5,K-5,19996.18302575987
42692606045744,Active,No,Traditional,Elementary,Public,Ralph Dunlap Elementary,Orcutt Union Elementary,Santa Barbara,1220 Oak Knoll Road,Santa Maria,CA,No,1,K-6,K-6,19968.835374977596
44104474430252,Active,Yes,Traditional,Intermediate/Middle/Junior High - High Combination,Public,Pacific Collegiate Charter,Santa Cruz County Office of Education,Santa Cruz,3004 Mission Street,Santa Cruz,CA,No,1,7-12,7-12,19909.133338054977
10621581032150,Active,No,Traditional,High School,Public,Fowler High,Fowler Unified,Fresno,701 East Main Street,Fowler,CA,No,1,9-12,9-12,19847.783211386806
39686506042477,Active,No,Traditional,Elementary - Intermediate/Middle/Junior High Combination,Public,Ripon Elementary,Ripon Unified,San Joaquin,509 West Main Street,Ripon,CA,Yes,2,K-8,K-8,19824.06292884144
10621581031954,Active,No,Continuation School,High School,Public,Fowler Academy Continuation,Fowler Unified,Fresno,975 E. Adams Avenue,Fowler,CA,No,1,7-12,11-12,19743.60156253862
10622571033695,Active,No,Traditional,High School,Public,Kingsburg High,Kingsburg Joint Union High,Fresno,1900 18th Avenue,Kingsburg,CA,No,1,9-12,9-12,19727.398001438123
10767781038306,Active,No,Traditional,High School,Public,Washington High,Washington Unified,Fresno,6041 South Elm Avenue,Fresno,CA,No,1,9-12,9-12,19664.783611449755
15637196009963,Active,No,Traditional,Elementary - Intermediate/Middle/Junior High Combination,Public,Pond Elementary,Pond Union Elementary,Kern,29585 Pond Road,Wasco,CA,No,1,K-8,K-8,19288.745925201907
44697996049670,Active,No,Traditional,Elementary,Public,Calabasas Elementary,Pajaro Valley Unified,Santa Cruz,202 Calabasas Road,Watsonville,CA,No,1,K-6,K-6,19138.978593079595
54719856054134,Active,No,Traditional,Elementary - Intermediate/Middle/Junior High Combination,Public,Liberty Elementary,Liberty Elementary,Tulare,1771 East Pacific Avenue,Tulare,CA,No,1,K-8,K-8,19091.73558108132
10624146007173,Active,No,Traditional,Elementary,Public,Lone Star Elementary,Sanger Unified,Fresno,2617 South Fowler Avenue,Fresno,CA,No,1,P-6,K-6,19077.858117071755
04614996003198,Active,No,Traditional,Elementary - Intermediate/Middle/Junior High Combination,Public,Manzanita Elementary,Manzanita Elementary,Butte,627 East Evans-Reimer Road,Gridley,CA,No,1,K-8,K-8,18925.6959396854
44697996049829,Active,Yes,Traditional,Elementary - Intermediate/Middle/Junior High Combination,Public,Alianza Charter,Pajaro Valley Unified,Santa Cruz,115 Casserly Road,Watsonville,CA,Yes,2,K-8,K-8,18704.988121657123
44697996119077,Active,Yes,Traditional,Elementary - Intermediate/Middle/Junior High Combination,Public,Watsonville Charter School of the Arts,Pajaro Valley Unified,Santa Cruz,"115 Casserly Road, West Campus",Watsonville,CA,Yes,2,K-8,K-8,18704.988121657123
54721816054407,Active,No,Traditional,Elementary - Intermediate/Middle/Junior High Combination,Public,Sunnyside Elementary,Sunnyside Union Elementary,Tulare,21644 Avenue 196,Strathmore,CA,No,1,P-8,K-8,18604.625552298698
54755316053961,Active,No,Traditional,Elementary,Public,Grand View Elementary,Dinuba Unified,Tulare,39746 Road 64,Dinuba,CA,No,1,K-6,K-6,18582.37664018368
24657486025522,Active,No,Traditional,Elementary,Public,Selma Herndon Elementary,Livingston Union,Merced,714 Prusso Street,Livingston,CA,No,1,K-5,K-5,18505.680089948233
10767780108993,Active,No,Community Day School,High School,Public,Easton Community Day,Washington Unified,Fresno,5865 South Clara Avenue,Fresno,CA,Yes,3,9-12,9-11,18394.061551601437
10767780122473,Active,No,Alternative School of Choice,High School,Public,Elm High,Washington Unified,Fresno,5865 South Clara Avenue,Fresno,CA,Yes,3,9-12,9-12,18394.061551601437
10767781038298,Active,No,Continuation School,High School,Public,Easton Continuation High,Washington Unified,Fresno,5865 South Clara Avenue,Fresno,CA,Yes,3,9-12,11-12,18394.061551601437
50105045030085,Active,No,County Community School,Intermediate/Middle/Junior High - High Combination,Public,Stanislaus Military Academy at Teel,Stanislaus County Office of Education,Stanislaus,5255 1st Street,Empire,CA,Yes,3,9-12,8-12,18387.733935972265
50710766052518,Active,No,Traditional,Elementary,Public,Empire Elementary,Empire Union Elementary,Stanislaus,5201 First St,Empire,CA,Yes,3,K-6,K-6,18387.733935972265
50711750120212,Active,Yes,Traditional,Intermediate/Middle/Junior High - High Combination,Public,Aspire Vanguard College Preparatory Academy,Modesto City High,Stanislaus,819 Sunset Avenue,Modesto,CA,Yes,3,6-12,6-12,18387.733935972265
04755070433953,Active,No,Traditional,High School,Public,Gridley High,Gridley Unified,Butte,300 East Spruce Street,Gridley,CA,No,1,9-12,9-12,18315.142062982766
42692036045512,Active,No,Traditional,Elementary,Public,Mary Buren Elementary,Guadalupe Union Elementary,Santa Barbara,1050 Peralta Street,Guadalupe,CA,No,1,P-4,K-4,18251.82320669846
56726526056105,Active,No,Traditional,Elementary,Public,Junipero Serra Elementary,Ventura Unified,Ventura,8880 Halifax Street,Ventura,CA,No,1,K-5,K-5,18135.32415538889
51713816053250,Active,No,Traditional,Elementary - Intermediate/Middle/Junior High Combination,Public,Franklin Elementary,Franklin Elementary,Sutter,332 North Township Road,Yuba City,CA,No,1,K-8,K-8,18127.615136424745
58727360121632,Active,Yes,Traditional,Elementary - Intermediate/Middle/Junior High Combination,Public,Paragon Collegiate Academy,Marysville Joint Unified,Yuba,1608 Sampson Street,Marysville,CA,No,1,K-8,K-8,18068.7976147565
10621586115190,Active,No,Traditional,Intermediate/Middle/Junior High,Public,John Sutter Middle,Fowler Unified,Fresno,701 East Walter,Fowler,CA,No,1,6-8,6-8,18019.582506323077
27738256026397,Active,No,Traditional,Elementary,Public,Castroville Elementary,North Monterey County Unified,Monterey,11161 Merritt Street,Castroville,CA,No,1,K-6,K-6,17730.60981357912
50712666053037,Active,No,Traditional,Elementary,Public,Salida Elementary,Salida Union Elementary,Stanislaus,4519 Finney Road,Salida,CA,No,1,K-5,K-5,17728.50496008684
54753256100275,Active,No,Traditional,Intermediate/Middle/Junior High,Public,Farmersville Junior High,Farmersville Unified,Tulare,650 North Virginia Street,Farmersville,CA,No,1,7-8,7-8,17575.845132259456
15635291530252,Active,No,Traditional,High School,Public,Arvin High,Kern High,Kern,900 Varsity Road,Arvin,CA,No,1,9-12,9-12,17533.92649395728
27659616119663,Active,Yes,Traditional,Elementary,Public,Oasis Charter Public,Alisal Union,Monterey,1135 Westridge Parkway,Salinas,CA,No,1,K-6,K-6,17511.29585886648
20652436024046,Active,No,Traditional,Elementary,Public,Sierra Vista Elementary,Madera Unified,Madera,917 Olive Avenue,Madera,CA,No,1,K-6,K-6,17448.566002219948
54718370109009,Active,Yes,Traditional,Elementary - High Combination,Public,Summit Charter Academy,Burton Elementary,Tulare,175 South Mathew Street,Porterville,CA,Yes,2,K-12,K-12,17429.163963522813
27662256026694,Active,No,Traditional,Elementary,Public,Spreckels Elementary,Spreckels Union Elementary,Monterey,Fourth Street and Hatton Avenue,Spreckels,CA,No,1,K-5,K-5,17409.350162649152
54719020101303,Active,No,Community Day School,Intermediate/Middle/Junior High,Public,Earlimart Community Day,Earlimart Elementary,Tulare,599 East Sutter Avenue,Earlimart,CA,Yes,2,4-8,6-8,17358.590927008318
54719026054035,Active,No,Traditional,Intermediate/Middle/Junior High,Public,Earlimart Middle,Earlimart Elementary,Tulare,599 South Sutter Street,Earlimart,CA,Yes,2,6-8,6-8,17358.590927008318
51714646067268,Active,No,Traditional,Elementary - Intermediate/Middle/Junior High Combination,Public,Butte Vista Elementary,Yuba City Unified,Sutter,2195 Blevin Road,Yuba City,CA,No,1,K-8,K-8,17198.93810506113
24656316025332,Active,No,Traditional,Elementary,Public,Elmer Wood Elementary,Atwater Elementary,Merced,1271 West Bellevue Road,Atwater,CA,No,1,K-6,K-6,17150.77735656464
50712906095517,Active,No,Traditional,Elementary,Public,Stockard Coffee Elementary,Sylvan Union Elementary,Stanislaus,3900 Northview Drive,Modesto,CA,No,1,K-5,K-6,17135.78936990837
10755986005813,Active,No,Traditional,Elementary - Intermediate/Middle/Junior High Combination,Public,Caruthers Elementary,Caruthers Unified,Fresno,13699 South Quince Quince Avenue and Tiller Avenue,Caruthers,CA,No,1,K-8,K-8,17075.9225445795
50712820105700,Active,No,Traditional,Elementary,Public,Mary Lou Dieterich Elementary,Stanislaus Union Elementary,Stanislaus,2412 Warm Springs Drive,Modesto,CA,No,1,K-6,K-6,17039.27000093819
51713656053243,Active,No,Traditional,Elementary - Intermediate/Middle/Junior High Combination,Public,Browns Elementary,Browns Elementary,Sutter,1248 Pacific Avenue,Rio Oso,CA,No,1,K-8,K-8,16918.665791167758
40688096043244,Active,No,Traditional,Elementary,Public,Los Ranchos Elementary,San Luis Coastal Unified,San Luis Obispo,5785 Los Ranchos Road,San Luis Obispo,CA,No,1,K-6,K-6,16852.520207167538
10622650126292,Active,Yes,Traditional,High School,Public,Reedley Middle College High,Kings Canyon Joint Unified,Fresno,995 North Reed Avenue,Reedley,CA,No,1,9-12,9-12,16850.516222921186
11626461136209,Active,No,Traditional,Intermediate/Middle/Junior High - High Combination,Public,Princeton Junior-Senior High,Princeton Joint Unified,Colusa,473 State Street,Princeton,CA,No,1,7-12,7-12,16395.671796064096
10739991033430,Active,No,Traditional,High School,Public,Kerman High,Kerman Unified,Fresno,205 South First Street,Kerman,CA,No,1,9-12,9-12,16339.508936994785
10622406108328,Active,Yes,Traditional,Intermediate/Middle/Junior High,Public,Rafer Johnson Junior High,Kingsburg Elementary Charter,Fresno,1300 Stroud Avenue,Kingsburg,CA,No,1,7-8,7-8,16227.589781194032
27661420108068,Active,No,Traditional,Elementary,Public,Boronda Meadows,Salinas City Elementary,Monterey,915 Larkin Street,Salinas,CA,No,1,K-6,K-6,16021.152340476025
44697996049704,Active,No,Traditional,Elementary,Public,H. A. Hyde Elementary,Pajaro Valley Unified,Santa Cruz,125 Alta Vista Street,Watsonville,CA,No,1,K-5,K-5,15988.963380985773
56724626055057,Active,No,Traditional,Elementary,Public,Fred L. Williams Elementary,Hueneme Elementary,Ventura,4300 Anchorage Street,Oxnard,CA,No,1,K-5,K-5,15925.605676862797
15635606009708,Active,No,Traditional,Elementary - Intermediate/Middle/Junior High Combination,Public,Myrtle Avenue Elementary,Lamont Elementary,Kern,10421 Myrtle Avenue,Lamont,CA,No,1,4-8,4-8,15909.945175351497
27661596058770,Active,No,Traditional,Intermediate/Middle/Junior High,Public,Washington Middle,Salinas Union High,Monterey,560 Iverson Street,Salinas,CA,No,1,7-8,7-8,15809.259136321756
15635291530047,Active,No,Continuation School,High School,Public,Nueva Continuation High,Kern High,Kern,8600 Palm Avenue,Lamont,CA,No,1,9-12,10-12,15750.811681565849
27661596110753,Active,No,Traditional,Intermediate/Middle/Junior High,Public,Harden Middle,Salinas Union High,Monterey,1561 McKinnon Street,Salinas,CA,No,1,7-8,7-8,15727.074741713139
54721086054332,Active,No,Traditional,Elementary - Intermediate/Middle/Junior High Combination,Public,Saucelito Elementary,Saucelito Elementary,Tulare,17615 Avenue 104,Terra Bella,CA,No,1,K-8,K-8,15723.409253924216
15638420113167,Active,No,Traditional,Elementary,Public,Teresa Burke Elementary,Wasco Union Elementary,Kern,1301 Filburn Street,Wasco,CA,No,1,K-5,K-5,15554.856274226231
10619946005730,Active,Yes,Traditional,Elementary - Intermediate/Middle/Junior High Combination,Public,Alvina Elementary Charter,Alvina Elementary,Fresno,295 West Saginaw Avenue,Caruthers,CA,No,1,K-8,K-8,15550.266402745252
56724705630363,Active,Yes,Traditional,Elementary - High Combination,Public,Golden Valley Charter,Mesa Union Elementary,Ventura,"3585 Maple Street, Suite 101",Ventura,CA,No,1,K-12,K-12,15343.298890556624
58727366056659,Active,No,Traditional,Elementary,Public,Cedar Lane Elementary,Marysville Joint Unified,Yuba,841 Cedar Lane,Olivehurst,CA,No,1,K-6,K-6,15306.579696644843
54719026054027,Active,No,Traditional,Elementary,Public,Earlimart Elementary,Earlimart Elementary,Tulare,192 South Church Road,Earlimart,CA,No,1,K-5,K-5,15305.054552529191
10739996006688,Active,No,Traditional,Elementary,Public,Kerman-Floyd Elementary,Kerman Unified,Fresno,14655 West F Street,Kerman,CA,No,1,K-6,K-6,15217.212138646968
58727360131599,Active,No,Community Day School,Intermediate/Middle/Junior High,Public,Marysville Community Day,Marysville Joint Unified,Yuba,1919 B Street,Marysville,CA,Yes,3,7-12,9-10,15208.927846417608
58727365830138,Active,Yes,Traditional,Intermediate/Middle/Junior High - High Combination,Public,Marysville Charter Academy for the Arts,Marysville Joint Unified,Yuba,1917 B Street,Marysville,CA,Yes,3,7-12,7-12,15208.927846417608
58727365835202,Active,No,Traditional,High School,Public,Marysville High,Marysville Joint Unified,Yuba,12 East 18th Street,Marysville,CA,Yes,3,9-12,9-12,15208.927846417608
10624140123463,Active,No,Traditional,Elementary,Public,Sequoia Elementary,Sanger Unified,Fresno,1820 South Armstrong Avenue,Fresno,CA,No,1,P-6,K-6,15055.170663614876
10622656006738,Active,No,Traditional,Elementary,Public,Alta Elementary,Kings Canyon Joint Unified,Fresno,21771 East Parlier Avenue,Reedley,CA,No,1,K-5,K-5,14887.28546929709
39685850111419,Active,No,Traditional,Elementary,Public,Woodbridge,Lodi Unified,San Joaquin,1290 Lilac Street,Lodi,CA,No,1,K-6,K-6,14768.483561045028
35752596049654,Active,No,Traditional,Elementary - Intermediate/Middle/Junior High Combination,Public,Aromas,Aromas - San Juan Unified,Monterey,365 Vega Street,Aromas,CA,No,1,K-8,K-8,14710.418435486383
16639906110233,Active,Yes,Traditional,Intermediate/Middle/Junior High,Public,Pioneer Middle,Pioneer Union Elementary,Kings,101 West Pioneer Way,Hanford,CA,No,1,6-8,6-8,14612.875575761376
10624306007256,Active,No,Traditional,Elementary,Public,Eric White Elementary,Selma Unified,Fresno,2001 Mitchell,Selma,CA,No,1,K-6,K-6,14558.647582114572
50712826108302,Active,No,Traditional,Elementary,Public,Agnes M. Baptist Elementary,Stanislaus Union Elementary,Stanislaus,1825 Cheyenne Way,Modesto,CA,No,1,K-6,K-6,14383.433841222253
56725610137018,Active,No,Traditional,Elementary,Public,Rio del Sol,Rio Elementary,Ventura,3001 North Ventura Road,Oxnard,CA,No,1,K-8,K-7,14286.39801295678
57727025730049,Active,No,Continuation School,High School,Public,Wolfskill High,Winters Joint Unified,Yolo,200 Baker Street,Winters,CA,No,1,9-12,11-12,14227.722274837044
51713996053276,Active,No,Traditional,Intermediate/Middle/Junior High,Public,Live Oak Middle,Live Oak Unified,Sutter,2082 Pennington Road,Live Oak,CA,No,1,5-8,5-8,14133.30375804872
58727366056717,Active,No,Traditional,Elementary,Public,Linda Elementary,Marysville Joint Unified,Yuba,6180 Dunning Avenue,Marysville,CA,No,1,K-6,K-6,14046.953248276506
10622656006787,Active,No,Traditional,Elementary,Public,Jefferson Elementary,Kings Canyon Joint Unified,Fresno,1037 East Duff Avenue,Reedley,CA,No,1,P-5,K-5,13998.895469402636
56725386055321,Active,No,Traditional,Elementary - Intermediate/Middle/Junior High Combination,Public,Cesar E. Chavez Elementary,Oxnard,Ventura,301 North Marquita Street,Oxnard,CA,No,1,K-8,K-8,13938.65675724675
42692606045777,Active,No,Traditional,Elementary,Public,Joe Nightingale Elementary,Orcutt Union Elementary,Santa Barbara,255 Winter Road,Santa Maria,CA,No,1,K-6,K-6,13925.661602848637
51713995130059,Active,No,Continuation School,High School,Public,Valley Oak Continuation High,Live Oak Unified,Sutter,2207 Pennington Road,Live Oak,CA,Yes,2,9-12,11-12,13826.012218848262
51713995130067,Active,No,Alternative School of Choice,Intermediate/Middle/Junior High - High Combination,Public,Live Oak Alternative,Live Oak Unified,Sutter,2207 Pennington Road,Live Oak,CA,Yes,2,K-12,7-12,13826.012218848262
39685773933959,Active,No,Traditional,High School,Public,Linden High,Linden Unified,San Joaquin,18527 East Front Street,Linden,CA,No,1,9-12,9-12,13789.146688544251
56725386107551,Active,No,Traditional,Elementary,Public,Christa McAuliffe Elementary,Oxnard,Ventura,3300 West Via Marina Avenue,Oxnard,CA,No,1,K-5,K-5,13787.24381077562
51105120138040,Active,Yes,Traditional,Intermediate/Middle/Junior High,Public,AeroSTEM Academy,Sutter County Office of Education,Sutter,82 Second Street,Yuba City,CA,No,1,6-12,6-10,13772.66057797287
40687596043038,Active,No,Traditional,Elementary,Public,Grover Beach Elementary,Lucia Mar Unified,San Luis Obispo,365 South 10th Street,Grover Beach,CA,No,1,P-6,K-6,13521.175653400085
50757396115208,Active,No,Traditional,Elementary,Public,Dennis G. Earl Elementary,Turlock Unified,Stanislaus,4091 North Olive Avenue,Turlock,CA,No,1,K-6,K-6,13354.502458772464
39685776041974,Active,No,Traditional,Elementary,Public,Linden Elementary,Linden Unified,San Joaquin,18100 West Front Street,Linden,CA,No,1,K-4,K-4,13348.093368408305
54720096054167,Active,No,Traditional,Elementary - Intermediate/Middle/Junior High Combination,Public,Monson-Sultana Elementary,Monson-Sultana Joint Union Elementary,Tulare,10643 Avenue 416,Dinuba,CA,No,1,K-8,K-8,13331.61872383596
50710436052443,Active,No,Traditional,Elementary,Public,Don Pedro Elementary,Ceres Unified,Stanislaus,2300 Don Pedro Road,Ceres,CA,No,1,K-6,K-6,13291.336939526256
11626466089262,Active,No,Traditional,Elementary,Public,Princeton Elementary,Princeton Joint Unified,Colusa,428 Norman Road,Princeton,CA,No,1,K-6,K-6,13280.081258981136
50757396053136,Active,No,Traditional,Intermediate/Middle/Junior High,Public,Turlock Junior High,Turlock Unified,Stanislaus,3951 North Walnut Road,Turlock,CA,No,1,7-8,6-8,13258.23498435704
15635780107771,Active,No,Traditional,Elementary,Public,Sequoia Elementary,Richland Union Elementary,Kern,500 East Fresno Avenue,Shafter,CA,No,1,P-6,K-6,13242.494876855839
37684526110407,Active,No,Traditional,Elementary,Public,Mission Meadows Elementary,Vista Unified,San Diego,5657 Spur Avenue,Oceanside,CA,No,1,K-5,K-5,13099.533951816356
54755316107650,Active,No,Traditional,Elementary,Public,Roosevelt Elementary,Dinuba Unified,Tulare,1311 Euclid Avenue,Dinuba,CA,No,1,K-6,K-6,13021.793548845757
10623316007009,Active,No,Traditional,Elementary - Intermediate/Middle/Junior High Combination,Public,Orange Center Elementary,Orange Center,Fresno,3530 South Cherry Avenue,Fresno,CA,No,1,K-8,K-8,13011.482054938795
10621586006043,Active,No,Traditional,Elementary,Public,Malaga Elementary,Fowler Unified,Fresno,3910 South Ward Avenue,Fresno,CA,No,1,K-5,K-5,12951.931951360792
39685850108217,Active,No,Traditional,Elementary,Public,Manlio Silva Elementary,Lodi Unified,San Joaquin,6250 Scott Creek Drive,Stockton,CA,No,1,K-6,K-6,12817.0760223896
54718606118111,Active,No,Traditional,Intermediate/Middle/Junior High,Public,El Monte Middle,Cutler-Orosi Joint Unified,Tulare,42111 Road 128,Orosi,CA,No,1,6-8,6-8,12712.266212142391
15635526009666,Active,No,Traditional,Elementary - Intermediate/Middle/Junior High Combination,Public,Lakeside,Lakeside Union,Kern,14535 Old River Road,Bakersfield,CA,No,1,K-8,K-8,12561.679667442644
51714646053417,Active,No,Traditional,Elementary,Public,Lincrest Elementary,Yuba City Unified,Sutter,1400 Phillips Road,Yuba City,CA,No,1,K-5,K-5,12499.11237918161
42691200102848,Active,No,Traditional,Elementary,Public,Sanchez (David J.) Elementary,Santa Maria-Bonita,Santa Barbara,804 West Liberty Street,Santa Maria,CA,No,1,K-6,K-6,12488.14038636322
39685026041792,Active,No,Traditional,Elementary,Public,Dent Elementary,Escalon Unified,San Joaquin,1998 Yosemite Avenue,Escalon,CA,No,1,K-5,K-5,12487.94186266079
10624306007272,Active,No,Traditional,Elementary,Public,George Washington Elementary,Selma Unified,Fresno,1420 Second Street,Selma,CA,No,1,K-1,K-1,12387.965990969173
15635291530021,Active,No,Continuation School,High School,Public,Central Valley High (Continuation),Kern High,Kern,526 Mannel Avenue,Shafter,CA,Yes,2,9-12,11-12,12373.140396472218
15635291535087,Active,No,Traditional,High School,Public,Shafter High,Kern High,Kern,526 Mannel Avenue,Shafter,CA,Yes,2,9-12,9-12,12373.140396472218
50711755030010,Active,No,Traditional,High School,Public,Fred C. Beyer High,Modesto City High,Stanislaus,1717 Sylvan Avenue,Modesto,CA,No,1,9-12,9-12,12346.29489697453
33736766114789,Active,No,Traditional,Elementary,Public,Saul Martinez Elementary,Coachella Valley Unified,Riverside,65-705 Johnson Street,Mecca,CA,No,1,K-6,K-6,12297.707493551477
10622406006712,Active,Yes,Traditional,Elementary,Public,Roosevelt Elementary,Kingsburg Elementary Charter,Fresno,1185 Tenth Street,Kingsburg,CA,No,1,1,1,12100.746136759224
39685776042006,Active,No,Traditional,Elementary - Intermediate/Middle/Junior High Combination,Public,Waverly Elementary,Linden Unified,San Joaquin,3507 Wilmarth Road,Stockton,CA,No,1,K-8,K-8,12086.769917246676
51713995135256,Active,No,Traditional,High School,Public,Live Oak High,Live Oak Unified,Sutter,2351 Pennington Road,Live Oak,CA,No,1,9-12,9-12,12036.693708281415
50755560118810,Active,No,Traditional,Elementary,Public,Mesa Verde Elementary,Riverbank Unified,Stanislaus,4850 Mesa Drive,Oakdale,CA,No,1,K-5,K-5,12013.652127803958
54755310102186,Active,No,Alternative School of Choice,Intermediate/Middle/Junior High - High Combination,Public,Ronald Reagan Academy,Dinuba Unified,Tulare,470 Avenue 406,Dinuba,CA,Yes,2,K-12,8-12,11947.833851064977
54755315431119,Active,No,Continuation School,High School,Public,Sierra Vista High (Continuation),Dinuba Unified,Tulare,8470 Avenue 406,Dinuba,CA,Yes,2,9-12,10-12,11947.833851064977
57727026056410,Active,No,Traditional,Elementary,Public,Shirley Rominger Intermediate,Winters Joint Unified,Yolo,502 Niemann Street,Winters,CA,Yes,2,3-5,3-5,11938.461271330603
56724706055123,Active,No,Traditional,Elementary - Intermediate/Middle/Junior High Combination,Public,Mesa Elementary,Mesa Union Elementary,Ventura,3901 North Mesa School Road,Somis,CA,No,1,K-8,K-8,11927.123750158546
54718605433230,Active,No,Traditional,High School,Public,Orosi High,Cutler-Orosi Joint Unified,Tulare,41815 Road 128,Orosi,CA,No,1,9-12,9-12,11914.168801558846
57727020138974,Active,No,Traditional,Elementary,Public,Waggoner Elementary,Winters Joint Unified,Yolo,500 Edwards Street,Winters,CA,Yes,2,K-2,K-2,11913.117595018855
33736766032254,Active,No,Traditional,Elementary,Public,Mecca Elementary,Coachella Valley Unified,Riverside,65250 Coahuilla Street,Mecca,CA,No,1,K-6,K-6,11906.542780949032
58727440107375,Active,No,Traditional,Elementary,Public,Rio Del Oro Elementary,Plumas Lake Elementary,Yuba,1220 Zanes Drive,Plumas Lake,CA,No,1,K-5,K-5,11890.75891634404
50711676052682,Active,No,Traditional,Elementary,Public,Fairview Elementary,Modesto City Elementary,Stanislaus,1937 West Whitmore Avenue,Modesto,CA,No,1,K-6,K-6,11882.969405952512
24656316025373,Active,No,Traditional,Elementary,Public,Thomas Olaeta Elementary,Atwater Elementary,Merced,2266 High Street,Atwater,CA,No,1,K-6,K-6,11731.945083917974
42691206045959,Active,No,Traditional,Elementary,Public,Adam (William Laird) Elementary,Santa Maria-Bonita,Santa Barbara,500 West Windsor,Santa Maria,CA,No,1,K-6,K-6,11637.394160393493
30667466030761,Active,No,Traditional,Elementary,Public,Eastwood Elementary,Westminster,Orange,13552 University,Westminster,CA,No,1,K-6,K-6,11609.960219653503
10624306111124,Active,No,Traditional,Intermediate/Middle/Junior High,Public,Abraham Lincoln Middle,Selma Unified,Fresno,1239 Nelson Boulevard,Selma,CA,No,1,7-8,7-8,11573.712229320749
10624146007140,Active,No,Traditional,Elementary,Public,Jefferson Elementary,Sanger Unified,Fresno,1110 Tucker Street,Sanger,CA,No,1,P-6,K-6,11516.927293011633
42693104236030,Active,No,Traditional,High School,Public,Santa Maria High,Santa Maria Joint Union High,Santa Barbara,901 South Broadway,Santa Maria,CA,No,1,9-12,9-12,11494.705215846094
04614246003081,Active,No,Traditional,Elementary,Public,Rosedale Elementary,Chico Unified,Butte,100 Oak Street,Chico,CA,No,1,K-5,K-5,11485.79126492382
50712826053060,Active,No,Traditional,Elementary,Public,Josephine Chrysler Elementary,Stanislaus Union Elementary,Stanislaus,2818 Conant Avenue,Modesto,CA,No,1,K-6,K-6,11451.993511342027
56725386055263,Active,No,Traditional,Elementary - Intermediate/Middle/Junior High Combination,Public,Curren Elementary,Oxnard,Ventura,1101 North F Street,Oxnard,CA,No,1,K-8,K-8,11402.093437003605
13631310135657,Active,No,Traditional,Elementary,Public,Dogwood Elementary,Heber Elementary,Imperial,44 East Correll Road,Heber,CA,No,1,K-3,K-3,11291.893954038103
56725386055362,Active,No,Traditional,Elementary,Public,Ramona Elementary,Oxnard,Ventura,804 Cooper Road,Oxnard,CA,No,1,K-5,K-5,11278.00674940809
27660922730240,Active,Yes,Traditional,Intermediate/Middle/Junior High - High Combination,Public,Learning for Life Charter,Monterey Peninsula Unified,Monterey,"3180 Imjin Road, Suite 110",Marina,CA,No,1,7-12,7-12,11097.681016500215
27660926026249,Active,No,Traditional,Elementary,Public,Ione Olson Elementary,Monterey Peninsula Unified,Monterey,261 Beach Road,Marina,CA,No,1,K-5,K-5,11097.681016500215
57727025738505,Active,No,Traditional,Intermediate/Middle/Junior High - High Combination,Public,Winters High,Winters Joint Unified,Yolo,101 Grant Avenue,Winters,CA,No,1,9-12,7-12,11056.055352846757
33736760100248,Active,No,Traditional,Elementary,Public,Las Palmitas Elementary,Coachella Valley Unified,Riverside,86150 Avenue 66,Thermal,CA,Yes,3,K-6,K-6,10954.52783600503
33736760100255,Active,No,Traditional,High School,Public,Desert Mirage High,Coachella Valley Unified,Riverside,86150 Avenue 66,Thermal,CA,Yes,3,9-12,9-12,10954.52783600503
33736760100263,Active,No,Traditional,Intermediate/Middle/Junior High,Public,Toro Canyon Middle,Coachella Valley Unified,Riverside,86150 Avenue 66,Thermal,CA,Yes,3,7-8,7-8,10954.52783600503
15638420138701,Active,No,Traditional,Elementary,Public,James A. Forrest Elementary,Wasco Union Elementary,Kern,401 North Griffith Avenue,Wasco,CA,No,1,K-5,K-5,10887.761496128564
42691206046064,Active,No,Traditional,Elementary,Public,Bruce (Robert) Elementary,Santa Maria-Bonita,Santa Barbara,601 West Alvin Avenue,Santa Maria,CA,No,1,K-6,K-6,10745.498942375232
50755726053219,Active,No,Traditional,Intermediate/Middle/Junior High,Public,Waterford Junior,Waterford Unified,Stanislaus,12916 Bentley Street,Waterford,CA,No,1,7-8,7-8,10718.609030598534
04614320433201,Active,No,Traditional,High School,Public,Durham High,Durham Unified,Butte,9455 Putney Drive,Durham,CA,Yes,3,9-12,9-12,10705.233511914734
04614326003115,Active,No,Traditional,Elementary,Public,Durham Elementary,Durham Unified,Butte,9421 Putney Drive,Durham,CA,Yes,3,K-5,K-5,10705.233511914734
04614326105761,Active,No,Traditional,Intermediate/Middle/Junior High,Public,Durham Intermediate,Durham Unified,Butte,9416 Putney Drive,Durham,CA,Yes,3,6-8,6-8,10705.233511914734
54753255430277,Active,No,Continuation School,High School,Public,Deep Creek Academy,Farmersville Unified,Tulare,281 South Farmersville Boulevard,Farmersville,CA,Yes,2,9-12,10-12,10682.379108260608
54753256054076,Active,No,Traditional,Elementary,Public,George L. Snowden Elementary,Farmersville Unified,Tulare,301 South Farmersville Boulevard,Farmersville,CA,Yes,2,2-3,2-3,10682.379108260608
15633136110464,Active,No,Traditional,Elementary - Intermediate/Middle/Junior High Combination,Public,Bear Mountain Elementary,Arvin Union,Kern,1501 Hood Street,Arvin,CA,No,1,P-6,K-8,10677.783361349017
54767945430285,Active,No,Community Day School,Intermediate/Middle/Junior High - High Combination,Public,Woodlake Community Day,Woodlake Unified,Tulare,36220 Millwood Drive,Woodlake,CA,No,1,7-12,7-12,10535.528681907872
56105610135780,Active,No,Special Education School,Elementary - High Combination,Public,Phoenix,Ventura County Office of Education,Ventura,500 Airport Way,Camarillo,CA,Yes,4,K-12,1-12,10517.149829972073
56105615630397,Active,No,County Community School,Intermediate/Middle/Junior High - High Combination,Public,Gateway Community,Ventura County Office of Education,Ventura,200 Horizon Circle,Camarillo,CA,Yes,4,6-12,7-12,10517.149829972073
56725460120634,Active,Yes,Traditional,High School,Public,"Architecture, Construction & Engineering Charter High (ACE)",Oxnard Union High,Ventura,570 Airport Way,Camarillo,CA,Yes,4,9-12,9-12,10517.149829972073
56746175690011,Active,No,Regional Occupational Center/Program,High School,Public,Career Education Center,Ventura County ROP,Ventura,465 Horizon Circle,Camarillo,CA,Yes,4,6-12,No Data,10517.149829972073
10622406006704,Active,Yes,Traditional,Elementary,Public,Lincoln Elementary,Kingsburg Elementary Charter,Fresno,1900 Mariposa Street,Kingsburg,CA,No,1,2-3,2-3,10465.092990546005
27660356089387,Active,No,Traditional,Elementary,Public,Oak Avenue Elementary,Greenfield Union Elementary,Monterey,1239 Oak Avenue,Greenfield,CA,No,1,K-6,K-6,10413.138596956836
50755560113852,Active,Yes,Traditional,Elementary - Intermediate/Middle/Junior High Combination,Public,Riverbank Language Academy,Riverbank Unified,Stanislaus,2400 Stanislaus Street,Riverbank,CA,No,1,K-8,K-8,10396.60636172686
10751276006985,Active,No,Traditional,Elementary,Public,Washington Elementary,Mendota Unified,Fresno,1599 Fifth Street,Mendota,CA,No,1,K-1,K-1,10314.229181366429
54720256054183,Active,No,Traditional,Elementary - Intermediate/Middle/Junior High Combination,Public,Outside Creek Elementary,Outside Creek Elementary,Tulare,26452 Road 164,Visalia,CA,No,1,K-8,K-8,10303.384646642435
10621666103840,Active,No,Traditional,Intermediate/Middle/Junior High,Public,Edison Computech,Fresno Unified,Fresno,555 East Belgravia,Fresno,CA,No,1,7-8,7-8,10243.521124858846
51714640107722,Active,No,Traditional,High School,Public,River Valley High,Yuba City Unified,Sutter,801 El Margarita Road,Yuba City,CA,No,1,9-12,9-12,10147.309194892354
15634206009419,Active,No,Traditional,Elementary - Intermediate/Middle/Junior High Combination,Public,Di Giorgio Elementary,Di Giorgio Elementary,Kern,19405 Buena Vista Boulevard,Arvin,CA,No,1,K-8,K-8,10061.414996177336
54755316053979,Active,No,Traditional,Elementary,Public,Jefferson Elementary,Dinuba Unified,Tulare,1660 East Sierra Way,Dinuba,CA,No,1,K-6,K-6,9997.131268814046
27659616025993,Active,No,Traditional,Elementary,Public,Fremont Elementary,Alisal Union,Monterey,1255 East Market Street,Salinas,CA,No,1,K-6,K-6,9987.129694309342
20651936023931,Active,No,Traditional,Elementary,Public,Fairmead Elementary,Chowchilla Elementary,Madera,19421 Avenue 22 3/4,Chowchilla,CA,No,1,5-6,5-6,9979.879260856447
56725536055461,Active,No,Traditional,Intermediate/Middle/Junior High,Public,Monte Vista Middle,Pleasant Valley,Ventura,888 North Lantana Street,Camarillo,CA,No,1,6-8,6-8,9974.26728071421
10622651033703,Active,No,Continuation School,Elementary - High Combination,Public,Kings Canyon Continuation,Kings Canyon Joint Unified,Fresno,10026 South Crawford Avenue,Dinuba,CA,No,1,9-12,2-12,9935.657086250245
42692296045587,Active,No,Traditional,Elementary,Public,Clarence Ruth Elementary,Lompoc Unified,Santa Barbara,501 North W Street,Lompoc,CA,No,1,K-6,K-6,9876.548725645029
39686763932654,Active,No,Traditional,Intermediate/Middle/Junior High - High Combination,Public,Franklin High,Stockton Unified,San Joaquin,4600 East Fremont Street,Stockton,CA,No,1,6-12,6-12,9855.835940539042
39685020126011,Active,Yes,Traditional,Elementary - High Combination,Public,Escalon Charter Academy,Escalon Unified,San Joaquin,1520 Yosemite Avenue,Escalon,CA,Yes,3,K-12,K-12,9789.164349680368
39685023930054,Active,No,Continuation School,High School,Public,Vista High (Continuation),Escalon Unified,San Joaquin,1520 Yosemite Avenue,Escalon,CA,Yes,3,9-12,11-12,9789.164349680368
39685023932308,Active,No,Traditional,High School,Public,Escalon High,Escalon Unified,San Joaquin,1528 East Yosemite Avenue,Escalon,CA,Yes,3,9-12,9-12,9789.164349680368
50757396053185,Active,No,Traditional,Elementary,Public,Osborn Two-Way Immersion Academy,Turlock Unified,Stanislaus,201 North Soderquist Road,Turlock,CA,No,1,K-5,K-5,9724.193763898096
39685930105973,Active,No,Traditional,Elementary - Intermediate/Middle/Junior High Combination,Public,Walter Woodward Elementary,Manteca Unified,San Joaquin,575 Tannehill Drive,Manteca,CA,No,1,K-8,K-8,9614.714043890572
15638426110340,Active,No,Traditional,Elementary,Public,John L. Prueitt Elementary,Wasco Union Elementary,Kern,3501 Seventh Street,Wasco,CA,No,1,K-5,K-5,9602.426189115235
54718606112684,Active,No,Traditional,Elementary,Public,Golden Valley Elementary,Cutler-Orosi Joint Unified,Tulare,41465 Road 127,Orosi,CA,No,1,K-5,K-5,9548.83325054276
15635786009989,Active,No,Traditional,Elementary,Public,Redwood Elementary,Richland Union Elementary,Kern,331 North Shafter Avenue,Shafter,CA,Yes,2,K-6,K-6,9439.82917522119
15635786010003,Active,No,Traditional,Intermediate/Middle/Junior High,Public,Richland Junior High,Richland Union Elementary,Kern,331 Shafter Avenue,Shafter,CA,Yes,2,7-8,7-8,9439.82917522119
15635780135186,Active,Yes,Traditional,Elementary,Public,Grimmway Academy Shafter,Richland Union Elementary,Kern,471 West Los Angeles Street,Shafter,CA,No,1,K-8,K-6,9422.945819720842
44697990105858,Active,No,Traditional,High School,Public,Pajaro Valley High,Pajaro Valley Unified,Santa Cruz,500 Harkins Slough Road,Watsonville,CA,No,1,9-12,9-12,9383.03567790612
52714726066328,Active,No,Traditional,Intermediate/Middle/Junior High,Public,Berrendos Middle,Antelope Elementary,Tehama,401 Chestnut Avenue,Red Bluff,CA,No,1,6-8,6-8,9187.023643315064
56726525637814,Active,No,Traditional,High School,Public,Ventura Adult and Continuing Education,Ventura Unified,Ventura,5200 Valentine Road,Ventura,CA,No,1,Adult,12,9111.40150174728
10621661031897,Active,No,Traditional,High School,Public,Edison High,Fresno Unified,Fresno,540 East California Avenue,Fresno,CA,No,1,9-12,9-12,9103.203031291026
11626386007504,Active,No,Traditional,Elementary - Intermediate/Middle/Junior High Combination,Public,Plaza Elementary,Plaza Elementary,Glenn,7322 County Road 24,Orland,CA,No,1,K-8,K-8,9007.225724667818
10622650106815,Active,No,Traditional,Elementary - Intermediate/Middle/Junior High Combination,Public,Thomas Law Reed Elementary,Kings Canyon Joint Unified,Fresno,1400 North Frankwood Avenue,Reedley,CA,No,1,K-8,K-8,8897.104662268073
15635606009690,Active,No,Traditional,Intermediate/Middle/Junior High,Public,Mountain View Middle,Lamont Elementary,Kern,8001 Weedpatch Highway,Bakersfield,CA,No,1,7-8,7-8,8858.703799676558
39685850100560,Active,No,Traditional,Elementary,Public,Lois E. Borchardt Elementary,Lodi Unified,San Joaquin,375 Culbertson Drive,Lodi,CA,No,1,K-6,K-6,8853.20134082326
27661426026587,Active,No,Traditional,Elementary,Public,Monterey Park Elementary,Salinas City Elementary,Monterey,410 San Miguel Avenue,Salinas,CA,No,1,K-6,K-6,8844.639071266445
54718606053938,Active,No,Traditional,Elementary,Public,Palm Elementary,Cutler-Orosi Joint Unified,Tulare,12915 Avenue 419,Orosi,CA,No,1,K-5,K-5,8800.176987584431
20652436024020,Active,No,Traditional,Elementary,Public,Millview Elementary,Madera Unified,Madera,1609 Clinton Street,Madera,CA,No,1,K-6,K-6,8785.238282311546
10624140113043,Active,No,Traditional,Elementary,Public,Ronald W. Reagan Elementary,Sanger Unified,Fresno,1586 South Indianola,Sanger,CA,No,1,K-6,K-6,8763.22148328281
39685856042121,Active,No,Traditional,Elementary - Intermediate/Middle/Junior High Combination,Public,Houston,Lodi Unified,San Joaquin,4600 East Acampo Road,Acampo,CA,No,1,K-8,K-8,8742.130352984828
40688336043343,Active,No,Traditional,Elementary - Intermediate/Middle/Junior High Combination,Public,Shandon Elementary,Shandon Joint Unified,San Luis Obispo,301 South First Street,Shandon,CA,No,1,K-8,K-8,8725.855376181864
54718605430095,Active,No,Alternative School of Choice,Intermediate/Middle/Junior High - High Combination,Public,Esperanza High,Cutler-Orosi Joint Unified,Tulare,12724 Avenue 392,Cutler,CA,Yes,2,K-12,8-12,8699.038061491221
54718605430806,Active,No,Continuation School,High School,Public,Lovell High,Cutler-Orosi Joint Unified,Tulare,12724 Avenue 392,Cutler,CA,Yes,2,9-12,11-12,8699.038061491221
56725465630066,Active,No,Continuation School,High School,Public,Frontier High,Oxnard Union High,Ventura,545 Airport Way,Camarillo,CA,No,1,9-12,10-12,8692.627473969138
51714646053409,Active,No,Traditional,Elementary,Public,Lincoln Elementary,Yuba City Unified,Sutter,1582 Lincoln Road,Yuba City,CA,No,1,K-5,K-5,8641.732435936
54719025430335,Active,No,Traditional,Elementary,Public,Alila,Earlimart Elementary,Tulare,850 West Washington Avenue,Earlimart,CA,No,1,K-5,K-5,8603.132327510171
54722566054563,Active,No,Traditional,Elementary,Public,Elbow Creek Elementary,Visalia Unified,Tulare,32747 Road 138,Visalia,CA,No,1,P-6,K-6,8601.043813812581
24657556025530,Active,No,Traditional,Elementary,Public,Charleston Elementary,Los Banos Unified,Merced,18463 West Charleston Road,Los Banos,CA,No,1,K-6,K-6,8566.036385876128
15633626009260,Active,No,Traditional,Elementary,Public,Buena Vista Elementary,Panama-Buena Vista Union,Kern,6547 Buena Vista Road,Bakersfield,CA,No,1,K-6,K-6,8528.33833251284
04614246111116,Active,No,Traditional,Elementary,Public,Emma Wilson Elementary,Chico Unified,Butte,1530 West Eighth Avenue,Chico,CA,No,1,K-5,K-5,8503.9204276382
20652430123414,Active,No,Special Education School,High School,Public,Adult Transition Program,Madera Unified,Madera,955 West Pecan Avenue,Madera,CA,No,1,Adult,12,8474.641634962612
27661426026561,Active,No,Traditional,Elementary,Public,Los Padres Elementary,Salinas City Elementary,Monterey,1130 John Street,Salinas,CA,No,1,K-6,K-6,8439.688562810532
15101570124040,Active,Yes,Traditional,Elementary - Intermediate/Middle/Junior High Combination,Public,Grimmway Academy,Kern County Office of Education,Kern,901 Nectarine Court,Arvin,CA,No,1,K-8,K-8,8438.147615106815
56724626055081,Active,No,Traditional,Elementary,Public,Julien Hathaway Elementary,Hueneme Elementary,Ventura,405 East Dollie Street,Oxnard,CA,No,1,K-5,K-5,8335.36108043419
10739656006951,Active,No,Traditional,Elementary,Public,Roosevelt Elementary,Central Unified,Fresno,2600 North Garfield Avenue,Fresno,CA,No,1,K-6,K-6,8331.306086502116
27102720116491,Active,Yes,County Community School,High School,Public,Open Door Charter,Monterey County Office of Education,Monterey,901 Blanco Circle,Salinas,CA,Yes,3,9-12,No Data,8323.370913208564
27102722730232,Active,Yes,Traditional,Elementary - High Combination,Public,Monterey County Home Charter,Monterey County Office of Education,Monterey,901 Blanco Circle,Salinas,CA,Yes,3,K-12,K-12,8323.370913208564
27102726069512,Active,No,Special Education School,Elementary - High Combination,Public,Monterey County Special Education,Monterey County Office of Education,Monterey,901 Blanco Circle,Salinas,CA,Yes,3,K-12,K-12,8323.370913208564
40687596043087,Active,No,Traditional,Elementary,Public,Ocean View Elementary,Lucia Mar Unified,San Luis Obispo,1208 Linda Drive,Arroyo Grande,CA,No,1,K-6,K-6,8261.869275209041
54719446054092,Active,No,Traditional,Elementary - Intermediate/Middle/Junior High Combination,Public,Hope Elementary,Hope Elementary,Tulare,613 West Teapot Dome Avenue,Porterville,CA,No,1,K-8,K-8,8185.5326327970315
27659616113542,Active,No,Traditional,Elementary,Public,Cesar E. Chavez Elementary,Alisal Union,Monterey,1225 Towt Street,Salinas,CA,No,1,K-6,K-6,8184.482010016098
44697996049662,Active,No,Traditional,Elementary,Public,Bradley Elementary,Pajaro Valley Unified,Santa Cruz,321 Corralitos Road,Watsonville,CA,No,1,K-6,K-6,8020.548886774175
40687596043103,Active,No,Traditional,Intermediate/Middle/Junior High,Public,Paulding Middle,Lucia Mar Unified,San Luis Obispo,600 Crown Hill Street,Arroyo Grande,CA,No,1,7-8,7-8,7959.945547708459
10624141036094,Active,No,Traditional,High School,Public,Sanger High,Sanger Unified,Fresno,1045 Bethel Avenue,Sanger,CA,No,1,9-12,9-12,7959.106637523577
42692606045751,Active,No,Traditional,Intermediate/Middle/Junior High,Public,Lakeview Junior High,Orcutt Union Elementary,Santa Barbara,3700 Orcutt Road,Santa Maria,CA,No,1,7-8,7-8,7951.78015290306
11625966007454,Active,No,Traditional,Elementary - Intermediate/Middle/Junior High Combination,Public,Lake Elementary,Lake Elementary,Glenn,4672 County Road North,Orland,CA,No,1,K-8,K-8,7922.8720631324595
15634386009435,Active,No,Traditional,Intermediate/Middle/Junior High,Public,Edison Middle,Edison Elementary,Kern,721 South Edison Road,Bakersfield,CA,No,1,5-8,5-8,7846.159237286645
40687596043129,Active,No,Traditional,Elementary,Public,Dana Elementary,Lucia Mar Unified,San Luis Obispo,920 West Tefft Street,Nipomo,CA,No,1,K-6,K-6,7790.437969240632
39686500128215,Active,No,Continuation School,High School,Public,Harvest High,Ripon Unified,San Joaquin,729 West Main Street,Ripon,CA,No,1,9-12,11-12,7786.572767398563
10621170133314,Active,No,Traditional,Elementary,Public,Virginia R. Boris Elementary,Clovis Unified,Fresno,7071 East Clinton Avenue,Fresno ,CA,No,1,K-6,K-6,7757.908455224343
42691206046007,Active,No,Traditional,Elementary,Public,Fairlawn Elementary,Santa Maria-Bonita,Santa Barbara,120 North Mary Drive,Santa Maria,CA,No,1,K-6,K-6,7726.529232787136
37684523732039,Active,No,Continuation School,High School,Public,Alta Vista High (Continuation),Vista Unified,San Diego,1575 Bonair Drive,Vista,CA,No,1,9-12,10-12,7683.516528973311
40687596109342,Active,No,Traditional,Intermediate/Middle/Junior High,Public,Mesa Middle,Lucia Mar Unified,San Luis Obispo,2555 Halcyon Road,Arroyo Grande,CA,No,1,7-8,6-8,7664.1680084395775
10622400114587,Active,Yes,Community Day School,Intermediate/Middle/Junior High,Public,Island Community Day,Kingsburg Elementary Charter,Fresno,1776 Sixth Avenue Drive,Kingsburg,CA,No,1,4-8,7,7648.155412921637
54722560139212,Active,No,Community Day School,Intermediate/Middle/Junior High - High Combination,Public,Creekside Community Day,Visalia Unified,Tulare,31411 Road 160,Visalia,CA,No,1,7-12,7-12,7561.736255435195
39685933932001,Active,No,Traditional,High School,Public,East Union High,Manteca Unified,San Joaquin,1700 North Union Road,Manteca,CA,Yes,2,9-12,9-12,7507.612521932348
39685936104533,Active,No,Traditional,Elementary - Intermediate/Middle/Junior High Combination,Public,Neil Hafley Elementary,Manteca Unified,San Joaquin,849 Northgate Avenue,Manteca,CA,Yes,2,K-8,K-8,7507.612521932348
44697990102665,Active,No,Traditional,Elementary,Public,Radcliff Elementary,Pajaro Valley Unified,Santa Cruz,550 Rodriguez Street,Watsonville,CA,No,1,K-5,K-5,7480.782200889897
20652430116970,Active,No,Traditional,Elementary,Public,Parkwood Elementary,Madera Unified,Madera,1150 East Pecan Avenue,Madera,CA,No,1,K-6,K-6,7456.954337654458
39686766042550,Active,No,Traditional,Elementary - Intermediate/Middle/Junior High Combination,Public,Elmwood Elementary,Stockton Unified,San Joaquin,840 South Cardinal Avenue,Stockton,CA,No,1,K-8,K-8,7434.632375993222
50711676052765,Active,No,Traditional,Intermediate/Middle/Junior High,Public,Mark Twain Junior High,Modesto City Elementary,Stanislaus,707 Emerald Avenue,Modesto,CA,No,1,7-8,7-8,7423.288164128485
10624146007124,Active,No,Traditional,Elementary - Intermediate/Middle/Junior High Combination,Public,Fairmont Elementary,Sanger Unified,Fresno,3095 North Greenwood Avenue,Sanger,CA,No,1,K-8,K-8,7385.668814393209
54755230116590,Active,Yes,Traditional,High School,Public,Harmony Magnet Academy,Porterville Unified,Tulare,19429 Road 228,Strathmore,CA,Yes,2,9-12,9-12,7342.622885564489
54755235434931,Active,No,Traditional,High School,Public,Strathmore High,Porterville Unified,Tulare,22568 Avenue 196,Strathmore,CA,Yes,2,9-12,9-12,7342.622885564489
50755720117689,Active,No,Continuation School,High School,Public,Sentinel High,Waterford Unified,Stanislaus,121 South Reinway Avenue,Waterford,CA,Yes,2,9-12,11-12,7331.346854727512
50755725030259,Active,No,Traditional,High School,Public,Waterford High,Waterford Unified,Stanislaus,121 South Reinway,Waterford,CA,Yes,2,9-12,9-12,7331.346854727512
10739996119978,Active,No,Traditional,Elementary,Public,Liberty Elementary,Kerman Unified,Fresno,16001 E Street,Kerman,CA,No,1,K-6,K-6,7311.024670053622
10751271030261,Active,No,Continuation School,High School,Public,Mendota Continuation High,Mendota Unified,Fresno,211 Smoot Avenue,Mendota,CA,Yes,2,9-12,9-12,7259.556419843452
10751271030725,Active,No,Community Day School,Intermediate/Middle/Junior High,Public,Mendota Community Day,Mendota Unified,Fresno,241 Smoot Avenue,Mendota,CA,Yes,2,7-12,8-9,7259.556419843452
40688334037008,Active,No,Traditional,High School,Public,Shandon High,Shandon Joint Unified,San Luis Obispo,101 South First Street,Shandon,CA,No,1,9-12,9-12,7144.164317728242
15633130113027,Active,No,Traditional,Elementary,Public,El Camino Real Elementary,Arvin Union,Kern,911 El Camino Real Road,Arvin,CA,No,1,P-6,K-6,7004.4078836190165
10622650108092,Active,No,Traditional,High School,Public,Orange Cove High,Kings Canyon Joint Unified,Fresno,1700 Anchor Avenue,Orange Cove,CA,Yes,2,9-12,9-12,6996.915511241744
10622656006746,Active,No,Traditional,Intermediate/Middle/Junior High,Public,Citrus Middle,Kings Canyon Joint Unified,Fresno,1400 Anchor Avenue,Orange Cove,CA,Yes,2,6-8,6-8,6996.915511241744
27659616101802,Active,No,Traditional,Elementary,Public,Frank Paul Elementary,Alisal Union,Monterey,1300 Rider Avenue,Salinas,CA,No,1,K-6,K-6,6987.399133344522
10739991033422,Active,No,Continuation School,High School,Public,Enterprise High,Kerman Unified,Fresno,15405 Sunset Avenue,Kerman,CA,No,1,7-12,9-12,6962.450511108344
51105120114207,Active,No,County Community School,Intermediate/Middle/Junior High - High Combination,Public,Feather River Academy,Sutter County Office of Education,Sutter,1895 Lassen Boulevard,Yuba City,CA,Yes,3,7-12,8-12,6951.502572165235
51105126069454,Active,No,Special Education School,Elementary - High Combination,Public,Sutter County Special Education,Sutter County Office of Education,Sutter,970 Klamath Lane,Yuba City,CA,Yes,3,K-12,K-12,6951.502572165235
51746335190012,Active,No,Regional Occupational Center/Program,High School,Public,Tri-County ROP,Tri-County ROP,Sutter,970 Klamath Lane,Yuba City,CA,Yes,3,9-12,No Data,6951.502572165235
10624146007215,Active,No,Traditional,Elementary,Public,Wilson Elementary,Sanger Unified,Fresno,610 Faller Street,Sanger,CA,No,1,P-6,K-6,6938.191764283879
15635030101014,Active,No,Traditional,Intermediate/Middle/Junior High,Public,McKee Middle,Greenfield Union,Kern,205 McKee Road,Bakersfield,CA,Yes,2,6-8,6-8,6852.125569608781
15635030120865,Active,No,Community Day School,Intermediate/Middle/Junior High,Public,Greenfield Community,Greenfield Union,Kern,725 Capitola Drive,Bakersfield,CA,Yes,2,K-8,6-8,6852.125569608781
37684520105882,Active,No,Traditional,Elementary,Public,Foothill Oak Elementary,Vista Unified,San Diego,1370 Oak Drive,Vista,CA,No,1,K-5,K-5,6823.724804905215
10621170139766,Active,No,Traditional,Elementary,Public,Janet L. Young Elementary,Clovis Unified,Fresno,3140 North Locan Avenue,Fresno,CA,No,1,K-6,No Data,6816.412359405647
27660926026314,Active,No,Traditional,Elementary,Public,Marina Vista Elementary,Monterey Peninsula Unified,Monterey,390 Carmel Avenue,Marina,CA,No,1,K-5,K-5,6730.181319837007
27661596118129,Active,No,Traditional,Intermediate/Middle/Junior High,Public,La Paz Middle,Salinas Union High,Monterey,1300 North Sanborn Road,Salinas,CA,No,1,7-8,7-8,6624.800786404723
54722566054639,Active,No,Traditional,Elementary - Intermediate/Middle/Junior High Combination,Public,Ivanhoe Elementary,Visalia Unified,Tulare,16030 Avenue 332,Ivanhoe,CA,No,1,P-8,K-8,6608.467744741392
10622656006761,Active,No,Traditional,Intermediate/Middle/Junior High,Public,General Grant Middle,Kings Canyon Joint Unified,Fresno,360 North East Avenue,Reedley,CA,No,1,6-8,6-8,6531.909615350599
04614246119523,Active,Yes,Traditional,Elementary - Intermediate/Middle/Junior High Combination,Public,Blue Oak Charter,Chico Unified,Butte,450 West East Avenue,Chico,CA,No,1,K-8,K-8,6493.783726951099
42691206046023,Active,No,Traditional,Elementary,Public,Tunnell (Martin Luther) Elementary,Santa Maria-Bonita,Santa Barbara,1248 East Dena Way,Santa Maria,CA,No,1,K-6,K-6,6492.599505158978
54753256054084,Active,No,Traditional,Elementary,Public,J. E. Hester Elementary,Farmersville Unified,Tulare,477 East Ash Street,Farmersville,CA,No,1,K-1,K-1,6418.819857769933
50710430127613,Active,No,Traditional,Elementary,Public,Lucas Elementary,Ceres Unified,Stanislaus,3500 Rose Avenue,Ceres,CA,No,1,K-6,K-6,6401.308262666384
15633136008833,Active,No,Traditional,Elementary,Public,Sierra Vista Elementary,Arvin Union,Kern,300 Franklin Street,Arvin,CA,No,1,P-6,K-6,6198.646190421798
10751276006969,Active,No,Traditional,Elementary,Public,McCabe Elementary,Mendota Unified,Fresno,250 South Derrick Street,Mendota,CA,No,1,2-6,2-6,6051.096334179481
13631151330133,Active,No,Traditional,High School,Public,Southwest High,Central Union High,Imperial,2001 Ocotillo Drive,El Centro,CA,No,1,9-12,9-12,6043.474699801562
16639666010508,Active,No,Traditional,Elementary - Intermediate/Middle/Junior High Combination,Public,Lakeside Elementary,Lakeside Union Elementary,Kings,9100 Jersey Avenue,Hanford,CA,No,1,K-8,K-8,6004.015162595668
43695836118541,Active,Yes,Traditional,Elementary - Intermediate/Middle/Junior High Combination,Public,Charter School of Morgan Hill,Morgan Hill Unified,Santa Clara,9530 Monterey Road,Morgan Hill,CA,No,1,K-8,K-8,5979.2125217999155
37735516116578,Active,No,Traditional,Elementary,Public,Pacific Rim Elementary,Carlsbad Unified,San Diego,1100 Camino de las Ondas,Carlsbad,CA,No,1,K-5,K-5,5930.1201667417545
50755565036850,Active,No,Traditional,High School,Public,Riverbank High,Riverbank Unified,Stanislaus,6200 Claus Road,Riverbank,CA,No,1,9-12,9-12,5920.513263440514
43694840123760,Active,Yes,Traditional,Elementary - Intermediate/Middle/Junior High Combination,Public,Gilroy Prep (a Navigator School),Gilroy Unified,Santa Clara,277 IOOF Avenue,Gilroy,CA,Yes,2,K-8,K-8,5915.461077549571
43694846098214,Active,No,Traditional,Intermediate/Middle/Junior High,Public,South Valley Middle,Gilroy Unified,Santa Clara,385 IOOF Avenue,Gilroy,CA,Yes,2,6-8,6-8,5915.461077549571
16739321630110,Active,No,Continuation School,High School,Public,Adelante High,Reef-Sunset Unified,Kings,701 General Petroleum Street,Kettleman City,CA,Yes,2,9-12,11-12,5846.46882191885
16739326010573,Active,No,Traditional,Elementary - Intermediate/Middle/Junior High Combination,Public,Kettleman City Elementary,Reef-Sunset Unified,Kings,701 General Petroleum Street,Kettleman City,CA,Yes,2,K-8,K-8,5846.46882191885
30736500116053,Active,No,Special Education School,Elementary,Public,Early Childhood Learning Center,Irvine Unified,Orange,1 Smoketree,Irvine,CA,No,1,P,K,5828.807166000915
54768366054050,Active,No,Traditional,Elementary,Public,Rocky Hill Elementary,Exeter Unified,Tulare,313 Sequoia Drive,Exeter,CA,No,1,K-5,K-5,5801.3779271002895
51714640100537,Active,No,Traditional,Elementary - Intermediate/Middle/Junior High Combination,Public,Andros Karperos,Yuba City Unified,Sutter,1700 Camino de Flores,Yuba City,CA,Yes,2,K-8,K-8,5701.529463781695
51714640131367,Active,No,Special Education School,Elementary,Public,Yuba City Special Education Preschool,Yuba City Unified,Sutter,1799 Camino de Flores,Yuba City,CA,Yes,2,P,K,5701.464010101548
54753255430210,Active,No,Traditional,High School,Public,Farmersville High,Farmersville Unified,Tulare,631 East Walnut Avenue,Farmersville,CA,No,1,9-12,9-12,5698.368275332765
15634120100529,Active,No,Traditional,High School,Public,Cesar E. Chavez High,Delano Joint Union High,Kern,800 Browning Road,Delano,CA,No,1,9-12,9-12,5690.890621431538
10621666088942,Active,No,Traditional,Elementary,Public,Sunset Elementary,Fresno Unified,Fresno,1755 South Crystal Avenue,Fresno,CA,No,1,K-6,K-6,5688.866691741731
10739656006654,Active,No,Traditional,Elementary,Public,Herndon-Barstow Elementary,Central Unified,Fresno,6265 North Grantland Avenue,Fresno,CA,No,1,K-6,K-6,5594.4501204970275
54718526053896,Active,No,Traditional,Elementary - Intermediate/Middle/Junior High Combination,Public,Columbine Elementary,Columbine Elementary,Tulare,2240 Road 160,Delano,CA,No,1,K-8,K-8,5552.311951172079
20651776023923,Active,No,Traditional,Elementary - Intermediate/Middle/Junior High Combination,Public,Dairyland Elementary,Alview-Dairyland Union Elementary,Madera,12861 Avenue 18 1/2,Chowchilla,CA,No,1,4-8,4-8,5525.057197002855
15635786090591,Active,No,Traditional,Elementary,Public,Golden Oak Elementary,Richland Union Elementary,Kern,190 South Wall,Shafter,CA,No,1,P-6,K-6,5510.766005828911
04755076003172,Active,No,Traditional,Elementary,Public,Wilson Elementary,Gridley Unified,Butte,409 Magnolia Street,Gridley,CA,No,1,2-5,2-6,5502.693518589816
48104884830071,Active,No,Juvenile Court School,High School,Public,Solano County Juvenile Detention Facility - Evergreen Academy,Solano County Office of Education,Solano,740 Beck Avenue,Fairfield,CA,No,1,7-12,9-12,5471.604143881486
27660926026256,Active,No,Traditional,Elementary,Public,J. C. Crumpton Elementary,Monterey Peninsula Unified,Monterey,460 Carmel Avenue,Marina,CA,No,1,K-5,K-5,5463.380141858109
54722566054688,Active,No,Traditional,Elementary,Public,Crestwood Elementary,Visalia Unified,Tulare,3001 West Whitendale Avenue,Visalia,CA,No,1,P-6,K-6,5409.314347826406
13631986008619,Active,No,Traditional,Elementary - Intermediate/Middle/Junior High Combination,Public,Meadows Elementary,Meadows Union Elementary,Imperial,2059 Bowker Road,El Centro,CA,No,1,K-8,K-8,5394.243563055448
39685856042147,Active,No,Traditional,Elementary,Public,Lawrence Elementary,Lodi Unified,San Joaquin,721 Calaveras Street,Lodi,CA,No,1,P-6,K-6,5391.320119566914
58727440112623,Active,No,Traditional,Intermediate/Middle/Junior High,Public,Riverside Meadows Intermediate,Plumas Lake Elementary,Yuba,1751 Cimarron Drive,Plumas Lake,CA,No,1,6-8,6-8,5354.533409891283
54105466119291,Active,Yes,Traditional,Elementary - High Combination,Public,Eleanor Roosevelt Community Learning Center,Tulare County Office of Education,Tulare,31191 Road 180,Visalia,CA,No,1,K-12,K-12,5320.488210466125
57727100121749,Active,Yes,Traditional,Elementary,Public,Science & Technology Academy at Knights Landing,Woodland Joint Unified,Yolo,9544 Mill Street,Knights Landing,CA,No,1,K-6,K-6,5244.747110633271
44697990109595,Active,No,Traditional,Intermediate/Middle/Junior High,Public,Cesar E. Chavez Middle,Pajaro Valley Unified,Santa Cruz,440 Arthur Road,Watsonville,CA,No,1,6-8,6-8,5221.865365635504
13631806008593,Active,No,Traditional,Elementary - Intermediate/Middle/Junior High Combination,Public,McCabe Elementary,McCabe Union Elementary,Imperial,701 West McCabe Road,El Centro,CA,No,1,K-8,K-8,5213.940128608949
39686760108159,Active,No,Traditional,High School,Public,Cesar Chavez High,Stockton Unified,San Joaquin,2929 Windflower Lane,Stockton,CA,No,1,9-12,9-12,5212.409977300504
50755560112573,Active,No,Continuation School,High School,Public,Adelante High,Riverbank Unified,Stanislaus,6801 Seventh Street,Riverbank,CA,Yes,2,10-12,10-12,5176.8800810383655
50755566052989,Active,No,Traditional,Intermediate/Middle/Junior High,Public,Cardozo Middle,Riverbank Unified,Stanislaus,3525 Santa Fe Street,Riverbank,CA,Yes,2,6-8,6-8,5176.8800810383655
10624306007231,Active,No,Traditional,Elementary,Public,Andrew Jackson Elementary,Selma Unified,Fresno,2220 Huntsman Avenue,Selma,CA,No,1,K-6,K-6,5167.449871387368
39754996042881,Active,No,Traditional,Elementary,Public,South/West Park Elementary,Tracy Joint Unified,San Joaquin,500 West Mount Diablo Road,Tracy,CA,No,1,P-5,K-5,5162.66541487239
10101086085112,Active,Yes,Traditional,Elementary,Public,Edison-Bethune Charter Academy,Fresno County Office of Education,Fresno,1616 South Fruit Avenue,Fresno,CA,No,1,K-6,K-6,5135.431170542177
40688096097349,Active,No,Traditional,Intermediate/Middle/Junior High,Public,Los Osos Middle,San Luis Coastal Unified,San Luis Obispo,1555 El Moro Street,Los Osos,CA,No,1,6-8,6-8,5116.969630643135
10739996006696,Active,No,Traditional,Intermediate/Middle/Junior High,Public,Kerman Middle,Kerman Unified,Fresno,601 South First Street,Kerman,CA,No,1,7-8,5-8,5044.748884709292
27660846026157,Active,No,Traditional,Elementary - Intermediate/Middle/Junior High Combination,Public,Mission Elementary,Mission Union Elementary,Monterey,36825 Foothill Road,Soledad,CA,No,1,K-8,K-8,5037.4523581026015
54753250106021,Active,No,Traditional,Elementary,Public,Freedom Elementary,Farmersville Unified,Tulare,575 East Citrus,Farmersville,CA,No,1,4-6,4-6,5037.371325059185
39685856042196,Active,No,Traditional,Intermediate/Middle/Junior High,Public,Morada Middle,Lodi Unified,San Joaquin,5001 Eastview Drive,Stockton,CA,No,1,7-8,7-8,5029.106491241945
15635290110999,Active,No,Traditional,High School,Public,Frontier High,Kern High,Kern,6401 Allen Road,Bakersfield,CA,No,1,9-12,9-12,5017.67618950617
04614246003099,Active,No,Traditional,Elementary,Public,Shasta Elementary,Chico Unified,Butte,169 Leora Court,Chico,CA,No,1,K-5,K-5,4969.978798028758
58727690133751,Active,No,Continuation School,High School,Public,Edward P. Duplex,Wheatland Union High,Yuba,1010 Wheatland Road,Wheatland,CA,Yes,2,9-12,10-12,4965.273484665706
58727695838305,Active,No,Traditional,High School,Public,Wheatland Union High,Wheatland Union High,Yuba,1010 Wheatland Road,Wheatland,CA,Yes,2,9-12,9-12,4965.273484665706
20652430110957,Active,No,Traditional,Elementary,Public,Cesar Chavez Elementary,Madera Unified,Madera,2600 East Pecan,Madera,CA,No,1,K-6,K-6,4957.058492414734
15633626009948,Active,No,Traditional,Elementary,Public,Panama Elementary,Panama-Buena Vista Union,Kern,9400 Stine Road,Bakersfield,CA,No,1,K-6,K-6,4915.3092947463265
10767781030774,Active,Yes,Traditional,Elementary - High Combination,Public,W.E.B. DuBois Public Charter,Washington Unified,Fresno,2604 Martin Luther King Boulevard,Fresno,CA,No,1,K-12,K-12,4913.732204630892
51714495130042,Active,No,Continuation School,High School,Public,Butte View High,Sutter Union High,Sutter,2665 Acacia Street,Sutter,CA,Yes,2,9-12,10-12,4898.873910447872
51714495137500,Active,No,Traditional,High School,Public,Sutter High,Sutter Union High,Sutter,2665 Acacia Street,Sutter,CA,Yes,2,9-12,9-12,4898.873910447872
56724626055032,Active,No,Traditional,Intermediate/Middle/Junior High,Public,Charles Blackstock Junior High,Hueneme Elementary,Ventura,701 East Bard Road,Oxnard,CA,No,1,6-8,6-8,4847.189705152712
20652436023972,Active,No,Traditional,Elementary - Intermediate/Middle/Junior High Combination,Public,Howard Elementary,Madera Unified,Madera,13878 Road 21 1/2,Madera,CA,No,1,K-8,K-8,4844.976994410891
15633136008817,Active,No,Traditional,Intermediate/Middle/Junior High,Public,Haven Drive Middle,Arvin Union,Kern,341 Haven Drive,Arvin,CA,No,1,7-8,7-8,4840.698961176441
13630736008304,Active,No,Traditional,Elementary,Public,Phil D. Swing Elementary,Brawley Elementary,Imperial,245 West A Street,Brawley,CA,No,1,K-6,K-6,4809.99870158699
42692296045611,Active,No,Traditional,Elementary,Public,La Canada Elementary,Lompoc Unified,Santa Barbara,621 West North Avenue,Lompoc,CA,No,1,K-6,K-6,4783.274543135026
54718606053904,Active,No,Traditional,Elementary,Public,Cutler Elementary,Cutler-Orosi Joint Unified,Tulare,40532 Road 128,Cutler,CA,No,1,K-5,K-5,4750.448845106571
30736506095137,Active,No,Traditional,Intermediate/Middle/Junior High,Public,Venado Middle,Irvine Unified,Orange,4 Deerfield Avenue,Irvine,CA,No,1,7-8,7-8,4735.842505365761
58105870113274,Active,No,County Community School,Intermediate/Middle/Junior High - High Combination,Public,Thomas E. Mathews Community,Yuba County Office of Education,Yuba,1127 E Street,Marysville,CA,No,1,7-12,7-12,4729.331358843587
39685930108613,Active,No,Traditional,Elementary - Intermediate/Middle/Junior High Combination,Public,Veritas Elementary,Manteca Unified,San Joaquin,1600 Pagola Street,Manteca,CA,No,1,K-8,K-8,4716.1863948820865
20652436023949,Active,No,Traditional,Elementary - Intermediate/Middle/Junior High Combination,Public,Dixieland Elementary,Madera Unified,Madera,18440 Road 19,Madera,CA,No,1,K-8,K-8,4688.175021090987
37684526107031,Active,No,Traditional,Elementary,Public,Alamosa Park Elementary,Vista Unified,San Diego,5130 Alamosa Park Drive,Oceanside,CA,No,1,K-5,K-5,4545.028196396896
27660356026116,Active,No,Traditional,Elementary,Public,Mary Chapa Academy,Greenfield Union Elementary,Monterey,490 El Camino Real,Greenfield,CA,No,1,K-6,K-6,4485.791450261589
42691386119804,Active,No,Traditional,Elementary,Public,Oak Valley Elementary,Buellton Union Elementary,Santa Barbara,595 Second Street,Buellton,CA,No,1,K-5,K-5,4483.998530604728
39754990102384,Active,Yes,Traditional,Elementary,Public,Primary Charter,Tracy Joint Unified,San Joaquin,51 East Beverly Place,Tracy,CA,Yes,3,K-4,K-4,4470.013966689428
39754990102392,Active,Yes,Traditional,High School,Public,Millennium Charter,Tracy Joint Unified,San Joaquin,51 East Beverly Place,Tracy,CA,Yes,3,9-12,9-12,4470.013966689428
39754996118665,Active,Yes,Traditional,Intermediate/Middle/Junior High,Public,Discovery Charter,Tracy Joint Unified,San Joaquin,51 East Beverly Place,Tracy,CA,Yes,3,5-8,5-8,4470.013966689428
15634040106575,Active,No,Traditional,Elementary,Public,Harvest Elementary,Delano Union Elementary,Kern,1320 Vassar Avenue,Delano,CA,Yes,2,K-5,K-5,4424.671803875923
15634040112185,Active,No,Traditional,Intermediate/Middle/Junior High,Public,La Vina Middle,Delano Union Elementary,Kern,1331 Browning Road,Delano,CA,Yes,2,6-8,5-8,4424.671803875923
10622406006720,Active,Yes,Traditional,Elementary,Public,Washington Elementary,Kingsburg Elementary Charter,Fresno,1501 Ellis Street,Kingsburg,CA,No,1,K,K,4336.694819854393
56724476054969,Active,No,Traditional,Intermediate/Middle/Junior High,Public,Briggs Elementary,Briggs Elementary,Ventura,14438 West Telegraph Road,Santa Paula,CA,No,1,5-8,5-8,4335.6508757954425
35675046095202,Active,No,Traditional,Elementary - Intermediate/Middle/Junior High Combination,Public,Spring Grove Elementary,North County Joint Union Elementary,San Benito,500 Spring Grove Road,Hollister,CA,No,1,K-8,K-8,4330.9904730745375
10624146007132,Active,No,Traditional,Elementary,Public,Jackson Elementary,Sanger Unified,Fresno,1810 Third Street,Sanger,CA,No,1,P-6,K-6,4317.473850725665
10622656006878,Active,No,Traditional,Elementary,Public,Washington Elementary,Kings Canyon Joint Unified,Fresno,1250 K Street,Reedley,CA,No,1,P-5,K-5,4270.674743122522
27662256115182,Active,No,Traditional,Intermediate/Middle/Junior High,Public,Buena Vista Middle,Spreckels Union Elementary,Monterey,18250 Tara Drive,Salinas,CA,No,1,6-8,6-8,4245.453415196469
10624146007108,Active,No,Traditional,Elementary,Public,Centerville Elementary,Sanger Unified,Fresno,48 South Smith Avenue,Sanger,CA,No,1,K-6,K-6,4238.534112073363
56724626055024,Active,No,Traditional,Elementary,Public,Art Haycox Elementary,Hueneme Elementary,Ventura,5400 Perkins Road,Oxnard,CA,No,1,K-5,K-5,4171.8933100120385
50711750110593,Active,No,Traditional,High School,Public,James C. Enochs High,Modesto City High,Stanislaus,3201 Sylvan Avenue,Modesto,CA,No,1,9-12,9-12,4137.789283458011
15638591536440,Active,No,Traditional,High School,Public,Wasco High,Wasco Union High,Kern,1900 Seventh Street,Wasco,CA,No,1,9-12,9-12,4120.940932649639
34674136033708,Active,No,Traditional,Elementary,Public,Walnut Grove Elementary,River Delta Joint Unified,Sacramento,14181 Grove Street,Walnut Grove,CA,No,1,K-6,K-6,4118.8078538507
30736500129155,Active,No,Traditional,Elementary,Public,Cypress Village Elementary,Irvine Unified,Orange,355 Rush Lily,Irvine,CA,No,1,K-6,K-6,4108.796117281077
37735696088991,Active,No,Traditional,Elementary,Public,Del Rio Elementary,Oceanside Unified,San Diego,5200 North River Road,Oceanside,CA,No,1,K-5,K-5,4102.989066833222
52715716053565,Active,No,Traditional,Elementary - Intermediate/Middle/Junior High Combination,Public,Los Molinos Elementary,Los Molinos Unified,Tehama,7700 Stanford,Los Molinos,CA,No,1,K-8,K-8,4099.332318702107
27661592734556,Active,No,Traditional,High School,Public,Salinas High,Salinas Union High,Monterey,726 South Main Street,Salinas,CA,No,1,9-12,9-12,4079.777787302995
10621666111249,Active,No,Traditional,Elementary,Public,Edith B. Storey Elementary,Fresno Unified,Fresno,5250 East Church Avenue,Fresno,CA,No,1,K-6,K-6,4051.3340537779054
54755315431184,Active,No,Traditional,High School,Public,Dinuba High,Dinuba Unified,Tulare,340 East Kern Street,Dinuba,CA,No,1,9-12,9-12,4032.7368621074697
39686760100206,Active,No,Traditional,Elementary - Intermediate/Middle/Junior High Combination,Public,George W. Bush Elementary,Stockton Unified,San Joaquin,5420 Fred Russo Drive,Stockton,CA,No,1,K-8,K-8,4032.414804701701
57727105738802,Active,No,Traditional,High School,Public,Woodland Senior High,Woodland Joint Unified,Yolo,21 North West Street,Woodland,CA,No,1,9-12,9-12,4020.7999541836225
50755725030317,Active,Yes,Traditional,Elementary - High Combination,Public,Connecting Waters Charter,Waterford Unified,Stanislaus,12420 Bentley Street,Waterford,CA,No,1,K-12,K-12,4020.3387767805666
50755720117770,Active,No,Traditional,Elementary,Public,Lucille Whitehead Intermediate,Waterford Unified,Stanislaus,119 North Reinway Avenue,Waterford,CA,Yes,2,4-6,4-6,3985.803353904491
50755720118513,Active,No,Traditional,Elementary,Public,Richard M. Moon Primary,Waterford Unified,Stanislaus,319 North Reinway Avenue,Waterford,CA,Yes,2,K-3,K-3,3985.803353904491
56725616055529,Active,No,Traditional,Elementary - Intermediate/Middle/Junior High Combination,Public,Rio Real Elementary,Rio Elementary,Ventura,1140 Kenney Street,Oxnard,CA,No,1,K-8,K-8,3920.0253746793846
15638346010227,Active,No,Traditional,Intermediate/Middle/Junior High,Public,Sunset,Vineland Elementary,Kern,14713 Weedpatch Highway,Bakersfield,CA,No,1,5-8,5-8,3904.208959059227
39685936042311,Active,No,Traditional,Elementary - Intermediate/Middle/Junior High Combination,Public,French Camp Elementary,Manteca Unified,San Joaquin,241 East Fourth Street,French Camp,CA,No,1,K-8,K-8,3892.1635969854237
50711676052641,Active,No,Traditional,Elementary,Public,Burbank Elementary,Modesto City Elementary,Stanislaus,1135 Paradise Road,Modesto,CA,No,1,K-6,K-6,3875.723437037173
10624146117865,Active,Yes,Traditional,Elementary - Intermediate/Middle/Junior High Combination,Public,Quail Lake Environmental Charter,Sanger Unified,Fresno,4087 North Quail Lake Drive,Clovis,CA,No,1,K-8,K-8,3847.8178593845732
10622651030378,Active,No,Alternative School of Choice,Elementary - High Combination,Public,Mountain View (Alternative),Kings Canyon Joint Unified,Fresno,877 E. North Avenue,Reedley,CA,Yes,2,K-12,1-12,3844.897794303716
10622651035310,Active,No,Traditional,High School,Public,Reedley High,Kings Canyon Joint Unified,Fresno,740 West North Avenue,Reedley,CA,Yes,2,9-12,9-12,3844.897794303716
39754996108997,Active,No,Traditional,Elementary - Intermediate/Middle/Junior High Combination,Public,Gladys Poet-Christian Elementary,Tracy Joint Unified,San Joaquin,1701 South Central Avenue,Tracy,CA,No,1,K-8,K-8,3752.8157868683356
51714646053342,Active,No,Traditional,Elementary,Public,April Lane Elementary,Yuba City Unified,Sutter,800 April Lane,Yuba City,CA,No,1,K-5,K-5,3741.485781118435
56725386055297,Active,No,Traditional,Elementary,Public,Harrington Elementary,Oxnard,Ventura,451 East Olive Street,Oxnard,CA,No,1,K-5,K-5,3728.0082110940666
13632306008650,Active,No,Traditional,Elementary - Intermediate/Middle/Junior High Combination,Public,Westmorland Elementary,Westmorland Union Elementary,Imperial,200 South C Street,Westmorland,CA,No,1,K-8,K-8,3727.7847961183315
39686760115303,Active,No,Traditional,Elementary - Intermediate/Middle/Junior High Combination,Public,Valentine Peyton Elementary,Stockton Unified,San Joaquin,2525 Gold Brook Drive,Stockton,CA,No,1,K-8,K-8,3700.0557154824746
15638426010243,Active,No,Traditional,Elementary,Public,Karl F. Clemens Elementary,Wasco Union Elementary,Kern,523 Broadway Avenue,Wasco,CA,No,1,K-5,K-5,3694.0748767790615
50710760101493,Active,No,Traditional,Intermediate/Middle/Junior High,Public,Norman N. Glick Middle,Empire Union Elementary,Stanislaus,400 Frazine Road,Modesto,CA,No,1,7-8,7-8,3631.9537132441674
10622816006894,Active,No,Traditional,Intermediate/Middle/Junior High,Public,Laton Middle,Laton Joint Unified,Fresno,6065 East Latonia,Laton,CA,Yes,2,6-8,6-8,3614.7329258271784
10622816006902,Active,No,Traditional,Elementary,Public,Laton Elementary,Laton Joint Unified,Fresno,6065 Latonia,Laton,CA,Yes,2,K-5,K-5,3614.7329258271784
39685936042394,Active,No,Traditional,Elementary - Intermediate/Middle/Junior High Combination,Public,Shasta Elementary,Manteca Unified,San Joaquin,751 East Edison Street,Manteca,CA,No,1,K-8,K-8,3593.9234320759156
27661426026603,Active,No,Traditional,Elementary,Public,Roosevelt Elementary,Salinas City Elementary,Monterey,120 Capitol Street,Salinas,CA,No,1,K-6,K-6,3591.9865214089173
50736010124073,Active,No,Traditional,Elementary,Public,Hurd Barrington Elementary,Newman-Crows Landing Unified,Stanislaus,838 Eucalyptus Avenue,Newman,CA,No,1,K-5,K-5,3589.4329865861873
30736506100317,Active,No,Traditional,Elementary,Public,Eastshore Elementary,Irvine Unified,Orange,155 Eastshore,Irvine,CA,No,1,K-6,K-6,3573.5759966102396
42692294233060,Active,No,Traditional,High School,Public,Lompoc High,Lompoc Unified,Santa Barbara,515 West College Avenue,Lompoc,CA,No,1,9-12,9-12,3568.2682761612787
39754996042832,Active,No,Traditional,Elementary,Public,Central Elementary,Tracy Joint Unified,San Joaquin,200 West Eaton Avenue,Tracy,CA,No,1,K-5,K-5,3560.3767815996107
50736016025753,Active,No,Traditional,Elementary,Public,Von Renner Elementary,Newman-Crows Landing Unified,Stanislaus,1388 Patchett Drive,Newman,CA,No,1,K-5,K-5,3548.9777252301637
39685856108856,Active,No,Traditional,Elementary,Public,Beckman Elementary,Lodi Unified,San Joaquin,2201 Scarborough Drive,Lodi,CA,No,1,P-6,K-6,3544.6177237568877
20651776023865,Active,No,Traditional,Elementary,Public,Alview Elementary,Alview-Dairyland Union Elementary,Madera,20513 Road 4,Chowchilla,CA,No,1,K-3,K-3,3531.640473533979
54767946108286,Active,No,Traditional,Elementary,Public,Castle Rock Elementary,Woodlake Unified,Tulare,360 North Castle Rock Street,Woodlake,CA,No,1,3-5,3-5,3527.788295172857
50711676052690,Active,No,Traditional,Elementary,Public,Franklin Elementary,Modesto City Elementary,Stanislaus,120 South Emerald Avenue,Modesto,CA,No,1,K-6,K-6,3490.828477755954
54755316054001,Active,No,Traditional,Elementary,Public,Wilson Elementary,Dinuba Unified,Tulare,305 East Kamm Avenue,Dinuba,CA,No,1,K-6,K-6,3480.7927492509207
15638426010250,Active,No,Traditional,Intermediate/Middle/Junior High,Public,Palm Avenue Middle,Wasco Union Elementary,Kern,1017 Palm Avenue,Wasco,CA,No,1,6-8,6-8,3440.2724295029016
10621170123869,Active,No,Traditional,Elementary,Public,Roger S. Oraze Elementary,Clovis Unified,Fresno,3468 North Armstrong Avenue,Fresno,CA,No,1,K-6,K-6,3435.483412884611
15638426010268,Active,No,Traditional,Intermediate/Middle/Junior High,Public,Thomas Jefferson Middle,Wasco Union Elementary,Kern,305 Griffith Avenue,Wasco,CA,No,1,6-8,6-8,3420.9109567065707
54720826114672,Active,No,Traditional,Elementary - Intermediate/Middle/Junior High Combination,Public,Richgrove Elementary,Richgrove Elementary,Tulare,20812 Grove Drive,Richgrove,CA,No,1,K-8,K-8,3405.5810839439405
39685936107429,Active,No,Traditional,Elementary - Intermediate/Middle/Junior High Combination,Public,George McParland Elementary,Manteca Unified,San Joaquin,1601 Northgate Drive,Manteca,CA,No,1,K-8,K-8,3396.7348396291795
58105875830112,Active,Yes,Traditional,Elementary - High Combination,Public,Yuba County Career Preparatory Charter,Yuba County Office of Education,Yuba,1104 E Street,Marysville,CA,No,1,K-12,K-12,3386.4184246245245
27660356111645,Active,No,Traditional,Intermediate/Middle/Junior High,Public,Vista Verde Middle,Greenfield Union Elementary,Monterey,1199 Elm Avenue,Greenfield,CA,No,1,7-8,7-8,3350.354992565334
56726526056147,Active,No,Traditional,Elementary,Public,Montalvo Elementary,Ventura Unified,Ventura,2050 Grand Avenue,Ventura,CA,No,1,K-5,K-5,3344.7528266621616
54721570114595,Active,No,Traditional,Elementary - Intermediate/Middle/Junior High Combination,Public,Strathmore Elementary,Strathmore Union Elementary,Tulare,23024 Avenue 198,Strathmore,CA,Yes,2,K-8,K-8,3324.035176938845
54721576120646,Active,No,Community Day School,Intermediate/Middle/Junior High,Public,Strathmore Community Day,Strathmore Union Elementary,Tulare,19938 Road 230,Strathmore,CA,Yes,2,K-8,5-8,3324.035176938845
54720906054324,Active,No,Traditional,Elementary - Intermediate/Middle/Junior High Combination,Public,Rockford Elementary,Rockford Elementary,Tulare,14983 Road 208,Porterville,CA,No,1,K-8,K-8,3293.052504528901
10624301036672,Active,No,Traditional,High School,Public,Selma High,Selma Unified,Fresno,3125 Wright Street,Selma,CA,No,1,9-12,9-12,3291.93369905889
50755566052971,Active,No,Traditional,Elementary,Public,California Avenue Elementary,Riverbank Unified,Stanislaus,3800 California Avenue,Riverbank,CA,No,1,K-5,K-5,3280.2234663234763
50757396053177,Active,No,Traditional,Elementary,Public,Julien Elementary,Turlock Unified,Stanislaus,1924 East Canal Drive,Turlock,CA,No,1,K-6,K-6,3275.139299543472
54768366110290,Active,No,Traditional,Intermediate/Middle/Junior High,Public,Wilson Middle,Exeter Unified,Tulare,710 West Maple Street,Exeter,CA,No,1,6-8,6-8,3265.936216827509
10622811033950,Active,No,Traditional,High School,Public,Laton High,Laton Joint Unified,Fresno,6449 DeWoody,Laton,CA,No,1,9-12,9-12,3247.279980172506
27661426109177,Active,No,Traditional,Elementary,Public,Laurel Wood Elementary,Salinas City Elementary,Monterey,645 Larkin Street,Salinas,CA,No,1,K-6,K-6,3211.2410185949793
58727366056733,Active,No,Traditional,Elementary,Public,Covillaud Elementary,Marysville Joint Unified,Yuba,628 F Street,Marysville,CA,No,1,K-5,K-5,3208.292810459429
39685936042329,Active,No,Traditional,Elementary - Intermediate/Middle/Junior High Combination,Public,Golden West Elementary,Manteca Unified,San Joaquin,1031 North Main Street,Manteca,CA,No,1,K-8,K-8,3177.9156693786745
54755310102707,Active,No,Traditional,Elementary,Public,John F. Kennedy Elementary,Dinuba Unified,Tulare,999 North Crawford,Dinuba,CA,Yes,2,K-6,K-6,3093.4800838373617
42692036045520,Active,No,Traditional,Intermediate/Middle/Junior High,Public,Kermit McKenzie Intermediate,Guadalupe Union Elementary,Santa Barbara,4710 West Main Street,Guadalupe,CA,No,1,4-8,5-8,3087.978939868005
04755070433946,Active,No,Continuation School,Intermediate/Middle/Junior High - High Combination,Public,Esperanza High (Continuation),Gridley Unified,Butte,581 B Jackson Street,Gridley,CA,No,1,9-12,8-12,3061.2088033477507
54755316053995,Active,No,Traditional,Intermediate/Middle/Junior High,Public,Washington Intermediate,Dinuba Unified,Tulare,1150 North Hayes Avenue,Dinuba,CA,Yes,2,7-8,7-8,3053.7447156836433
10624146007181,Active,No,Traditional,Elementary,Public,Madison Elementary,Sanger Unified,Fresno,2324 Cherry Street,Sanger,CA,No,1,P-6,K-6,3052.3320894078233
15635606009682,Active,No,Traditional,Elementary,Public,Lamont Elementary,Lamont Elementary,Kern,8201 Palm Avenue,Lamont,CA,No,1,K-4,K-4,3043.4380072938907
57727106066252,Active,No,Traditional,Elementary,Public,Rhoda Maxwell Elementary,Woodland Joint Unified,Yolo,50 Ashley Avenue,Woodland,CA,No,1,K-6,K-6,3037.327317501473
44697994430245,Active,Yes,Traditional,High School,Public,Diamond Technology Institute,Pajaro Valley Unified,Santa Cruz,112 Diamond Drive,Watsonville,CA,Yes,2,9-12,9-12,3027.0301338396116
44697996108146,Active,No,Traditional,Elementary,Public,Starlight Elementary,Pajaro Valley Unified,Santa Cruz,225 Hammer Drive,Watsonville,CA,Yes,2,K-5,K-5,3027.0301338396116
10624306007348,Active,No,Traditional,Elementary,Public,Woodrow Wilson Elementary,Selma Unified,Fresno,1325 Stillman Street,Selma,CA,No,1,K-6,K-6,3009.833847508771
49705996051577,Active,No,Traditional,Elementary,Public,Alexander Valley Elementary,Alexander Valley Union Elementary,Sonoma,8511 Highway 128,Healdsburg,CA,No,1,K-6,K-6,2980.7700556337836
10624146007165,Active,No,Traditional,Elementary,Public,Lincoln Elementary,Sanger Unified,Fresno,1700 14th Street,Sanger,CA,No,1,P-6,K-6,2968.0418824438675
54722566054647,Active,No,Traditional,Elementary,Public,Mineral King Elementary,Visalia Unified,Tulare,3333 East Kaweah Avenue,Visalia,CA,No,1,P-6,K-6,2930.0466165061066
56725465631619,Active,No,Traditional,High School,Public,Adolfo Camarillo High,Oxnard Union High,Ventura,4660 Mission Oaks Boulevard,Camarillo,CA,No,1,9-12,9-12,2914.3342072598407
57105790113787,Active,No,County Community School,High School,Public,Cesar Chavez Community,Yolo County Office of Education,Yolo,255 West Beamer Street,Woodland,CA,Yes,2,7-12,9-12,2897.6900477172403
57105796077275,Active,No,Special Education School,Elementary - High Combination,Public,Yolo County Special Education,Yolo County Office of Education,Yolo,285 West Beamer Street,Woodland,CA,Yes,2,K-12,K-12,2897.6900477172403
51714156053300,Active,No,Traditional,Elementary - Intermediate/Middle/Junior High Combination,Public,Meridian Elementary,Meridian Elementary,Sutter,15898 Central Street,Meridian,CA,No,1,K-8,K-8,2863.0541987888046
30736500127472,Active,No,Traditional,Intermediate/Middle/Junior High,Public,Jeffrey Trail Middle,Irvine Unified,Orange,155 Visions,Irvine,CA,No,1,7-8,7-8,2795.0973337998603
13631726008585,Active,No,Traditional,Elementary - Intermediate/Middle/Junior High Combination,Public,Magnolia Elementary,Magnolia Union Elementary,Imperial,4502 Casey Road,Brawley,CA,No,1,K-8,K-8,2793.8081292355755
39685856042139,Active,No,Traditional,Elementary,Public,Lakewood Elementary,Lodi Unified,San Joaquin,1100 North Ham Lane,Lodi,CA,No,1,K-6,K-6,2786.1982160158036
10624141030824,Active,No,Community Day School,Intermediate/Middle/Junior High,Public,Community Day,Sanger Unified,Fresno,818 L Street,Sanger,CA,No,1,7-11,7-10,2679.2712855696946
43694846047336,Active,No,Traditional,Elementary,Public,Rucker Elementary,Gilroy Unified,Santa Clara,325 Santa Clara Avenue,Gilroy,CA,No,1,K-5,K-5,2624.1838999496676
50712170118927,Active,No,Traditional,Elementary - Intermediate/Middle/Junior High Combination,Public,Walnut Grove Elementary,Patterson Joint Unified,Stanislaus,775 North Hartley Street,Patterson,CA,No,1,K-8,K-8,2623.625585188156
10624146007207,Active,No,Traditional,Intermediate/Middle/Junior High,Public,Washington Academic Middle,Sanger Unified,Fresno,1705 Tenth Street,Sanger,CA,Yes,2,7-8,7-8,2597.646118606653
10741531095017,Active,No,Regional Occupational Center/Program,High School,Public,Valley ROP,Valley ROP,Fresno,1305 Q Street,Sanger,CA,Yes,2,9-12,No Data,2597.646118606653
24658136025779,Active,No,Traditional,Elementary - Intermediate/Middle/Junior High Combination,Public,Plainsburg Union Elementary,Plainsburg Union Elementary,Merced,3708 South Plainsburg Road,Merced,CA,No,1,K-8,K-8,2542.9023018095677
10622656006803,Active,No,Traditional,Elementary,Public,Lincoln Elementary,Kings Canyon Joint Unified,Fresno,374 East North Avenue,Reedley,CA,No,1,P-5,K-5,2519.1977243960064
39685856042188,Active,No,Traditional,Elementary - Intermediate/Middle/Junior High Combination,Public,Lockeford Elementary,Lodi Unified,San Joaquin,19456 North Tully Road,Lockeford,CA,No,1,K-8,K-8,2499.7040955196776
10621660129338,Active,No,Traditional,Intermediate/Middle/Junior High,Public,Rutherford B. Gaston Sr. Middle,Fresno Unified,Fresno,1100 East Church Avenue,Fresno,CA,No,1,7-8,7-8,2481.0132207917404
48705406109136,Active,No,Traditional,Elementary - Intermediate/Middle/Junior High Combination,Public,B. Gale Wilson Elementary,Fairfield-Suisun Unified,Solano,3301 Cherry Hills Court,Fairfield,CA,No,1,K-8,K-8,2470.878759378566
37768510110122,Active,No,Traditional,Elementary,Public,Bonsall West Elementary,Bonsall Unified,San Diego,5050 El Mirlo Drive,Oceanside,CA,No,1,K-6,K-6,2465.194017994186
39685856116594,Active,Yes,Traditional,Elementary,Public,Aspire Vincent Shalvey Academy,Lodi Unified,San Joaquin,10038 Highway 99 East Frontage Road,Stockton,CA,No,1,K-5,K-5,2457.292017394776
39685850108209,Active,No,Traditional,Elementary,Public,Ellerth E. Larson Elementary,Lodi Unified,San Joaquin,2375 Giannoni Way,Lodi,CA,No,1,K-6,K-6,2375.703042931712
43694846047302,Active,No,Traditional,Elementary,Public,Eliot Elementary,Gilroy Unified,Santa Clara,475 Old Gilroy Street,Gilroy,CA,No,1,K-5,K-5,2357.840331410238
39685856042055,Active,No,Traditional,Elementary,Public,Davis Elementary,Lodi Unified,San Joaquin,5224 East Morada Lane,Stockton,CA,No,1,K-6,K-6,2348.302327356761
27661426026538,Active,No,Traditional,Elementary,Public,Henry F. Kammann Elementary,Salinas City Elementary,Monterey,521 Rochex Street,Salinas,CA,No,1,K-6,K-6,2344.526337863864
30736506098511,Active,No,Traditional,Intermediate/Middle/Junior High,Public,Lakeside Middle,Irvine Unified,Orange,3 Lemongrass,Irvine,CA,No,1,7-8,7-8,2329.6858207549017
57727106056477,Active,No,Traditional,Elementary,Public,Freeman Elementary,Woodland Joint Unified,Yolo,126 North West Street,Woodland,CA,No,1,K-6,K-6,2293.9302624703296
49753586110993,Active,No,Traditional,Elementary,Public,Mattie Washburn Elementary,Windsor Unified,Sonoma,75 Pleasant Avenue,Santa Rosa,CA,No,1,K-2,K-2,2275.7145449999744
13101321330117,Active,No,Juvenile Court School,Intermediate/Middle/Junior High - High Combination,Public,Imperial County Juvenile Hall/Community,Imperial County Office of Education,Imperial,1398 Sperber Road,El Centro,CA,Yes,2,K-12,8-11,2271.2300140791244
13101326069272,Active,No,Special Education School,Elementary - High Combination,Public,Imperial County Special Education,Imperial County Office of Education,Imperial,1398 Sperber Road,El Centro,CA,Yes,2,K-12,K-12,2271.2300140791244
50712900113795,Active,No,Traditional,Elementary,Public,Crossroads Elementary,Sylvan Union Elementary,Stanislaus,5800 Saxon Way,Riverbank,CA,No,1,K-5,K-5,2266.7030081288526
10624146007157,Active,No,Traditional,Elementary,Public,John S. Wash Elementary,Sanger Unified,Fresno,6350 East Lane Avenue,Fresno,CA,No,1,P-6,K-6,2258.350323687445
27661426026595,Active,No,Traditional,Elementary,Public,Natividad Elementary,Salinas City Elementary,Monterey,1465 Modoc Avenue,Salinas,CA,No,1,K-6,K-6,2233.687349533314
39685850102640,Active,No,Traditional,Intermediate/Middle/Junior High,Public,Millswood Middle,Lodi Unified,San Joaquin,233 North Mills Avenue,Lodi,CA,No,1,7-8,7-9,2225.5217108548886
13631230122663,Active,Yes,Traditional,Elementary - Intermediate/Middle/Junior High Combination,Public,Imperial Valley Home School Academy,El Centro Elementary,Imperial,2370 Main Street,El Centro,CA,Yes,2,K-8,K-8,2224.7215790631503
13631236113658,Active,No,Traditional,Elementary,Public,Sunflower Elementary,El Centro Elementary,Imperial,2450 Main Street,El Centro,CA,Yes,2,K-6,K-6,2224.7215790631503
39685853934759,Active,No,Traditional,High School,Public,Tokay High,Lodi Unified,San Joaquin,1111 West Century Boulevard,Lodi,CA,No,1,9-12,9-12,2222.6579286077585
10624141030766,Active,Yes,Traditional,Elementary - High Combination,Public,Hallmark Charter,Sanger Unified,Fresno,2445 Ninth Street,Sanger,CA,Yes,2,K-12,K-12,2208.9487383593523
10624146117873,Active,Yes,Traditional,Elementary - Intermediate/Middle/Junior High Combination,Public,Sanger Academy Charter,Sanger Unified,Fresno,2207 Ninth Street,Sanger,CA,Yes,2,K-8,K-8,2208.9487383593523
43695836098263,Active,No,Traditional,Elementary - Intermediate/Middle/Junior High Combination,Public,Jackson Academy of Music and Math (JAMM),Morgan Hill Unified,Santa Clara,2700 Fountain Oaks Drive,Morgan Hill,CA,No,1,K-8,K-8,2201.647547445035
50712826067250,Active,No,Traditional,Intermediate/Middle/Junior High,Public,Prescott Junior High,Stanislaus Union Elementary,Stanislaus,2243 West Rumble Road,Modesto,CA,No,1,7-8,7-8,2201.5117385647154
42691206045991,Active,No,Traditional,Intermediate/Middle/Junior High,Public,El Camino Junior High,Santa Maria-Bonita,Santa Barbara,219 West El Camino,Santa Maria,CA,No,1,7-8,7-8,2175.623181101249
20652430110965,Active,No,Traditional,High School,Public,Madera South High,Madera Unified,Madera,755 West Pecan Avenue,Madera,CA,Yes,3,9-12,9-12,2145.877103455662
20652432035640,Active,No,Alternative School of Choice,High School,Public,Furman (Duane E.) High (Independent Study Program),Madera Unified,Madera,955 West Pecan Avenue,Madera,CA,Yes,3,K-12,9-12,2145.877103455662
20652436107122,Active,No,Traditional,Elementary,Public,Alpha Elementary,Madera Unified,Madera,900 Stadium Road,Madera,CA,Yes,3,K-6,K-6,2145.873851160146
51714646053441,Active,No,Traditional,Elementary - Intermediate/Middle/Junior High Combination,Public,Tierra Buena Elementary,Yuba City Unified,Sutter,1794 Villa Avenue,Yuba City,CA,No,1,K-8,K-8,2129.387006580535
58727440114652,Active,No,Traditional,Elementary,Public,Cobblestone Elementary,Plumas Lake Elementary,Yuba,1718 Churchill Way,Plumas Lake,CA,No,1,K-5,K-5,2103.68679371097
10622656006829,Active,No,Traditional,Intermediate/Middle/Junior High,Public,Navelencia Middle,Kings Canyon Joint Unified,Fresno,22620 East Wahtoke Avenue,Reedley,CA,No,1,6-8,6-8,2081.914540236039
27661596058762,Active,No,Traditional,Intermediate/Middle/Junior High,Public,El Sausal Middle,Salinas Union High,Monterey,1155 East Alisal Street,Salinas,CA,No,1,7-8,7-8,2073.4934484267305
15638591530351,Active,No,Continuation School,High School,Public,Wasco Independence High,Wasco Union High,Kern,1445 Poso Drive,Wasco,CA,No,1,9-12,9-12,2070.321131570497
50105040131235,Active,No,County Community School,Intermediate/Middle/Junior High - High Combination,Public,John B Allard,Stanislaus County Office of Education,Stanislaus,3113 Mitchell Road,Ceres,CA,No,1,6-12,6-12,2055.977669496433
20102072030229,Active,Yes,County Community School,Intermediate/Middle/Junior High - High Combination,Public,Pioneer Technical Center,Madera County Superintendent of Schools,Madera,28261 Avenue 14,Madera,CA,No,1,P-12,7-12,2044.1594171954764
51714645130125,Active,Yes,Traditional,Elementary - High Combination,Public,Yuba City Charter,Yuba City Unified,Sutter,256 Wilbur Avenue,Yuba City,CA,No,1,K-12,K-12,2037.359758488191
39685936109532,Active,No,Traditional,Elementary - Intermediate/Middle/Junior High Combination,Public,Stella Brockman Elementary,Manteca Unified,San Joaquin,763 Silverado Drive,Manteca,CA,No,1,K-8,K-8,2037.1642733445947
17769761737006,Active,No,Traditional,High School,Public,Upper Lake High,Upper Lake Unified,Lake,675 Clover Valley Road,Upper Lake,CA,No,1,9-12,9-12,2028.7192087922917
10621666088546,Active,No,Traditional,Elementary,Public,King Elementary,Fresno Unified,Fresno,1001 East Florence Avenue,Fresno,CA,No,1,K-6,K-6,2028.5109919526794
50710430133827,Active,No,Special Education School,High School,Public,Ceres Special Education,Ceres Unified,Stanislaus,2503 Lawrence Street,Ceres,CA,Yes,3,K-12,12,1977.2205827056102
50710435030200,Active,No,Continuation School,High School,Public,Argus High (Continuation),Ceres Unified,Stanislaus,2555 Lawrence Street,Ceres,CA,Yes,3,9-12,10-12,1977.2205827056102
50710436052450,Active,No,Traditional,Elementary,Public,Walter White Elementary,Ceres Unified,Stanislaus,2904 Sixth Street,Ceres,CA,Yes,3,K-6,K-6,1977.2205827056102
10621666112882,Active,No,Traditional,Intermediate/Middle/Junior High,Public,Elizabeth Terronez Middle,Fresno Unified,Fresno,2300 South Willow,Fresno,CA,No,1,6-8,7-8,1965.3628384447954
56726526097034,Active,No,Traditional,Elementary,Public,Portola Elementary,Ventura Unified,Ventura,6700 Eagle Street,Ventura,CA,No,1,K-5,K-5,1952.5246047388212
37684526107577,Active,No,Traditional,Intermediate/Middle/Junior High,Public,Roosevelt Middle,Vista Unified,San Diego,850 Sagewood Drive,Oceanside,CA,No,1,6-8,6-8,1949.7338379434063
54719936054159,Active,No,Traditional,Elementary - Intermediate/Middle/Junior High Combination,Public,Washington Elementary,Lindsay Unified,Tulare,451 East Samoa Street,Lindsay,CA,No,1,P-8,K-8,1931.8267160048167
10621176005920,Active,No,Traditional,Elementary,Public,Temperance-Kutner Elementary,Clovis Unified,Fresno,1448 North Armstrong Avenue,Fresno,CA,No,1,K-6,K-6,1922.0585414084487
54755316053987,Active,No,Traditional,Elementary,Public,Lincoln Elementary,Dinuba Unified,Tulare,850 North Eaton Avenue,Dinuba,CA,No,1,K-6,K-6,1906.8385860113524
56726526116040,Active,No,Traditional,Elementary,Public,Citrus Glen Elementary,Ventura Unified,Ventura,9655 Darling Road,Ventura,CA,No,1,K-5,K-5,1835.9502082777724
15634046117915,Active,No,Traditional,Elementary,Public,Morningside,Delano Union Elementary,Kern,2100 Summer Drive,Delano,CA,No,1,K-5,K-5,1811.8634151901283
10624306007314,Active,No,Traditional,Elementary,Public,Theodore Roosevelt Elementary,Selma Unified,Fresno,1802 Floral Avenue,Selma,CA,No,1,K-6,K-6,1802.4856368368828
13631236008411,Active,No,Traditional,Elementary - Intermediate/Middle/Junior High Combination,Public,De Anza Magnet,El Centro Elementary,Imperial,1530 South Waterman Avenue,El Centro,CA,Yes,2,K-8,K-8,1786.2519629878589
13631236008460,Active,No,Traditional,Elementary,Public,Margaret Hedrick Elementary,El Centro Elementary,Imperial,550 South Waterman Avenue,El Centro,CA,Yes,2,K-6,K-6,1786.2519629878589
15635290116392,Active,No,Traditional,High School,Public,Independence High,Kern High,Kern,8001 Old River Road,Bakersfield,CA,No,1,9-12,9-12,1772.2587312988849
27661426026546,Active,No,Traditional,Elementary,Public,Lincoln Elementary,Salinas City Elementary,Monterey,705 California Street,Salinas,CA,No,1,K-6,K-6,1747.7610212527838
15634046009369,Active,Yes,Traditional,Elementary,Public,Del Vista Math and Science Academy,Delano Union Elementary,Kern,710 Quincy Street,Delano,CA,No,1,K-5,K-5,1742.1718618961108
34674130107383,Active,No,Community Day School,Intermediate/Middle/Junior High,Public,River Delta Community Day,River Delta Joint Unified,Sacramento,160 Courtland High School Lane,Courtland,CA,Yes,2,7-12,7-10,1729.1965547927857
34674133430550,Active,No,Continuation School,High School,Public,Mokelumne High (Continuation),River Delta Joint Unified,Sacramento,160 Courtland High School Lane,Courtland,CA,Yes,2,9-12,11-12,1729.1965547927857
40687594033205,Active,No,Continuation School,High School,Public,Lopez Continuation High,Lucia Mar Unified,San Luis Obispo,1055 Mesa View Drive,Arroyo Grande,CA,No,1,9-12,10-12,1719.9356477159668
50710766111892,Active,No,Traditional,Elementary,Public,Alice N. Stroud Elementary,Empire Union Elementary,Stanislaus,815 Frazine Road,Modesto,CA,No,1,K-6,K-6,1682.416182056863
54767945436282,Active,No,Traditional,High School,Public,Woodlake High,Woodlake Unified,Tulare,400 West Whitney Avenue,Woodlake,CA,Yes,2,9-12,9-12,1618.8023879448654
54767946054761,Active,No,Traditional,Intermediate/Middle/Junior High,Public,Woodlake Valley Middle,Woodlake Unified,Tulare,497 North Palm Street,Woodlake,CA,Yes,2,6-8,6-8,1618.8023879448654
51713576053235,Active,No,Traditional,Elementary - Intermediate/Middle/Junior High Combination,Public,Brittan Elementary,Brittan Elementary,Sutter,2340 Pepper Street,Sutter,CA,No,1,K-8,K-8,1591.6123150463243
17769766010680,Active,No,Traditional,Elementary,Public,Upper Lake Elementary,Upper Lake Unified,Lake,679 Second Street,Upper Lake,CA,No,1,K-5,K-5,1580.0590254865713
54722566054597,Active,No,Traditional,Elementary,Public,Goshen Elementary,Visalia Unified,Tulare,6505 Avenue 308,Visalia,CA,No,1,P-6,K-6,1538.9278296417808
51713996053284,Active,No,Traditional,Elementary,Public,Luther Elementary,Live Oak Unified,Sutter,10123 Connecticut Avenue,Live Oak,CA,No,1,K-5,K-5,1534.0601711690636
10624301030758,Active,No,Alternative School of Choice,Elementary - High Combination,Public,Selma Independent,Selma Unified,Fresno,2269 Sylvia Street,Selma,CA,Yes,2,7-12,5-12,1507.3759220759782
10624301036607,Active,No,Continuation School,Intermediate/Middle/Junior High - High Combination,Public,Heartland High (Continuation),Selma Unified,Fresno,2269 Sylvia Street,Selma,CA,Yes,2,7-12,8-12,1507.3759220759782
16639176118798,Active,No,Traditional,Elementary,Public,Joseph M. Simas,Hanford Elementary,Kings,1875 Fitzgerald,Hanford,CA,No,1,K-6,K-6,1505.5821092147744
54719930124776,Active,Yes,Traditional,Intermediate/Middle/Junior High - High Combination,Public,Loma Vista Charter,Lindsay Unified,Tulare,290 North Harvard,Lindsay,CA,Yes,3,K-12,8-12,1461.44674935611
54719935430194,Active,No,Continuation School,High School,Public,John J. Cairns Continuation,Lindsay Unified,Tulare,290 North Harvard Avenue,Lindsay,CA,Yes,3,9-12,10-12,1461.44674935611
54719935430236,Active,No,Community Day School,Intermediate/Middle/Junior High - High Combination,Public,Lindsay Community Day,Lindsay Unified,Tulare,270 North Harvard,Lindsay,CA,Yes,3,7-12,7-12,1461.44674935611
50710430109090,Active,No,Traditional,Elementary,Public,Sinclear Elementary,Ceres Unified,Stanislaus,1211 Hackett Road,Ceres,CA,No,1,K-6,K-6,1428.157140263223
50757395037700,Active,No,Traditional,High School,Public,Turlock High,Turlock Unified,Stanislaus,1600 East Canal Drive,Turlock,CA,No,1,9-12,9-12,1426.7180445140793
10622656006845,Active,No,Traditional,Elementary,Public,Sheridan Elementary,Kings Canyon Joint Unified,Fresno,1001 Ninth Street,Orange Cove,CA,No,1,K-5,K-5,1425.5274115270943
52715715235106,Active,No,Traditional,High School,Public,Los Molinos High,Los Molinos Unified,Tehama,7900 Sherwood Boulevard,Los Molinos,CA,No,1,9-12,9-12,1424.492974756356
27660926058713,Active,No,Traditional,Intermediate/Middle/Junior High,Public,Los Arboles Middle,Monterey Peninsula Unified,Monterey,294 Hillcrest Avenue,Marina,CA,No,1,6-8,6-8,1422.6174071708024
50712176052948,Active,No,Traditional,Elementary,Public,Las Palmas Elementary,Patterson Joint Unified,Stanislaus,624 West Las Palmas Avenue,Patterson,CA,No,1,K-5,K-5,1419.868334197594
15633620136713,Active,No,Traditional,Elementary - Intermediate/Middle/Junior High Combination,Public,Dolores S. Whitley Elementary,Panama-Buena Vista Union,Kern,2923 McKee Road,Bakersfield,CA,No,1,K-6,K-8,1402.2599174677175
30667466030886,Active,No,Traditional,Elementary,Public,Sequoia Elementary,Westminster,Orange,5900 Iroquois Road,Westminster,CA,No,1,K-6,K-6,1393.0915476681284
48705406051148,Active,No,Traditional,Elementary - Intermediate/Middle/Junior High Combination,Public,E. Ruth Sheldon Academy of Innovative Learning,Fairfield-Suisun Unified,Solano,1901 Woolner Avenue,Fairfield,CA,No,1,K-8,K-8,1384.5082566903216
50712330121525,Active,Yes,Traditional,Intermediate/Middle/Junior High,Public,Roberts Ferry Charter School Academy,Roberts Ferry Union Elementary,Stanislaus,101 Roberts Ferry Road,Waterford,CA,Yes,2,K-8,6-8,1321.302435292527
50712336053011,Active,No,Traditional,Elementary,Public,Roberts Ferry Union Elementary,Roberts Ferry Union Elementary,Stanislaus,101 Roberts Ferry Road,Waterford,CA,Yes,2,K-8,K-5,1321.302435292527
56725460115105,Active,Yes,Traditional,Elementary - High Combination,Public,Camarillo Academy of Progressive Education,Oxnard Union High,Ventura,777 Aileen Street,Camarillo,CA,No,1,K-12,K-12,1317.5279393948754
57727026095368,Active,No,Traditional,Intermediate/Middle/Junior High,Public,Winters Middle,Winters Joint Unified,Yolo,425 Anderson Avenue,Winters,CA,No,1,6-8,6-9,1313.2386483651371
15635291530385,Active,No,Traditional,High School,Public,Ridgeview High,Kern High,Kern,8501 Stine Road,Bakersfield,CA,No,1,9-12,9-12,1281.0682534235748
06616146003511,Active,No,Traditional,Elementary,Public,Arbuckle Elementary,Pierce Joint Unified,Colusa,701 Hall Street,Arbuckle,CA,No,1,K-5,K-5,1279.02488514692
17769766108773,Active,No,Traditional,Intermediate/Middle/Junior High,Public,Upper Lake Middle,Upper Lake Unified,Lake,725 Old Lucerne Road,Upper Lake,CA,No,1,6-8,6-8,1267.3412766412478
13631316008502,Active,No,Traditional,Elementary - Intermediate/Middle/Junior High Combination,Public,Heber Elementary,Heber Elementary,Imperial,1052 Heber Avenue,Heber,CA,No,1,4-8,4-8,1250.534738798613
15635290100198,Active,No,Traditional,High School,Public,Golden Valley High,Kern High,Kern,801 Hosking Avenue,Bakersfield,CA,No,1,9-12,9-12,1240.3164772775476
27661592733178,Active,No,Traditional,High School,Public,North Salinas High,Salinas Union High,Monterey,55 Kip Drive,Salinas,CA,No,1,9-12,9-12,1226.59620757192
04614240110551,Active,Yes,Traditional,Elementary - Intermediate/Middle/Junior High Combination,Public,Nord Country,Chico Unified,Butte,5554 California Street,Chico,CA,No,1,K-8,K-8,1211.8517173038902
39685026041784,Active,No,Traditional,Elementary,Public,Collegeville Elementary,Escalon Unified,San Joaquin,6701 South Jack Tone Road,Stockton,CA,No,1,K-5,K-5,1194.7692951812546
48705326120240,Active,No,Traditional,Elementary,Public,Gretchen Higgins Elementary,Dixon Unified,Solano,1525 Pembroke Way,Dixon,CA,No,1,K-5,K-5,1190.3175894078374
54719936054142,Active,No,Traditional,Elementary - Intermediate/Middle/Junior High Combination,Public,Jefferson Elementary,Lindsay Unified,Tulare,333 North Westwood Avenue,Lindsay,CA,No,1,K-8,K-8,1167.8018684221863
54768366054043,Active,No,Traditional,Elementary,Public,Lincoln Elementary,Exeter Unified,Tulare,333 South D Street,Exeter,CA,No,1,K-5,K-5,1151.977144075197
54768365431598,Active,No,Traditional,High School,Public,Exeter Union High,Exeter Unified,Tulare,505 Rocky Hill Drive,Exeter,CA,Yes,2,9-12,9-12,1135.3557692833047
54768365430087,Active,No,Alternative School of Choice,High School,Public,Exeter Independent Study (Alternative),Exeter Unified,Tulare,505 Rocky Hill Drive,Exeter,CA,Yes,2,K-12,9-12,1135.3557692833044
10621666006076,Active,No,Traditional,Elementary,Public,Aynesworth Elementary,Fresno Unified,Fresno,4765 East Burns Avenue,Fresno,CA,No,1,K-6,K-6,1131.89708690715
10767786006605,Active,No,Traditional,Elementary,Public,West Fresno Elementary,Washington Unified,Fresno,2910 South Ivy Street,Fresno,CA,No,1,K-5,K-5,1127.5914413412436
04755076003156,Active,No,Traditional,Elementary,Public,McKinley Elementary,Gridley Unified,Butte,1045 Sycamore Street,Gridley,CA,No,1,K-1,K-2,1122.477563867009
13630990118364,Active,No,Community Day School,Intermediate/Middle/Junior High - High Combination,Public,Calexico Community Day,Calexico Unified,Imperial,1391 Kloke Road,Calexico,CA,Yes,2,6-12,8-11,1116.9322862727558
13630996106975,Active,No,Traditional,Elementary,Public,Blanche Charles Elementary,Calexico Unified,Imperial,1201 Kloke Road,Calexico,CA,Yes,2,K-6,K-6,1113.3434986080388
13630811330141,Active,No,Community Day School,High School,Public,Renaissance,Brawley Union High,Imperial,104 Magnolia Avenue,Brawley,CA,Yes,2,9-12,10-11,1105.568251946593
13630811331354,Active,No,Continuation School,High School,Public,Desert Valley High (Continuation),Brawley Union High,Imperial,104 West Magnolia Street,Brawley,CA,Yes,2,9-12,10-12,1105.568251946593
39685936042337,Active,No,Traditional,Elementary - Intermediate/Middle/Junior High Combination,Public,Lathrop Elementary,Manteca Unified,San Joaquin,15851 South Fifth Street,Lathrop,CA,No,1,K-8,K-8,1095.1889944780128
10767786006613,Active,No,Traditional,Intermediate/Middle/Junior High,Public,West Fresno Middle,Washington Unified,Fresno,2888 South Ivy Street,Fresno,CA,No,1,6-8,6-8,1091.9298214537168
27102722730265,Active,No,County Community School,Intermediate/Middle/Junior High - High Combination,Public,Salinas Community,Monterey County Office of Education,Monterey,1420 Natividad Road,Salinas,CA,Yes,2,7-12,8-12,1056.8990440304603
27102722730117,Active,No,Juvenile Court School,High School,Public,"Wellington M. Smith, Jr.",Monterey County Office of Education,Monterey,1420 Natividad Road,Salinas,CA,Yes,2,4-12,9-12,1056.8989194090304
04755076003164,Active,No,Traditional,Intermediate/Middle/Junior High,Public,Sycamore Middle,Gridley Unified,Butte,1125 Sycamore Street,Gridley,CA,No,1,6-8,5-8,1030.3738601520708
43694840114496,Active,No,Traditional,High School,Public,Dr. TJ Owens Gilroy Early College Academy,Gilroy Unified,Santa Clara,"5055 Santa Teresa Boulevard, PB17",Gilroy,CA,No,1,9-12,9-12,1018.3674830441978
39686760111344,Active,No,Traditional,Elementary - Intermediate/Middle/Junior High Combination,Public,Wilhelmina Henry Elementary,Stockton Unified,San Joaquin,1107 South Wagner Avenue,Stockton,CA,No,1,K-8,K-8,1009.431554630474
39686766115422,Active,No,Traditional,Elementary - Intermediate/Middle/Junior High Combination,Public,Rio Calaveras Elementary,Stockton Unified,San Joaquin,1819 East Bianchi Road,Stockton,CA,No,1,K-8,K-8,1002.4227219683837
24753172431203,Active,No,Traditional,High School,Public,Dos Palos High,Dos Palos Oro Loma Joint Unified,Merced,1701 East Blossom Street,Dos Palos,CA,No,1,9-12,9-12,995.471697155805
15101570119669,Active,Yes,Traditional,Elementary - High Combination,Public,Wonderful College Prep Academy,Kern County Office of Education,Kern,2070 Veneto Street,Delano,CA,No,1,K-12,K-12,972.6329806886952
49707060129981,Active,No,Traditional,Intermediate/Middle/Junior High - High Combination,Public,Geyserville New Tech Academy,Geyserville Unified,Sonoma,1300 Moody Lane,Geyserville,CA,Yes,2,6-12,6-12,968.738164919568
49707064930053,Active,No,Continuation School,High School,Public,Buena Vista High,Geyserville Unified,Sonoma,1300 Moody Lane,Geyserville,CA,Yes,2,9-12,10-12,968.738164919568
56725465632849,Active,No,Traditional,High School,Public,Hueneme High,Oxnard Union High,Ventura,500 West Bard Road,Oxnard,CA,No,1,9-12,9-12,960.5082125392142
15633706009278,Active,No,Traditional,Elementary - Intermediate/Middle/Junior High Combination,Public,Buttonwillow Elementary,Buttonwillow Union Elementary,Kern,42600 Hwy 58,Buttonwillow,CA,No,1,P-8,K-8,955.7703158391594
13630996111587,Active,No,Traditional,Intermediate/Middle/Junior High,Public,William Moreno Junior High,Calexico Unified,Imperial,1202 Kloke Road,Calexico,CA,No,1,7-8,7-8,940.4042915378069
54767945436258,Active,No,Continuation School,High School,Public,Bravo Lake High,Woodlake Unified,Tulare,1435 N. Irma Street,Visalia,CA,Yes,2,9-12,11-12,933.6206788146122
54767946094569,Active,No,Traditional,Elementary,Public,Francis J. White Learning Center,Woodlake Unified,Tulare,700 North Cypress Street,Woodlake,CA,Yes,2,K-2,K-2,933.6206788146122
15636936009914,Active,No,Traditional,Elementary,Public,Norris Elementary,Norris Elementary,Kern,7110 Old Farm Road,Bakersfield,CA,No,1,K-6,K-6,926.4168509083352
39685026041800,Active,No,Traditional,Elementary,Public,Farmington Elementary,Escalon Unified,San Joaquin,25233 East Highway 4,Farmington,CA,No,1,K-5,K-5,919.5900904433925
58727516056816,Active,No,Traditional,Elementary - Intermediate/Middle/Junior High Combination,Public,Bear River,Wheatland,Yuba,100 Wheatland Park Drive,Wheatland,CA,Yes,2,4-8,4-8,887.2978640321346
58727690123570,Active,No,Community Day School,High School,Public,Wheatland Community Day High,Wheatland Union High,Yuba,1010 Wheatland Road,Wheatland,CA,Yes,2,7-12,9-11,887.2978640321346
44697996049696,Active,No,Traditional,Elementary,Public,Freedom Elementary,Pajaro Valley Unified,Santa Cruz,25 Holly Drive,Freedom,CA,No,1,K-5,K-5,885.6631101625776
54722566092795,Active,No,Traditional,Elementary,Public,Linwood Elementary,Visalia Unified,Tulare,3129 South Linwood Street,Visalia,CA,Yes,2,K-6,K-6,854.9073398304294
54722566112049,Active,No,Traditional,Intermediate/Middle/Junior High,Public,La Joya Middle,Visalia Unified,Tulare,4711 West La Vida,Visalia,CA,Yes,2,7-8,7-8,854.9073398304294
13630736008296,Active,No,Traditional,Elementary,Public,Myron D. Witter Elementary,Brawley Elementary,Imperial,150 K Street,Brawley,CA,No,1,K-6,K-6,851.9321375411346
15634121531656,Active,No,Continuation School,High School,Public,Valley High,Delano Joint Union High,Kern,1927 Randolph Street,Delano,CA,Yes,2,9-12,9-12,847.7349852446501
15634121531672,Active,No,Traditional,High School,Public,Delano High,Delano Joint Union High,Kern,1331 Cecil Avenue,Delano,CA,Yes,2,9-12,9-12,847.7349852446501
42691386045280,Active,No,Traditional,Intermediate/Middle/Junior High,Public,Jonata Middle,Buellton Union Elementary,Santa Barbara,301 Second Street,Buellton,CA,No,1,6-8,6-8,828.4360655543928
34674136033641,Active,No,Traditional,Elementary,Public,Bates Elementary,River Delta Joint Unified,Sacramento,180 Primasing Avenue,Courtland,CA,No,1,K-6,K-6,817.4795032048467
11765626007447,Active,No,Traditional,Elementary - Intermediate/Middle/Junior High Combination,Public,Hamilton Elementary,Hamilton Unified,Glenn,277 Capay Avenue,Hamilton City,CA,No,1,K-8,K-8,812.3503614706125
50711676052633,Active,No,Traditional,Elementary,Public,Bret Harte Elementary,Modesto City Elementary,Stanislaus,909 Glenn Avenue,Modesto,CA,No,1,K-6,K-6,798.0442360872024
16639746010532,Active,No,Traditional,Elementary,Public,Meadow Lane Elementary,Lemoore Union Elementary,Kings,325 Meadow Lane,Lemoore,CA,No,1,K-6,K-6,793.5661839431731
33672156032577,Active,No,Traditional,Elementary,Public,Emerson Elementary,Riverside Unified,Riverside,4660 Ottawa Avenue,Riverside,CA,No,1,P-6,K-6,789.0421162166267
39685850139261,Active,No,Alternative School of Choice,Intermediate/Middle/Junior High,Public,Valley Robotics Academy,Lodi Unified,San Joaquin,13451 North Extension Road,Lodi,CA,Yes,4,K-12,7-9,774.7231379593946
39685850122879,Active,No,Community Day School,High School,Public,Walter J. Katnich Community Day,Lodi Unified,San Joaquin,13451 North Extension Road,Lodi,CA,Yes,4,7-12,9-12,774.7231101365893
39685850132837,Active,No,Alternative School of Choice,Intermediate/Middle/Junior High,Public,Henderson,Lodi Unified,San Joaquin,13451 North Extension Road,Lodi,CA,Yes,4,7-8,7-8,774.7231101365893
39685853930344,Active,No,Alternative School of Choice,Elementary - High Combination,Public,Independence,Lodi Unified,San Joaquin,13451 North Extension Road,Lodi,CA,Yes,4,K-12,2-12,774.7231101365893
44697990102673,Active,No,Traditional,Elementary,Public,Landmark Elementary,Pajaro Valley Unified,Santa Cruz,235 Ohlone Parkway,Watsonville,CA,Yes,2,K-5,K-5,774.4174045605167
44697994430203,Active,No,Community Day School,High School,Public,New School Community Day,Pajaro Valley Unified,Santa Cruz,165 Harkins Slough Road,Watsonville,CA,Yes,2,9-12,9-12,774.4174045605167
54719930123661,Active,No,Traditional,Elementary - Intermediate/Middle/Junior High Combination,Public,Reagan Elementary,Lindsay Unified,Tulare,340 North Harvard,Lindsay,CA,No,1,K-8,K-8,754.2667915877358
34322763931250,Active,No,Youth Authority School,High School,Public,Johanna Boss High,California Education Authority (CEA) Headquarters,San Joaquin,7650 South Newcastle Road,Stockton,CA,Yes,2,8-12,9-12,753.3260643306172
34322763990025,Active,No,Youth Authority School,High School,Public,N.A. Chaderjian High,California Education Authority (CEA) Headquarters,San Joaquin,7650 South Newcastle Road,Stockton,CA,Yes,2,9-12,9-12,753.3260643306172
48705326110282,Active,No,Traditional,Elementary,Public,Tremont Elementary,Dixon Unified,Solano,355 Pheasant Run Drive,Dixon,CA,No,1,K-5,K-5,749.5983715353104
42750106045389,Active,No,Traditional,Elementary - Intermediate/Middle/Junior High Combination,Public,Cuyama Elementary,Cuyama Joint Unified,Santa Barbara,2300 Highway 166,New Cuyama,CA,No,1,K-8,K-8,749.2418124302634
50712175036256,Active,No,Traditional,High School,Public,Patterson High,Patterson Joint Unified,Stanislaus,200 North Seventh Street,Patterson,CA,No,1,9-12,9-12,725.6886545633884
44697996049787,Active,No,Traditional,Intermediate/Middle/Junior High - High Combination,Public,Rolling Hills Middle,Pajaro Valley Unified,Santa Cruz,130 Herman Avenue,Watsonville,CA,No,1,6-8,6-12,712.6286134941382
50711676052799,Active,No,Traditional,Elementary,Public,Robertson Road Elementary,Modesto City Elementary,Stanislaus,1821 Robertson Road,Modesto,CA,Yes,2,K-6,K-6,712.5548803853142
50711676105670,Active,No,Traditional,Elementary,Public,Harriette Kirschen Elementary,Modesto City Elementary,Stanislaus,1900 Kirschen Drive,Modesto,CA,Yes,2,K-6,K-6,712.5548803853142
50712906111017,Active,No,Traditional,Intermediate/Middle/Junior High,Public,Elizabeth Ustach Middle,Sylvan Union Elementary,Stanislaus,2701 Kodiak Drive,Modesto,CA,No,1,6-8,6-8,700.3105654956006
58727286115935,Active,Yes,Traditional,Elementary - High Combination,Public,CORE Charter,Camptonville Elementary,Yuba,321 16th Street,Marysville,CA,No,1,K-12,K-12,698.4949293626074
56726526056097,Active,No,Traditional,Elementary,Public,Juanamaria Elementary,Ventura Unified,Ventura,100 South Crocker Avenue,Ventura,CA,No,1,K-5,K-5,691.5349405095025
54722316108385,Active,No,Traditional,Intermediate/Middle/Junior High,Public,Live Oak Middle,Tulare City,Tulare,980 North Laspina Street,Tulare,CA,No,1,7-8,7-8,682.9019597003735
39686766042519,Active,No,Traditional,Elementary - Intermediate/Middle/Junior High Combination,Public,August Elementary,Stockton Unified,San Joaquin,2101 Sutro Avenue,Stockton,CA,No,1,K-8,K-8,677.0058566901049
50710436112346,Active,No,Traditional,Intermediate/Middle/Junior High,Public,Blaker-Kinser Junior High,Ceres Unified,Stanislaus,1601 Kinser Road,Ceres,CA,No,1,7-8,7-8,658.6459595464261
37103710138404,Active,Yes,Traditional,Elementary - Intermediate/Middle/Junior High Combination,Public,Classical Academy Vista,San Diego County Office of Education,San Diego,4010 Mystra Way,Oceanside,CA,No,1,K-8,K-8,629.7767822304055
54718605430244,Active,No,Community Day School,High School,Public,Cutler-Orosi Community Day,Cutler-Orosi Joint Unified,Tulare,12724 Avenue 392,Cutler,CA,No,1,7-12,9-12,623.0745652166585
13631230118455,Active,Yes,Traditional,Elementary,Public,Ballington Academy for the Arts and Sciences,El Centro Elementary,Imperial,1525 West Main Street,El Centro,CA,No,1,K-6,K-6,611.150471582655
37768516037543,Active,No,Traditional,Elementary,Public,Bonsall Elementary,Bonsall Unified,San Diego,31555 Old River Road,Bonsall,CA,No,1,K-5,K-5,577.2039380721973
50755646052906,Active,No,Traditional,Intermediate/Middle/Junior High,Public,Oakdale Junior High,Oakdale Joint Unified,Stanislaus,400 Maag Avenue,Oakdale,CA,No,1,7-8,7-8,560.102344534341
33672153334406,Active,No,Traditional,High School,Public,John W. North High,Riverside Unified,Riverside,1550 West Third Street,Riverside,CA,No,1,9-12,9-12,551.4667071526062
54768365430319,Active,No,Community Day School,Elementary - High Combination,Public,Exeter Community Day,Exeter Unified,Tulare,711 W Chestnut,Exeter,CA,Yes,2,1-12,5-10,540.0262374887346
54768365431614,Active,No,Continuation School,High School,Public,Kaweah High,Exeter Unified,Tulare,1107 E Rocky Hill Drive,Exeter,CA,Yes,2,9-12,9-12,540.0262374887346
39685936042345,Active,No,Traditional,Elementary - Intermediate/Middle/Junior High Combination,Public,Lincoln Elementary,Manteca Unified,San Joaquin,750 East Yosemite Avenue,Manteca,CA,No,1,K-8,K-8,539.9611634738386
04614240120394,Active,Yes,Traditional,High School,Public,Inspire School of Arts and Sciences,Chico Unified,Butte,335 West Sacramento Avenue,Chico,CA,Yes,2,9-12,9-12,528.6416582459523
04614240431676,Active,No,Traditional,High School,Public,Chico High,Chico Unified,Butte,901 Esplanade,Chico,CA,Yes,2,9-12,9-12,528.6416582459523
10624306007298,Active,No,Traditional,Elementary,Public,James Garfield Elementary,Selma Unified,Fresno,2535 B Street,Selma,CA,No,1,K-6,K-6,521.3126579474499
30664496027478,Active,No,Traditional,Elementary,Public,Olinda Elementary,Brea-Olinda Unified,Orange,3145 East Birch Street,Brea,CA,No,1,K-6,K-6,509.91595200007293
30666476030035,Active,No,Traditional,Elementary,Public,Golden Elementary,Placentia-Yorba Linda Unified,Orange,740 East Golden Avenue,Placentia,CA,Yes,2,K-6,K-6,509.91595200007293
30666476089478,Active,No,Special Education School,Elementary - High Combination,Public,George Key,Placentia-Yorba Linda Unified,Orange,710 East Golden Avenue,Placentia,CA,Yes,2,K-Adult,K-12,509.91595200007293
37735510127423,Active,No,Traditional,High School,Public,Sage Creek High,Carlsbad Unified,San Diego,3900 Bobcat Boulevard,Carlsbad,CA,No,1,9-12,9-12,489.1445821781733
11765621130053,Active,No,Continuation School,High School,Public,Ella Barkley High,Hamilton Unified,Glenn,Highway 32 And Los Robles Street 300 Sixth Street,Hamilton City,CA,Yes,2,10-12,11-12,487.87527428156125
11765621133701,Active,No,Traditional,High School,Public,Hamilton High,Hamilton Unified,Glenn,620 Canal Street,Hamilton City,CA,Yes,2,9-12,9-12,487.87527428156125
50711676110068,Active,No,Traditional,Intermediate/Middle/Junior High,Public,Evelyn Hanshaw Middle,Modesto City Elementary,Stanislaus,1725 Las Vegas Street,Modesto,CA,No,1,7-8,7-8,482.53457055989315
37735516099352,Active,No,Traditional,Elementary,Public,Kelly Elementary,Carlsbad Unified,San Diego,4885 Kelly Drive,Carlsbad,CA,No,1,K-5,K-5,454.6568032560442
37683876070882,Active,No,Traditional,Elementary,Public,Solana Vista Elementary,Solana Beach Elementary,San Diego,780 Santa Victoria Avenue,Solana Beach,CA,No,1,K-3,K-3,452.2317692925004
49753586052369,Active,Yes,Traditional,Elementary - Intermediate/Middle/Junior High Combination,Public,Cali Calmecac Language Academy,Windsor Unified,Sonoma,9491 Starr Road,Windsor,CA,No,1,K-8,K-8,440.16136055978103
16639900116699,Active,Yes,Traditional,Elementary,Public,Frontier Elementary,Pioneer Union Elementary,Kings,1854 North Mustang Drive,Hanford,CA,No,1,K-5,K-5,438.7095567584888
56725460131698,Active,No,Traditional,High School,Public,Rancho Campana High,Oxnard Union High,Ventura,4235 Mar Vista Drive,Camarillo,CA,No,1,9-12,9-12,433.0436961891155
50755640107979,Active,No,Traditional,Elementary,Public,Sierra View Elementary,Oakdale Joint Unified,Stanislaus,1323 East J Street,Oakdale,CA,No,1,K-6,K-6,424.7616244456142
28662902837102,Active,No,Traditional,High School,Public,Saint Helena High,Saint Helena Unified,Napa,1401 Grayson Avenue,St. Helena,CA,No,1,9-12,9-12,407.09475013294855
50712826098297,Active,No,Traditional,Elementary,Public,George Eisenhut Elementary,Stanislaus Union Elementary,Stanislaus,1809 Sheldon Drive,Modesto,CA,No,1,K-6,K-6,403.5704370312617
42772060138370,Active,Yes,Traditional,Elementary - High Combination,Public,Olive Grove Charter - Lompoc,SBE - Olive Grove Charter - Lompoc,Santa Barbara,820 North H Street Second Floor,Lompoc,CA,No,1,K-12,K-12,385.2999998997817
51714646053391,Active,No,Traditional,Elementary,Public,King Avenue Elementary,Yuba City Unified,Sutter,630 King Avenue,Yuba City,CA,No,1,K-5,K-5,369.2448628119458
15634046009351,Active,Yes,Traditional,Intermediate/Middle/Junior High,Public,Cecil Avenue Math and Science Academy,Delano Union Elementary,Kern,1430 Cecil Avenue,Delano,CA,No,1,6-8,6-8,367.3385583402694
42750104230173,Active,No,Continuation School,High School,Public,Sierra Madre High (Continuation),Cuyama Joint Unified,Santa Barbara,4500 Highway 166,New Cuyama,CA,Yes,2,9-12,10-12,365.5801728411148
42750104231205,Active,No,Traditional,High School,Public,Cuyama Valley High,Cuyama Joint Unified,Santa Barbara,4500 Highway 166,New Cuyama,CA,Yes,2,9-12,9-12,365.5801728411148
56724476054977,Active,No,Traditional,Elementary,Public,Olivelands Elementary,Briggs Elementary,Ventura,12465 Foothill Road,Santa Paula,CA,No,1,K-4,K-4,357.43340407184184
54722560101857,Active,No,Traditional,Elementary - Intermediate/Middle/Junior High Combination,Public,Oak Grove Elementary,Visalia Unified,Tulare,4445 West Ferguson Avenue,Visalia,CA,No,1,K-8,K-8,353.66646900000296
10754086007090,Active,No,Traditional,Elementary,Public,Fipps Primary,Riverdale Joint Unified,Fresno,21320 South Feland,Riverdale,CA,No,1,K-3,K-3,347.2612732781262
50757396102743,Active,No,Traditional,Elementary,Public,Walter M. Brown Elementary,Turlock Unified,Stanislaus,1400 Georgetown Street,Turlock,CA,No,1,K-6,K-6,343.0436769460164
54722560116517,Active,No,Traditional,Elementary,Public,Manuel F. Hernandez,Visalia Unified,Tulare,2133 North Leila Street,Visalia,CA,No,1,P-6,K-6,335.79103967428426
42692296068902,Active,No,Traditional,Elementary,Public,Miguelito Elementary,Lompoc Unified,Santa Barbara,1600 West Olive Avenue,Lompoc,CA,No,1,K-6,K-6,332.15988471864625
50711755030135,Active,No,Traditional,High School,Public,Peter Johansen High,Modesto City High,Stanislaus,641 Norseman Drive,Modesto,CA,No,1,9-12,9-12,328.92254290457254
54722566054704,Active,No,Traditional,Elementary,Public,Annie R. Mitchell,Visalia Unified,Tulare,2121 East Laura Avenue,Visalia,CA,No,1,P-6,K-6,325.463679795894
58727360119362,Active,No,Traditional,Elementary,Public,Edgewater Elementary,Marysville Joint Unified,Yuba,5715 Oakwood Drive,Marysville,CA,No,1,K-6,K-6,320.8511487077217
30736506120141,Active,No,Traditional,Elementary,Public,Oak Creek Elementary,Irvine Unified,Orange,1 Dove Creek,Irvine,CA,No,1,K-6,K-6,318.11278204995506
39686356042444,Active,No,Traditional,Elementary - Intermediate/Middle/Junior High Combination,Public,Oak View Elementary,Oak View Union Elementary,San Joaquin,7474 East Collier Road,Acampo,CA,No,1,K-8,K-8,311.3074659949978
39685696095210,Active,No,Traditional,Elementary - Intermediate/Middle/Junior High Combination,Public,Mable Barron,Lincoln Unified,San Joaquin,6835 Cumberland Place,Stockton,CA,No,1,K-8,K-8,304.8897410087788
30666470109678,Active,No,Traditional,Elementary,Public,Lakeview Elementary,Placentia-Yorba Linda Unified,Orange,17510 Lakeview Avenue,Yorba Linda,CA,No,1,K-5,K-5,298.2568117482331
52714720134403,Active,Yes,Traditional,Intermediate/Middle/Junior High,Public,Lassen-Antelope Volcanic Academy (LAVA),Antelope Elementary,Tehama,1660 Monroe Street,Red Bluff,CA,No,1,5-8,5-8,287.8807241022826
16639176010425,Active,No,Traditional,Elementary,Public,Monroe Elementary,Hanford Elementary,Kings,300 Monroe Drive,Hanford,CA,No,1,K-6,K-6,287.30657003651146
28662660108605,Active,Yes,Traditional,Elementary - Intermediate/Middle/Junior High Combination,Public,Stone Bridge,Napa Valley Unified,Napa,1680 Los Carneros Way,Napa,CA,No,1,K-8,K-8,277.2054569598482
58105876069249,Active,No,Special Education School,Elementary - High Combination,Public,Yuba County Special Education,Yuba County Office of Education,Yuba,935 14th Street,Marysville,CA,No,1,P-12,K-12,261.83322254749913
25735936025894,Active,No,Traditional,Elementary,Public,Tulelake Basin Elementary,Tulelake Basin Joint Unified,Siskiyou,461 Second Street,Tulelake,CA,No,1,K-6,K-6,258.15984463029855
10621170111153,Active,No,Traditional,Elementary,Public,Reagan Elementary,Clovis Unified,Fresno,3701 Ashlan Avenue,Clovis,CA,Yes,3,K-6,K-6,249.8588040000043
10621171030683,Active,No,Traditional,High School,Public,Clovis East High,Clovis Unified,Fresno,2940 Leonard Avenue,Clovis,CA,Yes,3,9-12,9-12,249.8588040000043
10621176109243,Active,No,Traditional,Elementary,Public,Red Bank Elementary,Clovis Unified,Fresno,1454 Locan Avenue,Clovis,CA,No,1,K-6,K-6,249.8588040000043
10621176116321,Active,No,Traditional,Intermediate/Middle/Junior High,Public,Reyburn Intermediate,Clovis Unified,Fresno,2901 DeWolf Avenue,Clovis,CA,Yes,3,7-8,7-8,249.8588040000043
10621176120091,Active,No,Traditional,Elementary,Public,Freedom Elementary,Clovis Unified,Fresno,2955 Gettysburg Avenue,Clovis,CA,No,1,K-6,K-6,249.8588040000043
10624141030451,Active,No,Alternative School of Choice,Intermediate/Middle/Junior High - High Combination,Public,Taft High,Sanger Unified,Fresno,1801 Seventh Street,Sanger,CA,Yes,2,K-12,6-12,232.3143364687375
10624141036086,Active,No,Continuation School,High School,Public,Kings River High (Continuation),Sanger Unified,Fresno,1801 Seventh Street,Sanger,CA,Yes,2,7-12,11-12,232.3143364687375
33672156032692,Active,No,Traditional,Elementary,Public,Longfellow Elementary,Riverside Unified,Riverside,3610 Eucalyptus Avenue,Riverside,CA,No,1,P-6,K-6,229.64577041474715
56768286055552,Active,No,Traditional,Elementary,Public,Blanchard Elementary,Santa Paula Unified,Ventura,115 Peck Road,Santa Paula,CA,No,1,K-5,K-5,225.78972833990267
16638756010276,Active,No,Traditional,Elementary,Public,Armona Elementary,Armona Union Elementary,Kings,14045 Pimo Street,Armona,CA,No,1,K-4,K-4,218.11377758034016
52105206069462,Active,No,Special Education School,Elementary - High Combination,Public,Tehama County Special Education,Tehama County Department of Education,Tehama,900 Palm Street,Red Bluff,CA,No,1,P-Adult,K-12,216.84991798627308
54755236054266,Active,No,Traditional,Intermediate/Middle/Junior High,Public,Pioneer Middle,Porterville Unified,Tulare,225 East College Avenue,Porterville,CA,Yes,2,6-8,6-8,211.06875626936102
54755236054282,Active,No,Traditional,Elementary,Public,Vandalia Elementary,Porterville Unified,Tulare,271 East College Avenue,Porterville,CA,Yes,2,K-5,K-5,211.06875626936102
27659616106959,Active,No,Traditional,Elementary,Public,Virginia Rocca Barton Elementary,Alisal Union,Monterey,680 Las Casitas Drive,Salinas,CA,No,1,K-6,K-6,208.73677751739865
10739650113993,Active,No,Traditional,Elementary,Public,Harvest Elementary,Central Unified,Fresno,6514 West Gettysburg Avenue,Fresno,CA,Yes,3,K-6,K-6,207.849212999998
10739650123943,Active,No,Traditional,Intermediate/Middle/Junior High,Public,Glacier Point Middle,Central Unified,Fresno,4055 North Bryan Avenue,Fresno,CA,Yes,3,7-8,7-8,207.849212999998
10739650140509,Pending,No,Traditional,High School,Public,Justin Garza High,Central Unified,Fresno,4100 North Grantland Avenue,Fresno,CA,Yes,3,9-12,No Data,207.849212999998
54722566054654,Active,No,Traditional,Elementary,Public,Mountain View Elementary,Visalia Unified,Tulare,2021 South Encina,Visalia,CA,No,1,K-6,K-6,205.0130431152173
48705320122267,Active,Yes,Traditional,Elementary - Intermediate/Middle/Junior High Combination,Public,Dixon Montessori Charter,Dixon Unified,Solano,355 North Almond Street,Dixon,CA,Yes,2,K-8,K-8,199.20223981956977
48705326051023,Active,No,Traditional,Intermediate/Middle/Junior High,Public,John Knight Middle,Dixon Unified,Solano,455 East A Street,Dixon,CA,Yes,2,6-8,6-8,199.20223981956977
58727366056667,Active,No,Traditional,Elementary,Public,Cordua Elementary,Marysville Joint Unified,Yuba,2830 Highway 20,Marysville,CA,No,1,K-5,K-5,193.3956605801953
28662906117964,Active,No,Traditional,Elementary,Public,Saint Helena Primary,Saint Helena Unified,Napa,1701 Grayson Avenue,St. Helena,CA,No,1,K-2,K-2,185.86825383113637
16639746118590,Active,No,Traditional,Elementary,Public,Cinnamon Elementary,Lemoore Union Elementary,Kings,500 East Cinnamon Drive,Lemoore,CA,No,1,K-6,K-6,185.17805747914886
54722560133819,Active,No,Traditional,Intermediate/Middle/Junior High,Public,Ridgeview Middle,Visalia Unified,Tulare,3315 North Akers Street,Visalia,CA,No,1,7-8,7-8,176.09345873894165
52105206119606,Active,Yes,Traditional,Elementary - Intermediate/Middle/Junior High Combination,Public,Lincoln Street,Tehama County Department of Education,Tehama,1125 Lincoln Street,Red Bluff,CA,Yes,2,K-8,K-8,173.49013222964223
52743105295019,Active,No,Regional Occupational Center/Program,High School,Public,Tehama County ROP,Tehama County ROP,Tehama,1135 Lincoln Street,Red Bluff,CA,Yes,2,10-12,No Data,173.49013222964223
11765621130111,Active,No,Community Day School,Intermediate/Middle/Junior High,Public,Hamilton Community Day,Hamilton Unified,Glenn,535 Sacramento Avenue,Hamilton City,CA,No,1,7-12,6,164.81497955082355
54722566107536,Active,No,Traditional,Elementary,Public,Pinkham Elementary,Visalia Unified,Tulare,2200 East Tulare Avenue,Visalia,CA,No,1,K-6,K-6,164.20228500000422
57727106056444,Active,No,Traditional,Elementary,Public,Beamer Elementary,Woodland Joint Unified,Yolo,525 Beamer Street,Woodland,CA,No,1,K-6,K-6,163.48641557636265
56725386111850,Active,No,Traditional,Intermediate/Middle/Junior High,Public,R.J. Frank Academy of Marine Science & Engineering,Oxnard,Ventura,701 North Juanita Avenue,Oxnard,CA,No,1,6-8,6-8,159.80508379750194
54722560125708,Active,No,Traditional,Elementary,Public,Shannon Ranch Elementary,Visalia Unified,Tulare,3637 North Ranch Street,Visalia,CA,No,1,K-6,K-6,153.68294243851233
54722316054472,Active,No,Traditional,Elementary,Public,Frank Kohn Elementary,Tulare City,Tulare,500 South Laspina Street,Tulare,CA,No,1,K-6,K-6,137.60236668856834
50712175030127,Active,No,Continuation School,High School,Public,Del Puerto High,Patterson Joint Unified,Stanislaus,640 M Street,Patterson,CA,Yes,2,9-12,10-12,137.24801840811702
50712176052955,Active,No,Traditional,Elementary,Public,Northmead Elementary,Patterson Joint Unified,Stanislaus,625 L Street,Patterson,CA,Yes,2,K-5,K-5,137.24801840811702
35674700115428,Active,No,Traditional,Elementary - Intermediate/Middle/Junior High Combination,Public,Hollister Dual Language Academy,Hollister,San Benito,"873 Santa Ana Road, Suite 200",Hollister,CA,Yes,3,K-8,K-8,124.41689654226998
35674706112320,Active,No,Traditional,Intermediate/Middle/Junior High,Public,Maze Middle,Hollister,San Benito,900 Meridian Street,Hollister,CA,Yes,3,6-8,6-8,124.41689654226998
35674706114557,Active,No,Traditional,Elementary,Public,Gabilan Hills,Hollister,San Benito,901 Santa Ana Road,Hollister,CA,Yes,3,K-5,K-5,124.41689654226998
27660682730174,Active,No,Traditional,High School,Public,Greenfield High,South Monterey County Joint Union High,Monterey,225 South El Camino Real,Greenfield,CA,No,1,9-12,9-12,120.09517599783823
43694846111785,Active,No,Traditional,Intermediate/Middle/Junior High,Public,Brownell Middle,Gilroy Unified,Santa Clara,7800 Carmel Street,Gilroy,CA,No,1,6-8,6-8,119.95389475359318
04614080430827,Active,No,Traditional,High School,Public,Biggs High,Biggs Unified,Butte,3046 Second Street,Biggs,CA,Yes,3,9-12,9-12,119.24089559839192
04614086002943,Active,No,Traditional,Elementary - Intermediate/Middle/Junior High Combination,Public,Biggs Elementary,Biggs Unified,Butte,300 B Street,Biggs,CA,Yes,3,K-8,K-8,119.24089559839192
04614086002950,Active,No,Traditional,Elementary,Public,Richvale Elementary,Biggs Unified,Butte,5236 Church Street,Richvale,CA,Yes,3,1-6,1-6,119.24089559839192
16639250118919,Active,No,Traditional,High School,Public,Sierra Pacific High,Hanford Joint Union High,Kings,1259 North 13th Avenue,Hanford,CA,No,1,9-12,9-12,112.56881697323192
58105875830047,Active,No,Juvenile Court School,High School,Public,Harry P B Carden,Yuba County Office of Education,Yuba,1023 14th Street,Marysville,CA,No,1,K-12,9-12,112.1089283999174
15634046111355,Active,No,Traditional,Elementary,Public,Princeton Street Elementary,Delano Union Elementary,Kern,1959 Princeton Street,Delano,CA,No,1,K-5,K-5,107.08023025319314
39685850122580,Active,Yes,Traditional,Elementary - High Combination,Public,Rio Valley Charter,Lodi Unified,San Joaquin,"1110 West Kettleman Drive, Suite 10",Lodi,CA,No,1,K-12,K-12,101.96036816051749
10621176005847,Active,No,Traditional,Elementary,Public,Cole Elementary,Clovis Unified,Fresno,615 West Stuart Avenue,Clovis,CA,No,1,K-6,K-6,99.58074749999983
10621660114553,Active,Yes,Traditional,High School,Public,University High,Fresno Unified,Fresno,2611 East Matoian M/S UH134,Fresno,CA,No,1,9-12,9-12,97.89324860665404
50711676052773,Active,No,Traditional,Elementary,Public,James Marshall Elementary,Modesto City Elementary,Stanislaus,515 Sutter Avenue,Modesto,CA,No,1,K-6,K-6,89.67161489254423
16639170110981,Active,No,Traditional,Elementary,Public,Hamilton Elementary,Hanford Elementary,Kings,1269 Leland Way,Hanford,CA,No,1,K-6,K-6,87.4504420385586
35752596035117,Active,No,Traditional,Elementary - Intermediate/Middle/Junior High Combination,Public,San Juan,Aromas - San Juan Unified,San Benito,100 Nyland Drive,San Juan Bautista,CA,No,1,K-8,K-8,85.39617449999578
52716395237201,Active,No,Traditional,High School,Public,Red Bluff High,Red Bluff Joint Union High,Tehama,1260 Union Street,Red Bluff,CA,No,1,9-12,9-12,82.88714475203196
56726526056154,Active,No,Traditional,Elementary,Public,Mound Elementary,Ventura Unified,Ventura,455 South Hill Road,Ventura,CA,No,1,K-5,K-5,81.90989556131674
27661756026637,Active,No,Traditional,Elementary - Intermediate/Middle/Junior High Combination,Public,San Ardo Elementary,San Ardo Union Elementary,Monterey,62428 Center Street,San Ardo,CA,No,1,K-8,K-8,74.51331136817504
56725536055404,Active,No,Traditional,Elementary,Public,Dos Caminos Elementary,Pleasant Valley,Ventura,3635 Appian Way,Camarillo,CA,No,1,P-5,K-5,72.06118059055277
41688906043624,Active,No,Traditional,Elementary,Public,El Granada Elementary,Cabrillo Unified,San Mateo,400 Santiago Street,Half Moon Bay,CA,No,1,K-5,K-5,67.92134875496717
20652012032357,Active,No,Traditional,High School,Public,Chowchilla Union High,Chowchilla Union High,Madera,805 Humboldt Avenue,Chowchilla,CA,Yes,2,9-12,9-12,65.52437231239192
20652012030047,Active,No,Continuation School,High School,Public,Gateway High (Continuation),Chowchilla Union High,Madera,805 Humboldt Avenue,Chowchilla,CA,Yes,2,9-12,11-12,65.52373971804234
20652432035707,Active,No,Traditional,High School,Public,Madera High,Madera Unified,Madera,200 South L Street,Madera,CA,No,1,9-12,9-12,59.758106423171135
56725536055396,Active,No,Traditional,Elementary,Public,Camarillo Heights Elementary,Pleasant Valley,Ventura,35 Catalina Drive,Camarillo,CA,No,1,K-5,K-5,58.238693929208644
39685936120505,Active,No,Traditional,Elementary - Intermediate/Middle/Junior High Combination,Public,George Y. Komure Elementary,Manteca Unified,San Joaquin,2121 Henry Long Boulevard,Stockton,CA,No,1,K-8,K-8,57.23429065257733
27754736026090,Active,No,Traditional,Intermediate/Middle/Junior High,Public,Fairview Middle,Gonzales Unified,Monterey,401 Fourth Street,Gonzales,CA,Yes,2,6-8,6-8,56.64097967561713
27754736066955,Active,No,Traditional,Elementary,Public,La Gloria Elementary,Gonzales Unified,Monterey,220 Elko Street,Gonzales,CA,Yes,2,K-5,K-5,56.64097967561713
56725536055438,Active,No,Traditional,Elementary,Public,Las Posas Elementary,Pleasant Valley,Ventura,75 Calle La Guerra,Camarillo,CA,No,1,P-5,K-5,54.926381030747024
37771560137323,Active,Yes,Traditional,Elementary - High Combination,Public,Vista Springs Charter,SBE - Vista Springs Charter,San Diego,700 East Bobier Avenue,Vista,CA,No,1,K-12,K-11,52.944540724028435
27659956026082,Active,No,Traditional,Elementary - Intermediate/Middle/Junior High Combination,Public,Chualar Elementary,Chualar Union,Monterey,24285 Lincoln Street,Chualar,CA,No,1,K-8,K-8,52.242858910722205
16101651630102,Active,No,Juvenile Court School,Intermediate/Middle/Junior High - High Combination,Public,J. C. Montgomery,Kings County Office of Education,Kings,1450 Forum Drive,Hanford,CA,Yes,2,7-12,8-12,51.80354801744186
10739656115521,Active,No,Traditional,Elementary,Public,Norman Liddell Elementary,Central Unified,Fresno,5455 West Alluvial Avenue,Fresno,CA,No,1,K-6,K-6,50.29179276063322
39686766116115,Active,No,Traditional,Elementary - Intermediate/Middle/Junior High Combination,Public,San Joaquin Elementary,Stockton Unified,San Joaquin,2020 South Fresno Avenue,Stockton,CA,No,1,K-8,K-8,48.47496663975149
56725536055412,Active,No,Traditional,Elementary - Intermediate/Middle/Junior High Combination,Public,Pleasant Valley School of Engineering and Arts,Pleasant Valley,Ventura,700 Temple Avenue,Camarillo,CA,No,1,P-8,K-8,43.51575527131151
57726786066245,Active,No,Traditional,Intermediate/Middle/Junior High,Public,Ralph Waldo Emerson Junior High,Davis Joint Unified,Yolo,2121 Calaveras Avenue,Davis,CA,No,1,7-9,7-9,41.70823016032368
54722566054720,Active,No,Traditional,Elementary,Public,Washington Elementary,Visalia Unified,Tulare,500 South Garden,Visalia,CA,No,1,K-8,K-6,39.744907852150185
54722560139105,Active,No,Traditional,Elementary,Public,Denton Elementary,Visalia Unified,Tulare,2231 North Denton,Visalia,CA,No,1,K-6,K-6,38.47801809831812
39686766042618,Active,No,Traditional,Elementary - Intermediate/Middle/Junior High Combination,Public,Harrison Elementary,Stockton Unified,San Joaquin,3203 Sanguinetti Lane,Stockton,CA,No,1,K-8,K-8,37.50585468453571
16101656069298,Active,No,Special Education School,Elementary - High Combination,Public,Kings County Special Education,Kings County Office of Education,Kings,959 Katie Hammond Lane,Hanford,CA,Yes,3,P-12,K-12,34.37720406094607
16639176010409,Active,No,Traditional,Elementary,Public,Lee Richmond Elementary,Hanford Elementary,Kings,939 Katie Hammond Street,Hanford,CA,Yes,3,K-6,K-6,34.37720406094607
16639176112379,Active,No,Traditional,Intermediate/Middle/Junior High,Public,John F. Kennedy Junior High,Hanford Elementary,Kings,1000 East Florinda Street,Hanford,CA,Yes,3,7-8,7-8,34.37720406094607
54722566116909,Active,Yes,Traditional,Elementary - Intermediate/Middle/Junior High Combination,Public,Charter Home School Academy,Visalia Unified,Tulare,211 West Tulare Avenue,Visalia,CA,No,1,K-8,K-8,33.01315572184587
56726526060370,Active,No,Traditional,Intermediate/Middle/Junior High,Public,Balboa Middle,Ventura Unified,Ventura,247 Hill Road,Ventura,CA,No,1,6-8,6-8,31.248744888838413
16638756010284,Active,No,Traditional,Intermediate/Middle/Junior High,Public,Parkview Middle,Armona Union Elementary,Kings,11075 C Street,Armona,CA,No,1,5-8,5-8,29.38983274513417
57726786110894,Active,No,Traditional,Elementary,Public,Patwin Elementary,Davis Joint Unified,Yolo,2222 Shasta Drive,Davis,CA,No,1,K-6,K-6,28.274122380093996
33672156059158,Active,No,Traditional,Intermediate/Middle/Junior High,Public,University Heights Middle,Riverside Unified,Riverside,1155 Massachusetts Avenue,Riverside,CA,No,1,7-8,7-8,25.392537886059717
10739656006944,Active,No,Traditional,Elementary,Public,McKinley Elementary,Central Unified,Fresno,4444 West McKinley Avenue,Fresno,CA,No,1,K-6,K-6,24.830659208780087
54722565435839,Active,No,Continuation School,High School,Public,Sequoia High,Visalia Unified,Tulare,901 North Mooney Boulevard,Visalia,CA,Yes,2,9-12,10-12,23.58889537007546
35103553530037,Active,No,Opportunity School,Intermediate/Middle/Junior High,Public,San Benito County Opportunity,San Benito County Office of Education,San Benito,191 Alvarado Street,Hollister,CA,Yes,2,7-9,8-9,18.39661938483398
35675383530029,Active,No,Continuation School,High School,Public,San Andreas Continuation High,San Benito High,San Benito,191 Alvarado Street,Hollister,CA,Yes,2,9-12,10-12,18.39661938483398
54722310113639,Active,No,Traditional,Elementary,Public,Mission Valley Elementary,Tulare City,Tulare,1695 Bella Oaks Drive,Tulare,CA,No,1,K-6,K-6,16.737549334128076
25735932530087,Active,No,Continuation School,High School,Public,Tulelake Continuation High,Tulelake Basin Joint Unified,Siskiyou,800 Main Street,Tulelake,CA,Yes,2,7-12,9-11,15.216731617260141
25735934737250,Active,No,Traditional,Intermediate/Middle/Junior High - High Combination,Public,Tulelake High,Tulelake Basin Joint Unified,Siskiyou,850 Main Street,Tulelake,CA,Yes,2,7-12,7-12,15.216731617260141
57726786056303,Active,No,Traditional,Elementary,Public,Robert E. Willett Elementary,Davis Joint Unified,Yolo,1207 Sycamore Lane,Davis,CA,No,1,K-6,K-6,14.897963394662703
37684523730728,Active,No,Traditional,High School,Public,Rancho Buena Vista High,Vista Unified,San Diego,1601 Longhorn Drive,Vista,CA,No,1,9-12,9-12,13.420662936120351
10621176005938,Active,No,Traditional,Elementary,Public,Weldon Elementary,Clovis Unified,Fresno,150 DeWitt Avenue,Clovis,CA,No,1,K-6,K-6,12.091817542176043
16639176010433,Active,No,Traditional,Elementary,Public,Roosevelt Elementary,Hanford Elementary,Kings,870 Davis Street,Hanford,CA,No,1,K-6,K-6,11.192349674948066
56725386055347,Active,No,Traditional,Elementary,Public,Marina West Elementary,Oxnard,Ventura,2501 Carob Street,Oxnard,CA,No,1,K-5,K-5,9.571934904585643
49753586052351,Active,No,Traditional,Intermediate/Middle/Junior High,Public,Windsor Middle,Windsor Unified,Sonoma,9500 Brooks Road South,Windsor,CA,No,1,6-8,6-8,9.006172984518415
56105616069231,Active,No,Special Education School,Elementary - High Combination,Public,Ventura County Special Education,Ventura County Office of Education,Ventura,5250 Adolfo Road,Camarillo,CA,No,1,P-12,K-12,7.636750395867143
11754811130012,Active,No,Continuation School,High School,Public,North Valley High (Continuation),Orland Joint Unified,Glenn,220 Roosevelt Avenue,Orland,CA,No,1,9-12,9-12,6.623689461820378
57726786056295,Active,No,Traditional,Elementary,Public,Cesar Chavez Elementary,Davis Joint Unified,Yolo,1221 Anderson Road,Davis,CA,No,1,K-6,K-6,6.455218651114103
54105460125542,Active,Yes,Traditional,Elementary - Intermediate/Middle/Junior High Combination,Public,Sycamore Valley Academy,Tulare County Office of Education,Tulare,6832 Avenue 280,Visalia,CA,No,1,K-8,K-8,5.504167257899016
52716216053623,Active,No,Traditional,Elementary,Public,Bidwell Elementary,Red Bluff Union Elementary,Tehama,1256 Walnut Street,Red Bluff,CA,Yes,2,K-5,K-5,5.079794535656469
52716216114250,Active,No,Community Day School,Intermediate/Middle/Junior High,Public,Red Bluff Community Day,Red Bluff Union Elementary,Tehama,1770 S. Jackson,Red Bluff,CA,Yes,2,K-8,7-8,5.079794535656469
10621666006548,Active,No,Traditional,Elementary,Public,Vinland Elementary,Fresno Unified,Fresno,4666 North Maple Avenue,Fresno,CA,No,1,K-6,K-6,4.668198597632549
37684376040562,Active,No,Traditional,Elementary - Intermediate/Middle/Junior High Combination,Public,Vallecitos Elementary,Vallecitos Elementary,San Diego,5211 Fifth Street,Rainbow,CA,No,1,K-8,K-8,4.223453930748153
37735516037782,Active,No,Traditional,Elementary,Public,Jefferson Elementary,Carlsbad Unified,San Diego,3743 Jefferson Street,Carlsbad,CA,No,1,K-5,K-5,4.12638781434517
15637506110431,Active,No,Traditional,Elementary,Public,Del Rio Elementary,Rosedale Union Elementary,Kern,600 Hidalgo Drive,Bakersfield,CA,No,1,K-6,K-6,4.081768081282004
33672156032536,Active,No,Traditional,Elementary,Public,Alcott Elementary,Riverside Unified,Riverside,2433 Central Avenue,Riverside,CA,No,1,K-6,K-6,3.783332692859893
39686766042576,Active,No,Traditional,Elementary - Intermediate/Middle/Junior High Combination,Public,Fillmore Elementary,Stockton Unified,San Joaquin,2644 East Poplar Street,Stockton,CA,No,1,K-8,K-8,3.397683649967658
16747081690015,Active,No,Regional Occupational Center/Program,High School,Public,Kings County ROP,Kings County ROP,Kings,1144 West Lacey Boulevard,Hanford,CA,No,1,10-12,No Data,3.2398310006743123
33672156032635,Active,No,Traditional,Elementary,Public,Highland Elementary,Riverside Unified,Riverside,700 Highlander Drive,Riverside,CA,No,1,P-6,K-6,2.524550024437321
10621176005904,Active,No,Traditional,Elementary,Public,Sierra Vista Elementary,Clovis Unified,Fresno,510 Barstow Avenue,Clovis,CA,No,1,K-6,K-6,2.3669085745609206
16639176113609,Active,No,Traditional,Elementary,Public,Martin Luther King Jr. Elementary,Hanford Elementary,Kings,820 Hume Avenue,Hanford,CA,No,1,K-6,K-6,1.6894595178158343
54720580111740,Active,No,Community Day School,Intermediate/Middle/Junior High,Public,Buena Vista Community Day,Pleasant View Elementary,Tulare,14004 Road 184,Porterville,CA,Yes,2,4-8,6,1.0891656495818933
54720586054217,Active,No,Traditional,Elementary - Intermediate/Middle/Junior High Combination,Public,Pleasant View Elementary,Pleasant View Elementary,Tulare,14004 Road 184,Porterville,CA,Yes,2,K-8,K-8,1.0891656495818933
39686766042758,Active,No,Traditional,Elementary - Intermediate/Middle/Junior High Combination,Public,Roosevelt Elementary,Stockton Unified,San Joaquin,776 South Broadway Avenue,Stockton,CA,No,1,K-8,K-8,0.49332241978215485
16639251630169,Active,No,Traditional,High School,Public,Hanford West High,Hanford Joint Union High,Kings,1150 West Lacey Boulevard,Hanford,CA,No,1,9-12,9-12,0.3128528855828178
54722566054605,Active,No,Traditional,Intermediate/Middle/Junior High,Public,Green Acres Middle,Visalia Unified,Tulare,1147 North Mooney Boulevard,Visalia,CA,Yes,2,7-8,7-8,0.2335771801961325
39685856042097,Active,No,Traditional,Elementary,Public,George Washington Elementary,Lodi Unified,San Joaquin,831 West Lockeford Street,Lodi,CA,No,1,P-6,K-6,0.18585967910683704
56725796055537,Active,No,Traditional,Elementary,Public,Santa Clara Elementary,Santa Clara Elementary,Ventura,20030 East Telegraph Road,Santa Paula,CA,No,1,K-6,K-6,0.011660844373078147
